[[{"HospitalName":"London Childrens Hospital","Address":"12-4-38, Beside Rtc Complex Ingate, Anakapalli 531001 Dist Visakhapatnam Andhra Pradesh","City":"ANAKAPALLI","State":"ANDHRA PRADESH","PinCode":"531001"},{"HospitalName":"Mother And Child Hospital","Address":"12-4-17/18, Pudimadaka Rd,Near BHARAT PETROL BUNK, Sarada Colony, City: Anakapalle, Dist Visakhapatnam State : Andhra Pradesh -531001","City":"ANAKAPALLI","State":"ANDHRA PRADESH","PinCode":"531001"},{"HospitalName":"Satya Dev Hospitals Private Ltd","Address":"D.No. 12-4-55, Beside Axis Bank, Boddeda Apparao Street, R.T.C. Complex Road, City: Anakapalli, Dist: Visakhapatnam, State: Andhra Pradesh-531001","City":"ANAKAPALLI","State":"ANDHRA PRADESH","PinCode":"531001"},{"HospitalName":"Sri Vivekananda Hospital","Address":"Opp. APSRTC Complex Ingate, Pudimadaka Road, City: Anakapalle, Dist: Vishakapatnam, state: Andhra Pradesh - 531001","City":"ANAKAPALLI","State":"ANDHRA PRADESH","PinCode":"531001"},{"HospitalName":"Tirumala Jyoti Hospital","Address":"D.No.12-4-105/H, Anakapalle Visakhapatnam 531001 Dist Visakhapatnam Andhra Pradesh","City":"ANAKAPALLI","State":"ANDHRA PRADESH","PinCode":"531001"},{"HospitalName":"Usha Prime Multispeciality Hospital","Address":"Dr.No:12-4-6/1,Opp:Polamamba Temple, Pudimadaka Road,Near RTC Complex, Anakapalle, Visakhapatnam 531001 Dist Visakhapatnam Andhra Pradesh www.ushaprime.com","City":"ANAKAPALLI","State":"ANDHRA PRADESH","PinCode":"531001"}],[{"HospitalName":"Aasha Hospital","Address":"D.No:2/133, Yellanur Road, Beside Vijayalakshmi Theatre, Tdipatri, Dist: Ananthapur, State: Andhra Pradesh-515411","City":"ANANTAPUR","State":"ANDHRA PRADESH","PinCode":"515411"},{"HospitalName":"Aasha Hospitals","Address":"7/201, Court Road Anantapur 515001 Dist Anantapur Andhra Pradesh","City":"ANANTAPUR","State":"ANDHRA PRADESH","PinCode":"515001"},{"HospitalName":"Anantapur Orthopaedic Centre","Address":"11-909, 1st Main Road, Aravind Nagar,1ST Cross, City:Anantapur,Dist:Anantapur,State:Andhra pradesh-515001","City":"ANANTAPUR","State":"ANDHRA PRADESH","PinCode":"515001"},{"HospitalName":"Baby Hospital","Address":"21/2/950, 2Nd Cross, Sainagar,City:Anantapur Dist:Anantapur,State:Andhra Pradesh,515001","City":"ANANTAPUR","State":"ANDHRA PRADESH","PinCode":"515001"},{"HospitalName":"BALAJI MULTI SPECIALITY HOSPITAL","Address":"R.P.G.T Road City: Hindupur, Dist: Anantapur, State: Andhra Pradesh-515201 www.sribalajihospitals.co.in","City":"ANANTAPUR","State":"ANDHRA PRADESH","PinCode":"515201"},{"HospitalName":"Care & Cure Multi Speciality Hospital","Address":"#13-2-392-4, Ntr-Marg, Near RTC Busstop, City:Anantapur, Dist;Anantapur, State:Andhra Pradesh-515001","City":"ANANTAPUR","State":"ANDHRA PRADESH","PinCode":"515001"},{"HospitalName":"Dr. Akbar Eye Hospital and Laser Centre","Address":"12-3-234, 6th Cross Sai Nagar Anantapur 515001 Dist Anantapur Andhra Pradesh akbareyehospital.com","City":"ANANTAPUR","State":"ANDHRA PRADESH","PinCode":"515001"},{"HospitalName":"Dr. YSR Memorial Hospital","Address":"12-2-878, 1st Corss, Sai Nagar, Anantapur -515001; Dist: Anantapur; State: Andhra Pradesh","City":"ANANTAPUR","State":"ANDHRA PRADESH","PinCode":"515001"},{"HospitalName":"Harshitha Multi Speciality Hospital","Address":"#06/03/984, Maruthi Nagar 1st Cross, City: Anantapur, Dist: Anantapur, State: Andhra Pradesh - 515004","City":"ANANTAPUR","State":"ANDHRA PRADESH","PinCode":"515004"},{"HospitalName":"KUMAR ORTHO AND MULTI SPECIALITY HOSPITAL","Address":"Opp. State Bank of India, Vidyut Nagar, Ananthapuramu, City: Anantapur, Dist: Anantapur, State: Andhra Pradesh - 515001","City":"ANANTAPUR","State":"ANDHRA PRADESH","PinCode":"515001"},{"HospitalName":"Mamatha Super Speciality Hospital","Address":"D.No: 12-2-865, Sai Nagar, 1st Cross, Anantapuramu, City: Anantapur, Dist: Anantapur, State: Andhra Pradesh - 515001","City":"ANANTAPUR","State":"ANDHRA PRADESH","PinCode":"515001"},{"HospitalName":"MEDA NURSING HOME","Address":"D.NO: 13-2-536, RAMA CHANDRA NAGAR, ANANTHAPURAMU, City: Anantapur, Dist: Anantapur, State: Andhra Pradesh - 515001","City":"ANANTAPUR","State":"ANDHRA PRADESH","PinCode":"515001"},{"HospitalName":"Mythri Hospitals, Kamala Nagar","Address":"D.No: 15/721 Kamala Nagar Anantapur 515001 Dist Anantapur Andhra Pradesh","City":"ANANTAPUR","State":"ANDHRA PRADESH","PinCode":"515001"},{"HospitalName":"Pavani Hospital","Address":"12-03-195 5Th Cross Sainagar Anantapuram City:Anantapur,Dist:Anantapur,Sttae:Andhra Pradesh-515001","City":"ANANTAPUR","State":"ANDHRA PRADESH","PinCode":"515001"},{"HospitalName":"Rakshaa Multispeciality Hospital","Address":"D. No: 3-316, Tapovanam, City: Anantapur, Dist: Anantapur, State: Andhra Pradesh - 515004","City":"ANANTAPUR","State":"ANDHRA PRADESH","PinCode":"515004"},{"HospitalName":"Sainath Hospital","Address":"1/616-2B Railway Station Road, City:Kadiri, Dist:Anantapur, State:Andhra Pradesh-515591","City":"ANANTAPUR","State":"ANDHRA PRADESH","PinCode":"515591"},{"HospitalName":"Saveera Insititute Of Medical Sciences Pvt Ltd","Address":"#1-1348, Sri Nagaar Colony Extension, City: Anantapur, Dist: Anantapur, State: Andhra Pradesh- 515004 www.kimshospital.com","City":"ANANTAPUR","State":"ANDHRA PRADESH","PinCode":"515004"},{"HospitalName":"Shreya Hospital","Address":"13-2-144, Shirdi Sai Nagar, Near RTC Busstand, City: Ananthapur , Dist: Ananthapur, State: Andhra Pradesh - 515001","City":"ANANTAPUR","State":"ANDHRA PRADESH","PinCode":"515001"},{"HospitalName":"Siri Hospital","Address":"Sy.No.2679, D.No.11-235, 1St Cross, Aravinda Nagar, City:Anantapur, Dist:Anantapur, State:Andhra Pradesh-515001","City":"ANANTAPUR","State":"ANDHRA PRADESH","PinCode":"515001"},{"HospitalName":"Snehalatha Hospitals","Address":"#13-5-510, Opp:Ganga-Gowri Cine Complex, Khaja Nagar Ananthapur 515001 Dist Ananthapur Andhra Pradesh","City":"ANANTAPUR","State":"ANDHRA PRADESH","PinCode":"515001"},{"HospitalName":"Sree Amaravathi Multi Speciality Hospital","Address":"11-1-234,3rd Cross, Aravind Nagar, Ananthapuramu, Dist: Anantapur, State: Andhra Pradesh-515001","City":"ANANTAPUR","State":"ANDHRA PRADESH","PinCode":"515001"},{"HospitalName":"Sree Nethra ENT And EYE Care Hospital","Address":"Sree Leela Palace, 3rd Cross, Sai Nagar, Anantapur 515001 Dist Anantapur Andhra Pradesh","City":"ANANTAPUR","State":"ANDHRA PRADESH","PinCode":"515001"},{"HospitalName":"SREE NIDHI HOSPITAL","Address":"D.No: 12-3-56 & 12-3-57, 4th Cross, Sai Nagar, Ananthapuramu, City: Anantapur, Dist: Anantapur, State: Andhra Pradesh - 515001","City":"ANANTAPUR","State":"ANDHRA PRADESH","PinCode":"515001"},{"HospitalName":"Sreenivasa Childrens Hospital","Address":"13-3-488, Near Gouri Cine Complex, Khaja Nagar Anantapur 515001 Dist Anantapur Andhra Pradesh","City":"ANANTAPUR","State":"ANDHRA PRADESH","PinCode":"515001"},{"HospitalName":"Sreenivasa Multispeciality Hospital","Address":"D.No. 28-271, Near Iron Bridge, Subash Road, City:Anantapur, Dist:Anantapur, State:Andhra Pradesh-515001","City":"ANANTAPUR","State":"ANDHRA PRADESH","PinCode":"515001"},{"HospitalName":"SV Hospital","Address":"D.No:14-327, Kamala Nagar, Ananthapur 515001 Dist Ananthapur Andhra Pradesh","City":"ANANTAPUR","State":"ANDHRA PRADESH","PinCode":"515001"},{"HospitalName":"SVR NEURO AND NEPHRO CARE","Address":"D. No: 4-1-879, 879-A, Bellary Road, Near Hero Show Room, City: Anantapuram, Dist: Anantapuram, State: Andhra Pradesh - 515001","City":"ANANTAPUR","State":"ANDHRA PRADESH","PinCode":"515001"},{"HospitalName":"TIRUMALA HOSPITAL","Address":"D.No : 6-3-267-24, Near Ram Nagar Fly Over, Beside Crescent School, Ram Nagar Main Road, Anantapuramu, City: Anantapur, Dist: Anantapur, State: Andhra Pradesh - 515004","City":"ANANTAPUR","State":"ANDHRA PRADESH","PinCode":"515004"},{"HospitalName":"Vasan Eye Care Hospital Anantapur","Address":"# 15/581, Street Raju Road Raju Road Anantapur 515001 Dist Anantapur Andhra Pradesh","City":"ANANTAPUR","State":"ANDHRA PRADESH","PinCode":"515001"},{"HospitalName":"VIJAYA SANKAR HOSPITAL","Address":"D.No: 11-235, Zero Cross, Sai Nagar, City: Anantapur, Dist: Anantapur, State: Andhra Pradesh - 515001","City":"ANANTAPUR","State":"ANDHRA PRADESH","PinCode":"515001"}]]