[[{"InsuranceCompanyName":"ADITYA BIRLA HEALTH INSURANCE COMPANY LTD","HospitalName":"DR. AGARWAL'S EYE HOSPITAL LTD","Address":"No. 32 / 4 ,Near Radha Govind Temple,Near Radha Govind Temple,PORTBLAIR,PORTBLAIR,744101","City":"ANDAMAN","State":"Andaman and Nicobar Islands","Pincode":"744101"}],[{"InsuranceCompanyName":"ADITYA BIRLA HEALTH INSURANCE COMPANY LTD","HospitalName":"A J GLOBAL HEALTH CARE HOSPITAL","Address":"Vinayal Nagar 100 Feet Ring Road,BesaideBhashvah School,,535002","City":"VIZIANAGARAM","State":"Andhrapradesh","Pincode":"535002"},{"InsuranceCompanyName":"ADITYA BIRLA HEALTH INSURANCE COMPANY LTD","HospitalName":"A1 HOSPITAL","Address":"# 12-1-36 ANNA SRINIVASA RAO KALYANAMANDAPAM ROAD,KOTHAPET,GUNTUR,,522001","City":"GUNTUR","State":"Andhrapradesh","Pincode":"522001"},{"InsuranceCompanyName":"ADITYA BIRLA HEALTH INSURANCE COMPANY LTD","HospitalName":"A1 LAPAROSCOPY HOSPITAL","Address":"14-25-11/3,Z.P ROAD,MAHARANIPETA,,530002","City":"VISHAKAPATNAM","State":"Andhrapradesh","Pincode":"530002"},{"InsuranceCompanyName":"ADITYA BIRLA HEALTH INSURANCE COMPANY LTD","HospitalName":"AAKRITHI HOSPITAL","Address":"No.29-12-43, Venkatarathnam Street, Suryaraopet,,,,520002","City":"ALWAR","State":"Andhrapradesh","Pincode":"520002"},{"InsuranceCompanyName":"ADITYA BIRLA HEALTH INSURANCE COMPANY LTD","HospitalName":"AARIF NURSING HOME","Address":"LAKSHMI STREET,NEAR INCOME TAX OFFICE,,530020","City":"VISHAKAPATNAM","State":"Andhrapradesh","Pincode":"530020"},{"InsuranceCompanyName":"ADITYA BIRLA HEALTH INSURANCE COMPANY LTD","HospitalName":"AAROGYA HOSPITAL","Address":"28-163 ,BANDAR ROAD ,REVENUE WARD , NO : 25 NUZIVIDU,Opp. IDBI Bank Junction road,,521201","City":"NUZVID","State":"Andhrapradesh","Pincode":"521201"},{"InsuranceCompanyName":"ADITYA BIRLA HEALTH INSURANCE COMPANY LTD","HospitalName":"AAROGYA HOSPITAL (A UNIT OF SAFE EMERGENCY HOSPITALS)","Address":"D.NO.  7-23-30/1 , GANGANAMMAPET ,PRAKASAM ROAD, TENALI ,GUNTUR DISTRICT , AP,,,522201","City":"ALWAR","State":"Andhrapradesh","Pincode":"522201"},{"InsuranceCompanyName":"ADITYA BIRLA HEALTH INSURANCE COMPANY LTD","HospitalName":"AASHA HOSPITALS","Address":"7-201,COURT ROAD,,515001","City":"ANANTAPUR","State":"Andhrapradesh","Pincode":"515001"},{"InsuranceCompanyName":"ADITYA BIRLA HEALTH INSURANCE COMPANY LTD","HospitalName":"AASHIRWAD HOSPITAL","Address":"H.No.5-6-303, Saraswathi Nagar, Road, No.2,,,,503002","City":"ALWAR","State":"Andhrapradesh","Pincode":"503002"},{"InsuranceCompanyName":"ADITYA BIRLA HEALTH INSURANCE COMPANY LTD","HospitalName":"AASHRAYA MULTI SPECIALTY HOSPITAL","Address":"\"1-653/3, Opp. Kannan Kalyanamandapam, Kattamanchi, Chittoor,,,517001","City":"CHITTOOR","State":"Andhrapradesh","Pincode":"517001"},{"InsuranceCompanyName":"ADITYA BIRLA HEALTH INSURANCE COMPANY LTD","HospitalName":"AAYUSHMAN HOSPITAL (A UNITE OF LSN MULITISPECIALITY HOSPITAL PVT LTD)","Address":"D.NO. 17-1-1, OPPOSITE KGH OUT GATE, MAHARANIPETA,,,530002","City":"VISHAKAPATNAM","State":"Andhrapradesh","Pincode":"530002"},{"InsuranceCompanyName":"ADITYA BIRLA HEALTH INSURANCE COMPANY LTD","HospitalName":"AAYUSHMAN THE FAMILY HOSPITAL","Address":"D.NO.45/145A1,VENKATARAMANA COLONY,,518003","City":"KURNOOL","State":"Andhrapradesh","Pincode":"518003"},{"InsuranceCompanyName":"ADITYA BIRLA HEALTH INSURANCE COMPANY LTD","HospitalName":"ABHAYA EMERGENCY CENTRE SRI HOSPITALS","Address":"79-1-4/1,J.N. ROAD,,533103","City":"EAST GODAVARI","State":"Andhrapradesh","Pincode":"533103"},{"InsuranceCompanyName":"ADITYA BIRLA HEALTH INSURANCE COMPANY LTD","HospitalName":"ABHAYA KIDNEY & MULTISPECIALITY HOSPITAL","Address":"#H.No.4-196, J.B.Nagar, Bus Stand Road,,,504208","City":"ALWAR","State":"Andhrapradesh","Pincode":"504208"},{"InsuranceCompanyName":"ADITYA BIRLA HEALTH INSURANCE COMPANY LTD","HospitalName":"ABHAYA MULTISPECIALITY HOSPITAL (A UNIT OF ABHAYA WELLNESS PVT. LTD.)","Address":"#D.No.33-18-02, Chalasani Venkata Krishnaiah Street,\nSuryaraopet,,,,520002","City":"ALWAR","State":"Andhrapradesh","Pincode":"520002"},{"InsuranceCompanyName":"ADITYA BIRLA HEALTH INSURANCE COMPANY LTD","HospitalName":"ABHILASH NETHRA VYDYASALA","Address":"#D.No.3/1350, Gandhi Road, Proddutur,YSR KADAPA,,,516361","City":"PRODDATUR","State":"Andhrapradesh","Pincode":"516361"},{"InsuranceCompanyName":"ADITYA BIRLA HEALTH INSURANCE COMPANY LTD","HospitalName":"ABHINAV NURSING HOME","Address":"Opp. Sai Baba Temple, 4Th Lane,,,535145","City":"ALWAR","State":"Andhrapradesh","Pincode":"535145"},{"InsuranceCompanyName":"ADITYA BIRLA HEALTH INSURANCE COMPANY LTD","HospitalName":"ABHIRAM INSTITUTE OF MEDICAL SCIENCES","Address":"OPP APS RTC DEPOT,ATMAKUR,,524322","City":"NELLORE","State":"Andhrapradesh","Pincode":"524322"},{"InsuranceCompanyName":"ADITYA BIRLA HEALTH INSURANCE COMPANY LTD","HospitalName":"ADARSH HOSPITAL","Address":"86-26-5 V.L. PURAM JN M.S. NARAYANA,STREET RAJAHMUNDRY,,533103","City":"EAST GODAVARI","State":"Andhrapradesh","Pincode":"533103"},{"InsuranceCompanyName":"ADITYA BIRLA HEALTH INSURANCE COMPANY LTD","HospitalName":"ADARSHA MEDICAL CENTRE PRIVATE LIMITED","Address":"SUNDARAIAH BHAVAN ROAD,PRAKASAM,,,523002","City":"PRAKASAM","State":"Andhrapradesh","Pincode":"523002"},{"InsuranceCompanyName":"ADITYA BIRLA HEALTH INSURANCE COMPANY LTD","HospitalName":"ADILAKSHMI NURSING HOME","Address":"G.B.C. RAOD,PONNUR,,522124","City":"GUNTUR","State":"Andhrapradesh","Pincode":"522124"},{"InsuranceCompanyName":"ADITYA BIRLA HEALTH INSURANCE COMPANY LTD","HospitalName":"ADITYA MULTI CARE HOSPITAL","Address":"18-1-33 OPP. K.G.H.O.P GATE ADITYA,MEDICAL COMPLEX,,530002","City":"VISHAKAPATNAM","State":"Andhrapradesh","Pincode":"530002"},{"InsuranceCompanyName":"ADITYA BIRLA HEALTH INSURANCE COMPANY LTD","HospitalName":"ADITYA MULTISPECIALITY HOSPITAL","Address":"13.03.52,GUNTURUVARI THOTA 3rd LINE,KOTHAPET GUNTUR,,522001","City":"GUNTUR","State":"Andhrapradesh","Pincode":"522001"},{"InsuranceCompanyName":"ADITYA BIRLA HEALTH INSURANCE COMPANY LTD","HospitalName":"ADITYA NURSING HOME","Address":"NO.1/541-135,AAS COLLEGE ROAD,ADONI,518302","City":"KURNOOL","State":"Andhrapradesh","Pincode":"518302"},{"InsuranceCompanyName":"ADITYA BIRLA HEALTH INSURANCE COMPANY LTD","HospitalName":"AGRASENI HOSPITAL","Address":"46/1/ BKST 504,SAPTHAGIRI NAGAR NEAR NEW TYYPPASWAMY TEMPLE,KURNOOL,,518002","City":"KURNOOL","State":"Andhrapradesh","Pincode":"518002"},{"InsuranceCompanyName":"ADITYA BIRLA HEALTH INSURANCE COMPANY LTD","HospitalName":"AHALYADEVI NURSING HOME","Address":"16-1-712,NEAR NEHRU STATE,TRUNK ROAD,524003","City":"NELLORE","State":"Andhrapradesh","Pincode":"524003"},{"InsuranceCompanyName":"ADITYA BIRLA HEALTH INSURANCE COMPANY LTD","HospitalName":"AIMS HOSPITAL (RAMAIAH ACADEMY OF MEDICAL SCIENCES FOUNDATION)","Address":"OPP.SBI BANK,ANJAIAH ROAD, ONGOLE PRAKASAM , SEETHARAMAPURAM,,,523002","City":"PRAKASAM","State":"Andhrapradesh","Pincode":"523002"},{"InsuranceCompanyName":"ADITYA BIRLA HEALTH INSURANCE COMPANY LTD","HospitalName":"AINU HOSPITAL","Address":"D.NO.47-11-12,1ST LANE,DWARKALAGAN,VISHAKHSPATNAM,,,530016","City":"VISHAKAPATNAM","State":"Andhrapradesh","Pincode":"530016"},{"InsuranceCompanyName":"ADITYA BIRLA HEALTH INSURANCE COMPANY LTD","HospitalName":"AKASAM HOSPITAL","Address":"D.No.6-4-4, Mahipala Street, amalapuram,godavari,,,533201","City":"EAST GODAVARI","State":"Andhrapradesh","Pincode":"533201"},{"InsuranceCompanyName":"ADITYA BIRLA HEALTH INSURANCE COMPANY LTD","HospitalName":"AKIRA EYE HOSPITAL","Address":"ARYAPURAM, RAJAHMUNDRY,,,533104","City":"EAST GODAVARI","State":"Andhrapradesh","Pincode":"533104"},{"InsuranceCompanyName":"ADITYA BIRLA HEALTH INSURANCE COMPANY LTD","HospitalName":"AKIRA EYE HOSPITAL","Address":"BHARATHI NAGAR , OPP. VINAYAKA THEATRE VIJYAWADA,,,521201","City":"KRISHNA","State":"Andhrapradesh","Pincode":"521201"},{"InsuranceCompanyName":"ADITYA BIRLA HEALTH INSURANCE COMPANY LTD","HospitalName":"AKSHAYA HOSPITALS (A UNIT OF SUBIKSHA HEALTHCARE PRIVATE LIMITED)","Address":"#D.No.2/583, Opp BSNL Tower, Jammalamadugu Road, Proddatur,Proddatur,,516360","City":"CUDDAPAH","State":"Andhrapradesh","Pincode":"516360"},{"InsuranceCompanyName":"ADITYA BIRLA HEALTH INSURANCE COMPANY LTD","HospitalName":"AKSHITA HOSPITAL","Address":"3RD STREET, CHILDRENS PARD ROAD, JAGADISH NAGAR, NELLORE, ANDHRA PRADESH,,,524002","City":"NELLORE","State":"Andhrapradesh","Pincode":"524002"},{"InsuranceCompanyName":"ADITYA BIRLA HEALTH INSURANCE COMPANY LTD","HospitalName":"ALAPATI NURSING HOME","Address":"GOPALREDDY STREET,GANGANAMMAPET,,522201","City":"GUNTUR","State":"Andhrapradesh","Pincode":"522201"},{"InsuranceCompanyName":"ADITYA BIRLA HEALTH INSURANCE COMPANY LTD","HospitalName":"AMAR ORTHOPAEDIC HOSPITAL","Address":"13-2-12,1ST LINE UVARI THOTA,,522001","City":"GUNTUR","State":"Andhrapradesh","Pincode":"522001"},{"InsuranceCompanyName":"ADITYA BIRLA HEALTH INSURANCE COMPANY LTD","HospitalName":"AMARA HOSPITAL (A UNIT OF G2 HEALTHCARE PVT LTD)","Address":"7-3-166, RENIGUNTA , KADAPA HIGHWAY, TIRUPATHI,,,517520","City":"CHITTOOR","State":"Andhrapradesh","Pincode":"517520"},{"InsuranceCompanyName":"ADITYA BIRLA HEALTH INSURANCE COMPANY LTD","HospitalName":"AMARAVATHI HOSPITALS","Address":"14/267,church street gudur,Nellore Dist,,524101","City":"GUDUR","State":"Andhrapradesh","Pincode":"524101"},{"InsuranceCompanyName":"ADITYA BIRLA HEALTH INSURANCE COMPANY LTD","HospitalName":"AMARAVATHI HOSPTALS","Address":"BESIDE SBI,S.N. COLONY,RAYACHOTY,KADAPA DIST , RAYACHOTI,Rayachoti,,516269","City":"CUDDAPAH","State":"Andhrapradesh","Pincode":"516269"},{"InsuranceCompanyName":"ADITYA BIRLA HEALTH INSURANCE COMPANY LTD","HospitalName":"AMARAVATHI INSTITUTE OF MEDICAL SCIENCES PVT LTD","Address":"OLD CLUB ROAD,KOTHAPETA. OLDCLUB ROAD,,522001","City":"GUNTUR","State":"Andhrapradesh","Pincode":"522001"},{"InsuranceCompanyName":"ADITYA BIRLA HEALTH INSURANCE COMPANY LTD","HospitalName":"AMARAVATI EYE HOSPITAL","Address":"D.NO.29-14-45, SRI GURU RESIDENCY,  PRAKASAM ROAD, SURYARAOPET, PUSHPA HOTEL CENTRE, VIJAYAWADA,,,520002","City":"KRISHNA","State":"Andhrapradesh","Pincode":"520002"},{"InsuranceCompanyName":"ADITYA BIRLA HEALTH INSURANCE COMPANY LTD","HospitalName":"AMEELIO HOSPITAL (A UNIT OF SURAKSHITHA HEALTH CARE PVT LTD)","Address":"NO:51/15-A-1,BELLEARY CHOWARASTA,KURNOOL,,518002","City":"KURNOOL","State":"Andhrapradesh","Pincode":"518002"},{"InsuranceCompanyName":"ADITYA BIRLA HEALTH INSURANCE COMPANY LTD","HospitalName":"AMERICAN ONCOLOGY INSTITUTE (A UNIT OF CANCER TREATMENT SERVICES HYDERABAD PVT LTD)","Address":"6-224/2, NRI HOSPITAL, CHINNAKAKANI, MANGALAGIRI ROAD,,GUNTUR,522503","City":"GUNTUR","State":"Andhrapradesh","Pincode":"522503"},{"InsuranceCompanyName":"ADITYA BIRLA HEALTH INSURANCE COMPANY LTD","HospitalName":"AMERICAN ONCOLOGY INSTITUTE (A UNIT OF CANCER TREATMENT SERVICES HYDERABAD PVT.LTD.)","Address":"D.8-102/1, NAGARJUNA HOSPITAL CAMPUS, KANURU VIJAYAWADA,,,520007","City":"KRISHNA","State":"Andhrapradesh","Pincode":"520007"},{"InsuranceCompanyName":"ADITYA BIRLA HEALTH INSURANCE COMPANY LTD","HospitalName":"AMERICAN ONCOLOGY INSTITUTE(A UNIT OF CANCER TREATMENT SERVICES HYDERABAD PVT LTD)","Address":"PEDA KAKANI,ADRESSSS 1,,522509","City":"GUNTUR","State":"Andhrapradesh","Pincode":"522509"},{"InsuranceCompanyName":"ADITYA BIRLA HEALTH INSURANCE COMPANY LTD","HospitalName":"AMMA CHILDREN HOSPITAL","Address":"18-2-139A, Ashok Nagar,,,517001","City":"CHITTOOR","State":"Andhrapradesh","Pincode":"517001"},{"InsuranceCompanyName":"ADITYA BIRLA HEALTH INSURANCE COMPANY LTD","HospitalName":"AMMA CHILDREN'S HOSPITAL","Address":"NO.137-7-109/D,OLD CLUB ROAD,VARI THOTA,522001","City":"GUNTUR","State":"Andhrapradesh","Pincode":"522001"},{"InsuranceCompanyName":"ADITYA BIRLA HEALTH INSURANCE COMPANY LTD","HospitalName":"AMMA CHILDRENS HOSPITAL","Address":"LAMBADI DONKA, KURNOOL ROAD, ONGOLE. PRAKASHAM , SEETHARAMAPURAM (O),,,523001","City":"KRISHNA","State":"Andhrapradesh","Pincode":"523001"},{"InsuranceCompanyName":"ADITYA BIRLA HEALTH INSURANCE COMPANY LTD","HospitalName":"AMMA CHILDRENS HOSPITAL","Address":"LAMBADI DONKA,KURNOOL ROAD,PRAKASAM,,,523001","City":"PRAKASAM","State":"Andhrapradesh","Pincode":"523001"},{"InsuranceCompanyName":"ADITYA BIRLA HEALTH INSURANCE COMPANY LTD","HospitalName":"AMMA HOSPITAL","Address":"9-64-2,SYED GULAB STREET,KOTHAPET,520001","City":"KRISHNA","State":"Andhrapradesh","Pincode":"520001"},{"InsuranceCompanyName":"ADITYA BIRLA HEALTH INSURANCE COMPANY LTD","HospitalName":"AMMA HOSPITAL","Address":"87/654-1A, Madhava Nagar,,,518002","City":"KURNOOL","State":"Andhrapradesh","Pincode":"518002"},{"InsuranceCompanyName":"ADITYA BIRLA HEALTH INSURANCE COMPANY LTD","HospitalName":"AMMAJI ¿ PAVANI MEMORIAL SUPER SPECIALITY HOSPITAL","Address":"#D.No.13-2-25, 1st Line, Guntuvarithota, Kothapet,,,522001","City":"ALWAR","State":"Andhrapradesh","Pincode":"522001"},{"InsuranceCompanyName":"ADITYA BIRLA HEALTH INSURANCE COMPANY LTD","HospitalName":"AMRUTHA CHEST CENTRE","Address":"I65110/235, BANK COLONY, SRI HARI NAGAR, MINI BYPASS ROAD,,,524003","City":"NELLORE","State":"Andhrapradesh","Pincode":"524003"},{"InsuranceCompanyName":"ADITYA BIRLA HEALTH INSURANCE COMPANY LTD","HospitalName":"AMRUTHA HEALTH CARE CENTRE","Address":"#D.No.15-\n149/31, Prabhu Nagar, Poranki,,,,521137","City":"ALWAR","State":"Andhrapradesh","Pincode":"521137"},{"InsuranceCompanyName":"ADITYA BIRLA HEALTH INSURANCE COMPANY LTD","HospitalName":"AMRUTHA HEART HOSPITAL","Address":"60 FEET ROAD SATYAN,ARAYANAPURAM,,523002","City":"PRAKASAM","State":"Andhrapradesh","Pincode":"523002"},{"InsuranceCompanyName":"ADITYA BIRLA HEALTH INSURANCE COMPANY LTD","HospitalName":"AMRUTHA HOSPITAL","Address":"OLD CLUB ROAD,KOTHAPET,GUNTUR,,,522001","City":"GUNTUR","State":"Andhrapradesh","Pincode":"522001"},{"InsuranceCompanyName":"ADITYA BIRLA HEALTH INSURANCE COMPANY LTD","HospitalName":"AMRUTHA HOSPITAL","Address":"H.no: 4-179/4, Janmabhoomi nagar, Opp: Karur vysys bank Mancherial,,,504208","City":"MANCHERIAL","State":"Andhrapradesh","Pincode":"504208"},{"InsuranceCompanyName":"ADITYA BIRLA HEALTH INSURANCE COMPANY LTD","HospitalName":"AMRUTHA HOSPITAL - KURNOOL","Address":"Sbh Lane, Gayatri Estate,0,,518002","City":"KURNOOL","State":"Andhrapradesh","Pincode":"518002"},{"InsuranceCompanyName":"ADITYA BIRLA HEALTH INSURANCE COMPANY LTD","HospitalName":"AMRUTHA NURSING HOME","Address":"7-14-4, BATTAVART, ST. GANGANAMMAPET, TENALI,,,522201","City":"GUNTUR","State":"Andhrapradesh","Pincode":"522201"},{"InsuranceCompanyName":"ADITYA BIRLA HEALTH INSURANCE COMPANY LTD","HospitalName":"AMRUTHA NURSING HOME PRIVATE LIMITED","Address":"D.NO.10-7-85,KAILASH NAGAR,,530026","City":"VISHAKAPATNAM","State":"Andhrapradesh","Pincode":"530026"},{"InsuranceCompanyName":"ADITYA BIRLA HEALTH INSURANCE COMPANY LTD","HospitalName":"AMULYA HOSPITAL (A UNIT OF FOUR HEALTH CARE INDIA PVT. LTD.","Address":"Nowroji Road, Maharanipeta,,,530002","City":"ALWAR","State":"Andhrapradesh","Pincode":"530002"},{"InsuranceCompanyName":"ADITYA BIRLA HEALTH INSURANCE COMPANY LTD","HospitalName":"AMULYA NURSING HOME","Address":"ROAD,NARASARAOPET,,522601","City":"GUNTUR","State":"Andhrapradesh","Pincode":"522601"},{"InsuranceCompanyName":"ADITYA BIRLA HEALTH INSURANCE COMPANY LTD","HospitalName":"ANASUYA INSTITUTE OF MEDICAL SCIENCES","Address":"16/2/142 HOTEL VENKATARAMANA LANE,POGATHOTA,,524001","City":"NELLORE","State":"Andhrapradesh","Pincode":"524001"},{"InsuranceCompanyName":"ADITYA BIRLA HEALTH INSURANCE COMPANY LTD","HospitalName":"ANDHRA HOSPITALS (BHAVANIPURAM) PVT LTD.","Address":"D.NO.: 16/72-1, OPP. HIGH SCHOOL, GOLLAPUDI, KRISHNA DISTICT,,,521225","City":"KRISHNA","State":"Andhrapradesh","Pincode":"521225"},{"InsuranceCompanyName":"ADITYA BIRLA HEALTH INSURANCE COMPANY LTD","HospitalName":"ANDHRA HOSPITALS (VIJAYAWADA) PVT. LTD.","Address":"C.V.R COMPLEX, PRAKASAMROAD,,,520002","City":"KRISHNA","State":"Andhrapradesh","Pincode":"520002"},{"InsuranceCompanyName":"ADITYA BIRLA HEALTH INSURANCE COMPANY LTD","HospitalName":"ANDHRA PRIME HOSPITALS","Address":"OPP. METRO THEATER, KOTHAPET, GUNTUR,,,522001","City":"GUNTUR","State":"Andhrapradesh","Pincode":"522001"},{"InsuranceCompanyName":"ADITYA BIRLA HEALTH INSURANCE COMPANY LTD","HospitalName":"ANEESH KIDNEY CENTRE","Address":"Lambadi Donka, Power Office Road,Prakasham,,523002","City":"PRAKASAM","State":"Andhrapradesh","Pincode":"523002"},{"InsuranceCompanyName":"ADITYA BIRLA HEALTH INSURANCE COMPANY LTD","HospitalName":"ANIL NEERUKONDA HOSPITAL","Address":"Sangi valasa, Tagarapuvalasa,,Bheemunipatnam, Visakhapatnam,,531162","City":"VISHAKAPATNAM","State":"Andhrapradesh","Pincode":"531162"},{"InsuranceCompanyName":"ADITYA BIRLA HEALTH INSURANCE COMPANY LTD","HospitalName":"ANIL NEURO & TRAUMA CENTRE","Address":"D NO:31-21-25C, CHUTTUGUNTA , ELURU ROAD, VIJAYAWADA, ANDHRA PRADESH,,,520002","City":"KRISHNA","State":"Andhrapradesh","Pincode":"520002"},{"InsuranceCompanyName":"ADITYA BIRLA HEALTH INSURANCE COMPANY LTD","HospitalName":"ANJALI NURSING HOME","Address":"23/827,Ramesh Reddy Nagar,,,,524001","City":"NELLORE","State":"Andhrapradesh","Pincode":"524001"},{"InsuranceCompanyName":"ADITYA BIRLA HEALTH INSURANCE COMPANY LTD","HospitalName":"ANJANA VAIDYALAYA","Address":"#64-37-1, Near Raja Theatre, Korukonda Road, Rajamahendravaram,,,533105","City":"ALWAR","State":"Andhrapradesh","Pincode":"533105"},{"InsuranceCompanyName":"ADITYA BIRLA HEALTH INSURANCE COMPANY LTD","HospitalName":"ANJANI SUPER SPECIALITY HOSPITAL","Address":"D No. 12-12-34 Near Bose Statue, Old Club Road, Kothapet,,,522001","City":"GUNTUR","State":"Andhrapradesh","Pincode":"522001"},{"InsuranceCompanyName":"ADITYA BIRLA HEALTH INSURANCE COMPANY LTD","HospitalName":"ANKURA HOSPITAL FOR WOMEN & CHILDREN (ANKURA INSTITUTE OF MEDICAL SCIENCES PVT. LTD.)","Address":"#D.No.60-9-10/2A, 2B, Revenue Ward 18,Chennupati Shyam Prasad Street, Siddharthanagar, 7th Lane, Pinnamaneni Poly ClinicRoad,Patamata,,520010","City":"KRISHNA","State":"Andhrapradesh","Pincode":"520010"},{"InsuranceCompanyName":"ADITYA BIRLA HEALTH INSURANCE COMPANY LTD","HospitalName":"ANKURA HOSPITAL FOR WOWEN & CHILDREN (A UNIT OF ANKURA TIRUPATI HOSPITALS PVT LTD)","Address":"House No. 19-3-14/N, RS No.5-2A/4, and 5-2A/5, Ward No 19, Block No 3, P&T Colony Renigunta Road,,,517501","City":"CHITTOOR","State":"Andhrapradesh","Pincode":"517501"},{"InsuranceCompanyName":"ADITYA BIRLA HEALTH INSURANCE COMPANY LTD","HospitalName":"ANNAPURNA HOSPITALS AND EMERGENCY CARE CENTRE","Address":"No17-9-14, Seetampeta, A.P.P.Mills Road, Rajahmundry,,,533104","City":"ALWAR","State":"Andhrapradesh","Pincode":"533104"},{"InsuranceCompanyName":"ADITYA BIRLA HEALTH INSURANCE COMPANY LTD","HospitalName":"ANNAPURNA MULTISPECIALITY HOSPITAL","Address":"10/165 ELURU ROAD KRISHNA- OPP.BANK OF BARODA,,,521301","City":"KRISHNA","State":"Andhrapradesh","Pincode":"521301"},{"InsuranceCompanyName":"ADITYA BIRLA HEALTH INSURANCE COMPANY LTD","HospitalName":"ANU HOSPITALS","Address":"KOVELARNUDIVARI ST, SURYARAOPET, KRISHNA DIST.,,,520003","City":"KRISHNA","State":"Andhrapradesh","Pincode":"520003"},{"InsuranceCompanyName":"ADITYA BIRLA HEALTH INSURANCE COMPANY LTD","HospitalName":"ANVESH MOTHER & CHILD HOSPITAL","Address":"6-165-1, BALAJI NAGAR, GUDUR,SPSR NELLORE(DIST),,,524101","City":"NELLORE","State":"Andhrapradesh","Pincode":"524101"},{"InsuranceCompanyName":"ADITYA BIRLA HEALTH INSURANCE COMPANY LTD","HospitalName":"APEX HOSPITAL","Address":"75-6-23,PRAKASH NAGAR,EAST GODAVARI,533103","City":"EAST GODAVARI","State":"Andhrapradesh","Pincode":"533103"},{"InsuranceCompanyName":"ADITYA BIRLA HEALTH INSURANCE COMPANY LTD","HospitalName":"APEX HOSPITAL","Address":"60-6-10,3RD LINE, SIDDHARTH NAGAR,POLYCLINIC ROAD,VIJAYAWADA,,,520010","City":"KRISHNA","State":"Andhrapradesh","Pincode":"520010"},{"InsuranceCompanyName":"ADITYA BIRLA HEALTH INSURANCE COMPANY LTD","HospitalName":"APEX HOSPITAL (STEEL CITY CRITICAL CARE PVT LTD)","Address":"16-1-5,COASTAL BATTERY ROAD,MAHARANIPETA,530002","City":"VISHAKAPATNAM","State":"Andhrapradesh","Pincode":"530002"},{"InsuranceCompanyName":"ADITYA BIRLA HEALTH INSURANCE COMPANY LTD","HospitalName":"APLUSS HOSPITALS","Address":"31-12-8, Duvvada Station Road ,Gajuwaka Kurmannapalem,,,530046","City":"VISHAKAPATNAM","State":"Andhrapradesh","Pincode":"530046"},{"InsuranceCompanyName":"ADITYA BIRLA HEALTH INSURANCE COMPANY LTD","HospitalName":"APOLLO HOSPITAL","Address":"13-1-3, Suryaraopeta, Main Road,,,533001","City":"EAST GODAVARI","State":"Andhrapradesh","Pincode":"533001"},{"InsuranceCompanyName":"ADITYA BIRLA HEALTH INSURANCE COMPANY LTD","HospitalName":"APOLLO HOSPITAL (KAKINADA)","Address":"13-1-3, Main Road, Kakinada,,,533001","City":"EAST GODAVARI","State":"Andhrapradesh","Pincode":"533001"},{"InsuranceCompanyName":"ADITYA BIRLA HEALTH INSURANCE COMPANY LTD","HospitalName":"APOLLO HOSPITALS","Address":"WALTAIR MAIN ROAD,VISHAKAPATNAM,,530017","City":"VISHAKAPATNAM","State":"Andhrapradesh","Pincode":"530017"},{"InsuranceCompanyName":"ADITYA BIRLA HEALTH INSURANCE COMPANY LTD","HospitalName":"APOLLO HOSPITALS ENTERPRISE LIMITED","Address":"Survey No 68P & 76,Health City,Arilova Chinagdili,,,530040","City":"VISHAKAPATNAM","State":"Andhrapradesh","Pincode":"530040"},{"InsuranceCompanyName":"ADITYA BIRLA HEALTH INSURANCE COMPANY LTD","HospitalName":"APOLLO SPECIALITY HOSPITALS-NELLORE","Address":"16/111/1133, Pinakini Nagar, Muttukur Road,,,524004","City":"NELLORE","State":"Andhrapradesh","Pincode":"524004"},{"InsuranceCompanyName":"ADITYA BIRLA HEALTH INSURANCE COMPANY LTD","HospitalName":"APOORVA HEALTH SERVICES PVT LTD","Address":"50-17-62,RAJENDRANAGAR,,VISAKHAPATNAM,530016","City":"VISHAKAPATNAM","State":"Andhrapradesh","Pincode":"530016"},{"InsuranceCompanyName":"ADITYA BIRLA HEALTH INSURANCE COMPANY LTD","HospitalName":"APPLE HOSPITAL","Address":"#29-9-62,GOVINDARAJULU NAIDU STREET OPP SRI DEVI EYE HOSPITAL VIJAYAWADA,NTR DISTRICT,Vijayawada (Urban) Buckinghampet,,520002","City":"KRISHNA","State":"Andhrapradesh","Pincode":"520002"},{"InsuranceCompanyName":"ADITYA BIRLA HEALTH INSURANCE COMPANY LTD","HospitalName":"ARAVIND NETHRALAYA MEENAKSHI HOSPITAL","Address":"16-2-269 SWATHANTRA PARK STREET NEAR,SAIBABA TEMPLE GANDHI NAGAR,,524001","City":"NELLORE","State":"Andhrapradesh","Pincode":"524001"},{"InsuranceCompanyName":"ADITYA BIRLA HEALTH INSURANCE COMPANY LTD","HospitalName":"ARAVINDAM ORTHOPAEDIC AND PHYSIOTHERAPY CENTRE","Address":"D.NO-6-18-3 KOKKONDAVARI STREET T NAGAR.,RAJAHUNDRY,,533101","City":"EAST GODAVARI","State":"Andhrapradesh","Pincode":"533101"},{"InsuranceCompanyName":"ADITYA BIRLA HEALTH INSURANCE COMPANY LTD","HospitalName":"ARK MULTI SPECIALITY HOSPITAL","Address":"#46-2-\n10/1, Danavaipeta,,,,533103","City":"ALWAR","State":"Andhrapradesh","Pincode":"533103"},{"InsuranceCompanyName":"ADITYA BIRLA HEALTH INSURANCE COMPANY LTD","HospitalName":"ARUN KIDNEY CENTRE","Address":"#29-23-9 TADEPALLIVANI STREET,SURYARAOPET,,520002","City":"KRISHNA","State":"Andhrapradesh","Pincode":"520002"},{"InsuranceCompanyName":"ADITYA BIRLA HEALTH INSURANCE COMPANY LTD","HospitalName":"ARUNA HOSPITAL","Address":"gangan amma pet,prakasam road,,,522201","City":"GUNTUR","State":"Andhrapradesh","Pincode":"522201"},{"InsuranceCompanyName":"ADITYA BIRLA HEALTH INSURANCE COMPANY LTD","HospitalName":"ARUNACHALA INSTITUTE OF MEDICAL SCIENCES (AIMS)","Address":"#2/699-700 Nagaraju Peta,Murali Theatre Road,Near Kotireddy Circle,kadapa,Murali Theatre Road,Near Kotireddy Circle,,516001","City":"CUDDAPAH","State":"Andhrapradesh","Pincode":"516001"},{"InsuranceCompanyName":"ADITYA BIRLA HEALTH INSURANCE COMPANY LTD","HospitalName":"ASHWINI HOSPITAL","Address":"D No. 1/706, Beside Usharani Hospital,Dwarka Nagar Chinthakommadinne  Kopparthi,,516001","City":"CUDDAPAH","State":"Andhrapradesh","Pincode":"516001"},{"InsuranceCompanyName":"ADITYA BIRLA HEALTH INSURANCE COMPANY LTD","HospitalName":"ASSURE MULTISPECIALITY HOSPITAL","Address":"DOOR NO: 33-25-35/C, PUSPHA HOTEL ROAD, SURYARAOPET, VIJAYAWADA,,,520010","City":"KRISHNA","State":"Andhrapradesh","Pincode":"520010"},{"InsuranceCompanyName":"ADITYA BIRLA HEALTH INSURANCE COMPANY LTD","HospitalName":"ASWANI NURSING HOME","Address":"D.NO-12-25-97,OPP LEELA MAHAL,KOTHAPET,,,522001","City":"GUNTUR","State":"Andhrapradesh","Pincode":"522001"},{"InsuranceCompanyName":"ADITYA BIRLA HEALTH INSURANCE COMPANY LTD","HospitalName":"ASWINEE NURSING HOME","Address":"D.NO.29-26-56SURYARAOPETJADAGAMVARI,STREET,,520002","City":"KRISHNA","State":"Andhrapradesh","Pincode":"520002"},{"InsuranceCompanyName":"ADITYA BIRLA HEALTH INSURANCE COMPANY LTD","HospitalName":"ASWINI HOSPITALS","Address":"15-1-17,150 M5 FROM RTC BUS STAND,,522001","City":"GUNTUR","State":"Andhrapradesh","Pincode":"522001"},{"InsuranceCompanyName":"ADITYA BIRLA HEALTH INSURANCE COMPANY LTD","HospitalName":"ASWINI MOTHER & CHILD HOSPITAL","Address":"TAYLOR PET,NARSAPUR,,534275","City":"WEST GODAVARI","State":"Andhrapradesh","Pincode":"534275"},{"InsuranceCompanyName":"ADITYA BIRLA HEALTH INSURANCE COMPANY LTD","HospitalName":"AVR HOSPITAL","Address":"Old Club Road, Coastal Andhra Region, Kothapeta, Guntur,,,522001","City":"GUNTUR","State":"Andhrapradesh","Pincode":"522001"},{"InsuranceCompanyName":"ADITYA BIRLA HEALTH INSURANCE COMPANY LTD","HospitalName":"B.M.R HOSPITALS","Address":"6TH LANE,2ND CROSS,ARUNDELPET,522002","City":"GUNTUR","State":"Andhrapradesh","Pincode":"522002"},{"InsuranceCompanyName":"ADITYA BIRLA HEALTH INSURANCE COMPANY LTD","HospitalName":"BABA HOSPITAL","Address":"KRISHNA NAGAR,VISHAKHAPATNAM-530002,,,530002","City":"VISHAKAPATNAM","State":"Andhrapradesh","Pincode":"530002"},{"InsuranceCompanyName":"ADITYA BIRLA HEALTH INSURANCE COMPANY LTD","HospitalName":"BABU MULTI SPECIALITY HOSPITAL","Address":"D.No.10-13-486, PV Road, Reddy & Reddy Colony, Tirupati,,,517501","City":"ALWAR","State":"Andhrapradesh","Pincode":"517501"},{"InsuranceCompanyName":"ADITYA BIRLA HEALTH INSURANCE COMPANY LTD","HospitalName":"BABU NURSING HOME","Address":"D No 2-125411, Konga Reddipalli,,,517001","City":"CHITTOOR","State":"Andhrapradesh","Pincode":"517001"},{"InsuranceCompanyName":"ADITYA BIRLA HEALTH INSURANCE COMPANY LTD","HospitalName":"BABY HOSPITAL","Address":"12-2-950(12-358)SAI,NAGER 2ND CROSS,,515001","City":"ANANTAPUR","State":"Andhrapradesh","Pincode":"515001"},{"InsuranceCompanyName":"ADITYA BIRLA HEALTH INSURANCE COMPANY LTD","HospitalName":"BALAJI CANCER CARE CENTRE","Address":"12-21- 30, GOWRI SHANKAR  THEATER  ROAD, OPP.  AND,,,522403","City":"GUNTUR","State":"Andhrapradesh","Pincode":"522403"},{"InsuranceCompanyName":"ADITYA BIRLA HEALTH INSURANCE COMPANY LTD","HospitalName":"BALAJI HOSPITAL","Address":"#27-48/9 to 13, MBT\nRoad, Punganur,,,,517247","City":"ALWAR","State":"Andhrapradesh","Pincode":"517247"},{"InsuranceCompanyName":"ADITYA BIRLA HEALTH INSURANCE COMPANY LTD","HospitalName":"BALAJI HOSPITAL","Address":"BALAJI HOSPITAL 43/,19 N.R. PETA,,500001","City":"KURNOOL","State":"Andhrapradesh","Pincode":"500001"},{"InsuranceCompanyName":"ADITYA BIRLA HEALTH INSURANCE COMPANY LTD","HospitalName":"BAYYA E.N.T AND EYE HOSPITAL","Address":"OPP, BHAGAT SINGH STATUE, KOTHAPET, GUNTUR,,,522001","City":"GUNTUR","State":"Andhrapradesh","Pincode":"522001"},{"InsuranceCompanyName":"ADITYA BIRLA HEALTH INSURANCE COMPANY LTD","HospitalName":"BBELEAF HOSPITAL","Address":"#29-26-20,TADAGAMUARL,ST.SURYARAOPETA,KRISHNA,,,520002","City":"KRISHNA","State":"Andhrapradesh","Pincode":"520002"},{"InsuranceCompanyName":"ADITYA BIRLA HEALTH INSURANCE COMPANY LTD","HospitalName":"BETHUNE NURSING HOME - ONGOLE","Address":"M.M.Donka Road,0,,523002","City":"PRAKASAM","State":"Andhrapradesh","Pincode":"523002"},{"InsuranceCompanyName":"ADITYA BIRLA HEALTH INSURANCE COMPANY LTD","HospitalName":"BHAGYALAKSHMI FERTILITY AND LAPAROSCOPIC CENTERE","Address":"16-4-316,GANDHI NAGAR, POGATHOTA,NELLORE,,,524001","City":"NELLORE","State":"Andhrapradesh","Pincode":"524001"},{"InsuranceCompanyName":"ADITYA BIRLA HEALTH INSURANCE COMPANY LTD","HospitalName":"BHANU EYE CARE CENTRE","Address":"D.NO: 26-23-17,Chinagantyada,,530026","City":"VISHAKAPATNAM","State":"Andhrapradesh","Pincode":"530026"},{"InsuranceCompanyName":"ADITYA BIRLA HEALTH INSURANCE COMPANY LTD","HospitalName":"BHARATHI HOSPITAL","Address":"29952, R.S. ROAD, YERRAMVKKAPALLY,,,516004","City":"CUDDAPAH","State":"Andhrapradesh","Pincode":"516004"},{"InsuranceCompanyName":"ADITYA BIRLA HEALTH INSURANCE COMPANY LTD","HospitalName":"BHARATHI HOSPITAL","Address":"14-24-1 MEN'S HOSTEL ROAD MAHARANIPET,VISAKHAPATNAM,,530002","City":"VISHAKAPATNAM","State":"Andhrapradesh","Pincode":"530002"},{"InsuranceCompanyName":"ADITYA BIRLA HEALTH INSURANCE COMPANY LTD","HospitalName":"BHARATHI NURSING HOME","Address":"SUNDARIAH BHAVAN ROAD, PRAKASAM,,,523002","City":"PRAKASAM","State":"Andhrapradesh","Pincode":"523002"},{"InsuranceCompanyName":"ADITYA BIRLA HEALTH INSURANCE COMPANY LTD","HospitalName":"BHARGAV KIDNEY CARE & MULTISPECIALITY HOSPITAL","Address":"D.NO 29-10-43, NARASIMHA NAIDU STREET, NAKKAL ROAD, SURYARAOPET, VIJAYAWADA,,,520002","City":"KRISHNA","State":"Andhrapradesh","Pincode":"520002"},{"InsuranceCompanyName":"ADITYA BIRLA HEALTH INSURANCE COMPANY LTD","HospitalName":"BHARGAVI FAMILY HOSPITAL","Address":"# 8-49, ENDOWMENT COLONY, KAMAYYATHOPU VIJAYAWADA,,,521201","City":"KRISHNA","State":"Andhrapradesh","Pincode":"521201"},{"InsuranceCompanyName":"ADITYA BIRLA HEALTH INSURANCE COMPANY LTD","HospitalName":"BHASKARA RAJU HOSPITAL","Address":"74-10-9,TTD KALYANAMANTAPAM ROAD,PRAKASH NAGAR,RAJAHMUNDRY,EAST GODAVARY,,,533103","City":"EAST GODAVARI","State":"Andhrapradesh","Pincode":"533103"},{"InsuranceCompanyName":"ADITYA BIRLA HEALTH INSURANCE COMPANY LTD","HospitalName":"BHAVANAM VENKATARAM MEMORIAL GBR SUPER SPECIALTY HOSPITAL","Address":"OPP. REDDY COLLAGE, PALNADU ROAD,,,,522601","City":"GUNTUR","State":"Andhrapradesh","Pincode":"522601"},{"InsuranceCompanyName":"ADITYA BIRLA HEALTH INSURANCE COMPANY LTD","HospitalName":"BHAVYA NURSING HOME","Address":"4-203, Near Gandhi Statue, Gandhi Road, Proddatur,,,516360","City":"CUDDAPAH","State":"Andhrapradesh","Pincode":"516360"},{"InsuranceCompanyName":"ADITYA BIRLA HEALTH INSURANCE COMPANY LTD","HospitalName":"BHIMAVARAM HOSPITALS LTD","Address":"J.P. ROAD BHIMAVARAM,WEST GODAVARY,,534204","City":"WEST GODAVARI","State":"Andhrapradesh","Pincode":"534204"},{"InsuranceCompanyName":"ADITYA BIRLA HEALTH INSURANCE COMPANY LTD","HospitalName":"BHUVANESWARI HOSPITALS","Address":"BENAPUDI VARI STREET,ELURU,,,534002","City":"WEST GODAVARI","State":"Andhrapradesh","Pincode":"534002"},{"InsuranceCompanyName":"ADITYA BIRLA HEALTH INSURANCE COMPANY LTD","HospitalName":"BLOSSOMS CHILDRENS HOSPITAL","Address":"D.NO:13-5-97 OLD CLUB ROAD,GUNTUR THOTA,KOTHAPET CIRCLE,,,522001","City":"GUNTUR","State":"Andhrapradesh","Pincode":"522001"},{"InsuranceCompanyName":"ADITYA BIRLA HEALTH INSURANCE COMPANY LTD","HospitalName":"BLOSSOMS RESEARCH CENTRE AND HEALTH CARE VIJAYAWADA LLP","Address":"D.No: 36-8-45, Water Tank Road, Nehru Nagar, Wood Pet,   Sikhamani Center,,,520010","City":"KRISHNA","State":"Andhrapradesh","Pincode":"520010"},{"InsuranceCompanyName":"ADITYA BIRLA HEALTH INSURANCE COMPANY LTD","HospitalName":"BRINDA NEURO CENTRE","Address":"PUVVADAVARI STREET,,,522001","City":"GUNTUR","State":"Andhrapradesh","Pincode":"522001"},{"InsuranceCompanyName":"ADITYA BIRLA HEALTH INSURANCE COMPANY LTD","HospitalName":"BRUNDAVAN NURSING HOME","Address":"# 24/588- RAILWAY STATION ROAD RAJAVARI,CENTRE,,521001","City":"KRISHNA","State":"Andhrapradesh","Pincode":"521001"},{"InsuranceCompanyName":"ADITYA BIRLA HEALTH INSURANCE COMPANY LTD","HospitalName":"C.D.R HOSPITAL","Address":"7-12/1,T.T.D KALYANAMANDAPAM ROAD,EAST GODAVARI,,,533342","City":"ANAPARTHY","State":"Andhrapradesh","Pincode":"533342"},{"InsuranceCompanyName":"ADITYA BIRLA HEALTH INSURANCE COMPANY LTD","HospitalName":"C.N. HOSPITAL","Address":"#Birla Compound,\nB.Camp,,,518002","City":"ALWAR","State":"Andhrapradesh","Pincode":"518002"},{"InsuranceCompanyName":"ADITYA BIRLA HEALTH INSURANCE COMPANY LTD","HospitalName":"C.R. REDDY HOSPITAL","Address":"13/264,HOSPITAL ROAD,GUDUR,524101","City":"NELLORE","State":"Andhrapradesh","Pincode":"524101"},{"InsuranceCompanyName":"ADITYA BIRLA HEALTH INSURANCE COMPANY LTD","HospitalName":"CAPITAL HOSPITALS (A UNIT OF CAPITAL TREE HEALTH CARE PVT LTD","Address":"D. No.15-177/1, Bandar Road, Poranki,,,521137","City":"KRISHNA","State":"Andhrapradesh","Pincode":"521137"},{"InsuranceCompanyName":"ADITYA BIRLA HEALTH INSURANCE COMPANY LTD","HospitalName":"CARE AND CURE MULTI SPECIALITY HOSPITAL","Address":"# 13-2-392-4, Near RTC Bus stand, NTR Marg, Near RTC Bus stand, Ananthapur,,,515001","City":"ANANTAPUR","State":"Andhrapradesh","Pincode":"515001"},{"InsuranceCompanyName":"ADITYA BIRLA HEALTH INSURANCE COMPANY LTD","HospitalName":"CARE HOSPITAL","Address":"D.NO. 17-1-1, KGH Road Maharani Peta,,,530003","City":"VISHAKAPATNAM","State":"Andhrapradesh","Pincode":"530003"},{"InsuranceCompanyName":"ADITYA BIRLA HEALTH INSURANCE COMPANY LTD","HospitalName":"CAREPLUS HOSPITALS PVT LTD","Address":"2-164/14, New Balaji Colony, 80 Feet Road,TIRUPATHI,ANDRAPRADESH,517502","City":"CHITTOOR","State":"Andhrapradesh","Pincode":"517502"},{"InsuranceCompanyName":"ADITYA BIRLA HEALTH INSURANCE COMPANY LTD","HospitalName":"CBR KURNOOL RAMESH HOSPITALS","Address":"Raha Mayuri Pride,  Guru Rahavendra Nagar, Near Bellary Chowrastha,,,518003","City":"KURNOOL","State":"Andhrapradesh","Pincode":"518003"},{"InsuranceCompanyName":"ADITYA BIRLA HEALTH INSURANCE COMPANY LTD","HospitalName":"CENTRE FOR SIGHT -VIJAYAWADA(A UNIT OF NEW DELHI CENTRE FOR SIGHT LTD)","Address":"40-6/2-17,GADDE TOWERS, OPP SIDDARTHA PUBLIC SCHOOL,MOGALRAJPURAM,VIJAYAWADA,,520010","City":"KRISHNA","State":"Andhrapradesh","Pincode":"520010"},{"InsuranceCompanyName":"ADITYA BIRLA HEALTH INSURANCE COMPANY LTD","HospitalName":"CHADALAWADA SKIN & EYE CARE CENTER","Address":"#D.No.7-5-9, Prakasam Road, Ganganammapet, Tenali,,,,522201","City":"ALWAR","State":"Andhrapradesh","Pincode":"522201"},{"InsuranceCompanyName":"ADITYA BIRLA HEALTH INSURANCE COMPANY LTD","HospitalName":"CHAITANYA CARDIAC CENTRE","Address":"#Beside\nAKVK College, Anjaiaj Road,,,,523002","City":"ALWAR","State":"Andhrapradesh","Pincode":"523002"},{"InsuranceCompanyName":"ADITYA BIRLA HEALTH INSURANCE COMPANY LTD","HospitalName":"CHAITANYA EYE HOSPITAL","Address":"Near Siddhartha Arts College, Tikkle Road, Siddhartha Nagar, Labbipeta, MOGALRAJPURAM,,,520010","City":"KRISHNA","State":"Andhrapradesh","Pincode":"520010"},{"InsuranceCompanyName":"ADITYA BIRLA HEALTH INSURANCE COMPANY LTD","HospitalName":"CHAITANYA HOSPITAL","Address":"Near By Pass, Anjaiah Road, Ongole,,,523001","City":"PRAKASAM","State":"Andhrapradesh","Pincode":"523001"},{"InsuranceCompanyName":"ADITYA BIRLA HEALTH INSURANCE COMPANY LTD","HospitalName":"CHAITRA HOSPITAL","Address":"Opp. KDPT School, Ashok Nagar, Eluru,,,534002","City":"WEST GODAVARI","State":"Andhrapradesh","Pincode":"534002"},{"InsuranceCompanyName":"ADITYA BIRLA HEALTH INSURANCE COMPANY LTD","HospitalName":"CHALASANI HOSPITAL","Address":"12-12-94/A,OLD CLUB ROAD,KOTHAPETA,522001","City":"GUNTUR","State":"Andhrapradesh","Pincode":"522001"},{"InsuranceCompanyName":"ADITYA BIRLA HEALTH INSURANCE COMPANY LTD","HospitalName":"CHALASANI HOSPITALS PVT. LTD. (QUEENS NRI HOSPITAL)","Address":"50-53-14, GURUDWARALANE SEETHAMMADHARA, VISAKHAPATNAM,,CORPORATE OFFICE,530013","City":"VISHAKAPATNAM","State":"Andhrapradesh","Pincode":"530013"},{"InsuranceCompanyName":"ADITYA BIRLA HEALTH INSURANCE COMPANY LTD","HospitalName":"CHANDRA MOHAN'S NURSING HOME","Address":"14-2A,C.T.M. ROAD,BESIDE ICICI BANK,517325","City":"CHITTOOR","State":"Andhrapradesh","Pincode":"517325"},{"InsuranceCompanyName":"ADITYA BIRLA HEALTH INSURANCE COMPANY LTD","HospitalName":"CHANDRAKALA SUPER SPECIALITY HOSPITAL","Address":"75-7-1, Near SBI Danavaipeta Branch,,,533103","City":"EAST GODAVARI","State":"Andhrapradesh","Pincode":"533103"},{"InsuranceCompanyName":"ADITYA BIRLA HEALTH INSURANCE COMPANY LTD","HospitalName":"CHARITHASRI HOSPITALS LTD","Address":"29-6-10, PEDDIBHOTLA TOWERS, NAKKALA ROAD, SURYARAO PET, VIJAYAWADA,,,520002","City":"KRISHNA","State":"Andhrapradesh","Pincode":"520002"},{"InsuranceCompanyName":"ADITYA BIRLA HEALTH INSURANCE COMPANY LTD","HospitalName":"CHENNAI CHILDRENS HOSPITAL","Address":"#D.No.3/99, Sivalingam Pillai Street, Nagarajupeta,,,,516001","City":"ALWAR","State":"Andhrapradesh","Pincode":"516001"},{"InsuranceCompanyName":"ADITYA BIRLA HEALTH INSURANCE COMPANY LTD","HospitalName":"CHILDRENS HOSPITAL","Address":"6-11-58/59 11TH LANE 2ND CROSS,ARUNDELPET,,522002","City":"GUNTUR","State":"Andhrapradesh","Pincode":"522002"},{"InsuranceCompanyName":"ADITYA BIRLA HEALTH INSURANCE COMPANY LTD","HospitalName":"CHIRANJEEVI HOSPITALS ORTHO & MULTISPECIALITY","Address":"D NO 10-301 & 302,JANGAREDDYGUDEM,,,534447","City":"WEST GODAVARI","State":"Andhrapradesh","Pincode":"534447"},{"InsuranceCompanyName":"ADITYA BIRLA HEALTH INSURANCE COMPANY LTD","HospitalName":"CITI ORTHOPAEDIC CENTRE","Address":"# 32-6-18A, Sikhamani Centre, Prajasakthi Nagar,,,,520010","City":"KRISHNA","State":"Andhrapradesh","Pincode":"520010"},{"InsuranceCompanyName":"ADITYA BIRLA HEALTH INSURANCE COMPANY LTD","HospitalName":"CITII ORTHOPAEDIC CENTER","Address":"#32-6-18A, SIKHAMANI CENTRE, PRAJASAKTHI NAGAR,,,520010","City":"KRISHNA","State":"Andhrapradesh","Pincode":"520010"},{"InsuranceCompanyName":"ADITYA BIRLA HEALTH INSURANCE COMPANY LTD","HospitalName":"CITIZEN SUPER SPECIALITY HOSPITAL","Address":"#D.No.12-1-45, Sanakkaya Factory Road, kothapet,,,522001","City":"GUNTUR","State":"Andhrapradesh","Pincode":"522001"},{"InsuranceCompanyName":"ADITYA BIRLA HEALTH INSURANCE COMPANY LTD","HospitalName":"CITY CANCER CENTRE","Address":"NO.33-25-33 CH.VENKATA KRISHNAIAH,STREET SURYARAOPET KRISHNA VIJAYAWADA,,520002","City":"KRISHNA","State":"Andhrapradesh","Pincode":"520002"},{"InsuranceCompanyName":"ADITYA BIRLA HEALTH INSURANCE COMPANY LTD","HospitalName":"CITY HOSPITAL","Address":"D NO 9-57, SNEHAPURI COLONY, RAMANAYYAPETA, KAKINADA,,,533005","City":"EAST GODAVARI","State":"Andhrapradesh","Pincode":"533005"},{"InsuranceCompanyName":"ADITYA BIRLA HEALTH INSURANCE COMPANY LTD","HospitalName":"CITY NEURO CENTRE","Address":"#29-14-4, 1/1, Near\nPushpa Hotel, Kaleswara Rao Road, Suryaraopeta,,,520007","City":"ALWAR","State":"Andhrapradesh","Pincode":"520007"},{"InsuranceCompanyName":"ADITYA BIRLA HEALTH INSURANCE COMPANY LTD","HospitalName":"COASTAL CARDIAC AND MATERNITY CENTRE","Address":"#46-22-18, NEAR DANAVAIPETA PARK, EAST GODAVARI,,,533103","City":"EAST GODAVARI","State":"Andhrapradesh","Pincode":"533103"},{"InsuranceCompanyName":"ADITYA BIRLA HEALTH INSURANCE COMPANY LTD","HospitalName":"COASTAL CARE HOSPITAL","Address":"8TH LINE OLD CLUB ROAD IVARITHOTA,KOTHAPET OPP BUS STAND,,522001","City":"GUNTUR","State":"Andhrapradesh","Pincode":"522001"},{"InsuranceCompanyName":"ADITYA BIRLA HEALTH INSURANCE COMPANY LTD","HospitalName":"CREST HOSPITAL (A UNIT OF RAMU DIABETES & MULTI SPECIALITY CENTRE)","Address":"#16-2-211, Near Sunday Market, Gandhi Nagar, Pogathota,,,524001","City":"ALWAR","State":"Andhrapradesh","Pincode":"524001"},{"InsuranceCompanyName":"ADITYA BIRLA HEALTH INSURANCE COMPANY LTD","HospitalName":"DATTA PRASAD ORTHOPAEDIC NURSING HOME","Address":"D.NO#14-8-38.NETAJINAGAR,2ND LANE,PONNUR,522124","City":"GUNTUR","State":"Andhrapradesh","Pincode":"522124"},{"InsuranceCompanyName":"ADITYA BIRLA HEALTH INSURANCE COMPANY LTD","HospitalName":"DELTA HOSPITALS (A UNIT OF RAJAMAHENDRI HEALTHCARE PVT LTD)","Address":"NH16, Service Road, Opp: ONGC Base Complex, Venkateswara Nagar, RAJAHMUNDRY,Gandhipuram (East Godavari),,533103","City":"EAST GODAVARI","State":"Andhrapradesh","Pincode":"533103"},{"InsuranceCompanyName":"ADITYA BIRLA HEALTH INSURANCE COMPANY LTD","HospitalName":"DEVI MULTI SPECIALTY HOSPITAL","Address":"#H.No.5-\n6-417 & H.No.5-6-453/1, Beside Andhra Bank, NGO¿s Colony,,,503111","City":"ALWAR","State":"Andhrapradesh","Pincode":"503111"},{"InsuranceCompanyName":"ADITYA BIRLA HEALTH INSURANCE COMPANY LTD","HospitalName":"DEVI NURSING HOME","Address":"25/585-17,18,19,PARTHASARATHI NAGAR,,,515671","City":"ANANTAPUR","State":"Andhrapradesh","Pincode":"515671"},{"InsuranceCompanyName":"ADITYA BIRLA HEALTH INSURANCE COMPANY LTD","HospitalName":"DEVI PRIYA LIFE CARE HOSPITAL","Address":"58-1-433/2 MAIN ROAD SANTHINAGAR NAD,POST,,530009","City":"VISHAKAPATNAM","State":"Andhrapradesh","Pincode":"530009"},{"InsuranceCompanyName":"ADITYA BIRLA HEALTH INSURANCE COMPANY LTD","HospitalName":"DHRUTHI HOSPITALS","Address":"12-21-30, Opp.Andhra Bank, Gowri Sankar theatre Road, Kothapet,,,522001","City":"GUNTUR","State":"Andhrapradesh","Pincode":"522001"},{"InsuranceCompanyName":"ADITYA BIRLA HEALTH INSURANCE COMPANY LTD","HospitalName":"DHULIPALLA HOSPITAL GUNTUR","Address":"12-25-179,KOTHAPET,OPP SIVALAYAM,522001","City":"GUNTUR","State":"Andhrapradesh","Pincode":"522001"},{"InsuranceCompanyName":"ADITYA BIRLA HEALTH INSURANCE COMPANY LTD","HospitalName":"DR B JAWAHAR NURSING HOME","Address":"DOOR NO: 2-59/A,NAWABPET,MAIN ROAD,CHIMAKURTHY,PRAKASAM DT,,,523226","City":"PRAKASAM","State":"Andhrapradesh","Pincode":"523226"},{"InsuranceCompanyName":"ADITYA BIRLA HEALTH INSURANCE COMPANY LTD","HospitalName":"DR DINESH GASTRO LIVER AND ENDOSCOPY CENTER","Address":"BEHIND MURALI THEATRE,KDH REDDY CIRCLE,NAGRAJUPET,,,516001","City":"CUDDAPAH","State":"Andhrapradesh","Pincode":"516001"},{"InsuranceCompanyName":"ADITYA BIRLA HEALTH INSURANCE COMPANY LTD","HospitalName":"DR GOLIVI HOSPITALS PVT LTD","Address":"G-5, A.P. Industrial Area, Balaga,Opp. Bharat Petrol Bunk,,532001","City":"SRIKAKULAM","State":"Andhrapradesh","Pincode":"532001"},{"InsuranceCompanyName":"ADITYA BIRLA HEALTH INSURANCE COMPANY LTD","HospitalName":"DR HR SMART VISION EYE HOSPITAL","Address":"#D.No.16-\n2-109, Venkataramana Hotel Lane, Pogathota,,,,524001","City":"ALWAR","State":"Andhrapradesh","Pincode":"524001"},{"InsuranceCompanyName":"ADITYA BIRLA HEALTH INSURANCE COMPANY LTD","HospitalName":"DR KIRAN REDD¿S JOINT CARE CENTRE","Address":"#D.No.40-9-44, Savithas Building, Vasavya Nagar, Patamata,,,520010","City":"ALWAR","State":"Andhrapradesh","Pincode":"520010"},{"InsuranceCompanyName":"ADITYA BIRLA HEALTH INSURANCE COMPANY LTD","HospitalName":"DR PRAVEEN HOSPITAL","Address":"4TH LINE,KAVALI,SPSR NELLORE,,,524201","City":"KAVALI","State":"Andhrapradesh","Pincode":"524201"},{"InsuranceCompanyName":"ADITYA BIRLA HEALTH INSURANCE COMPANY LTD","HospitalName":"DR PSR ANJANEYULU AND MEENAKSHI EYE HOSPITAL","Address":"12-3-100/6, Sagar Road Macheria,,,522426","City":"GUNTUR","State":"Andhrapradesh","Pincode":"522426"},{"InsuranceCompanyName":"ADITYA BIRLA HEALTH INSURANCE COMPANY LTD","HospitalName":"DR RAMESH CARDIAC & MULTI SPECIALITY HOSPITAL LIMITED","Address":"Mg  Road,,Mg  Road,520010,,,520010","City":"KRISHNA","State":"Andhrapradesh","Pincode":"520010"},{"InsuranceCompanyName":"ADITYA BIRLA HEALTH INSURANCE COMPANY LTD","HospitalName":"DR VEERRAJU NURSING HOME","Address":"2-210/6/7,  near kakinada public school, simhadri nagar, valasapakala, kakinada.,Ramanayyapeta,,533005","City":"EAST GODAVARI","State":"Andhrapradesh","Pincode":"533005"},{"InsuranceCompanyName":"ADITYA BIRLA HEALTH INSURANCE COMPANY LTD","HospitalName":"DR. AGARWAL'S EYE HOSPITAL","Address":"Naga Chamber, 12-1-16, Plot No. 49, S No 1051, Div no. 19, Waltair Main Road,,,530002","City":"VISHAKAPATNAM","State":"Andhrapradesh","Pincode":"530002"},{"InsuranceCompanyName":"ADITYA BIRLA HEALTH INSURANCE COMPANY LTD","HospitalName":"DR. AGARWAL'S HEALTH CARE LTD - RAJAMUNDRI","Address":"No: 54-9-8, Addepalli Colony, A.V Appa Rao Road, Rajahmundry, East Godavari Dist,,,533103","City":"EAST GODAVARI","State":"Andhrapradesh","Pincode":"533103"},{"InsuranceCompanyName":"ADITYA BIRLA HEALTH INSURANCE COMPANY LTD","HospitalName":"DR. AGARWAL'S HEALTH CARE LTD - TIRUPATHI","Address":"Door no. 19-4-8/14, A.I.R. Bypass Road, Near Sankarambadi circle, S.T.V Nagar, Tirupathi,,,517501","City":"CHITTOOR","State":"Andhrapradesh","Pincode":"517501"},{"InsuranceCompanyName":"ADITYA BIRLA HEALTH INSURANCE COMPANY LTD","HospitalName":"DR. AGARWALS HEALTH CARE LTD - GUNTUR","Address":"Door no 13-2-71, Old club road, Kothapet, Guntur,,,522001","City":"GUNTUR","State":"Andhrapradesh","Pincode":"522001"},{"InsuranceCompanyName":"ADITYA BIRLA HEALTH INSURANCE COMPANY LTD","HospitalName":"DR. AGARWALS HEALTH CARE LTD- NELLORE","Address":"Door No 74, Municipal Ward No 24-2, NVR Central, Rajagopalapuram, GT Road, Nellore, Andhra Pradesh - 524003,,,524003","City":"NELLORE","State":"Andhrapradesh","Pincode":"524003"},{"InsuranceCompanyName":"ADITYA BIRLA HEALTH INSURANCE COMPANY LTD","HospitalName":"DR. AKBAR EYE HOSPITAL","Address":"#12-3-2 346TH LANE SAI NAGAR,,,515001","City":"ANANTAPUR","State":"Andhrapradesh","Pincode":"515001"},{"InsuranceCompanyName":"ADITYA BIRLA HEALTH INSURANCE COMPANY LTD","HospitalName":"DR. ANJI REDDY MULTI-SPECIALITY HOSPITAL PVT LTD","Address":"16/682,PIDUGURALLA MAIN ROAD,,522413","City":"GUNTUR","State":"Andhrapradesh","Pincode":"522413"},{"InsuranceCompanyName":"ADITYA BIRLA HEALTH INSURANCE COMPANY LTD","HospitalName":"DR. BETHUNE NURSING HOME","Address":"MANGAMURU ROAD,,,523002","City":"PRAKASAM","State":"Andhrapradesh","Pincode":"523002"},{"InsuranceCompanyName":"ADITYA BIRLA HEALTH INSURANCE COMPANY LTD","HospitalName":"DR. BMR CARE WELL HOSPITAL","Address":"2-6-32/3, RTC Complex Road 50 Building Centre,,,533003","City":"EAST GODAVARI","State":"Andhrapradesh","Pincode":"533003"},{"InsuranceCompanyName":"ADITYA BIRLA HEALTH INSURANCE COMPANY LTD","HospitalName":"DR. G.R REDDY EYE CARE CENTER","Address":"Door no: 1-41-1,Street:MVR Complex, Tadepalligudem,,,534101","City":"WEST GODAVARI","State":"Andhrapradesh","Pincode":"534101"},{"InsuranceCompanyName":"ADITYA BIRLA HEALTH INSURANCE COMPANY LTD","HospitalName":"DR. MANGAMMA HOSPITAL","Address":"1-7-1-17,Opp. Kgh Out Gate,,,,530002","City":"VISHAKAPATNAM","State":"Andhrapradesh","Pincode":"530002"},{"InsuranceCompanyName":"ADITYA BIRLA HEALTH INSURANCE COMPANY LTD","HospitalName":"DR. NTR GASTRO CARE PVT LTD","Address":"NO.29-14-51, PRAKASSAM ROAD, PUSHPA HOTEL CAFE KRISHNA,,,520002","City":"KRISHNA","State":"Andhrapradesh","Pincode":"520002"},{"InsuranceCompanyName":"ADITYA BIRLA HEALTH INSURANCE COMPANY LTD","HospitalName":"DR. PINNAMANENI SIDDHARTHA INSTITUTE OF MEDICAL SCIENCES & RESEARCH FOUNDATION","Address":"CHINAOUTPALLI GANNAVARAM MANDALAM,KRISHNA DIST,,521286","City":"KRISHNA","State":"Andhrapradesh","Pincode":"521286"},{"InsuranceCompanyName":"ADITYA BIRLA HEALTH INSURANCE COMPANY LTD","HospitalName":"DR. RAJA SEKHAR EYE HOSPITAL","Address":"16-07-2022/1,3RD MAIN ROAD,RAMAMURTHY NAGAR,NELLORE,,524001","City":"NELLORE","State":"Andhrapradesh","Pincode":"524001"},{"InsuranceCompanyName":"ADITYA BIRLA HEALTH INSURANCE COMPANY LTD","HospitalName":"DR. RAMA LAKSHMI NURSING HOME","Address":"17-433,Lakshmi Complex,,,517001","City":"CHITTOOR","State":"Andhrapradesh","Pincode":"517001"},{"InsuranceCompanyName":"ADITYA BIRLA HEALTH INSURANCE COMPANY LTD","HospitalName":"DR. RAMA RAO HOSPITAL","Address":"36-5-A, Ganga Nagar, Kancharapalem,,,530008","City":"VISHAKAPATNAM","State":"Andhrapradesh","Pincode":"530008"},{"InsuranceCompanyName":"ADITYA BIRLA HEALTH INSURANCE COMPANY LTD","HospitalName":"DR. SAJJA CHANDRAMOULI HOSPITAL","Address":"G-B-C- ROAD,PONNUR,,522124","City":"GUNTUR","State":"Andhrapradesh","Pincode":"522124"},{"InsuranceCompanyName":"ADITYA BIRLA HEALTH INSURANCE COMPANY LTD","HospitalName":"DR.A.V.RAMANA RAO MEMORIAL EYE CLINIC","Address":"OPP.GOKAVARAM BUS STAND,,,533104","City":"EAST GODAVARI","State":"Andhrapradesh","Pincode":"533104"},{"InsuranceCompanyName":"ADITYA BIRLA HEALTH INSURANCE COMPANY LTD","HospitalName":"DR.ANJIREDDY SUPER SPECIALITY HOSPITAL","Address":"DOOR NO. 02-15-82, ENUGULA BAZAR,,,522601","City":"GUNTUR","State":"Andhrapradesh","Pincode":"522601"},{"InsuranceCompanyName":"ADITYA BIRLA HEALTH INSURANCE COMPANY LTD","HospitalName":"DR.CHADALAVADA KRISHNAIAH MULTISPECIALITY HOSPITAL","Address":"GANAGANAMMA PETA,PRAKASAM ROAD,TENALI,522201","City":"GUNTUR","State":"Andhrapradesh","Pincode":"522201"},{"InsuranceCompanyName":"ADITYA BIRLA HEALTH INSURANCE COMPANY LTD","HospitalName":"DR.HARANATH ENT SUPER SPECIALITY HOSPITAL","Address":"D.No.20-7-61, Maruthi Nagar, Korlagunta,,,,517501","City":"CHITTOOR","State":"Andhrapradesh","Pincode":"517501"},{"InsuranceCompanyName":"ADITYA BIRLA HEALTH INSURANCE COMPANY LTD","HospitalName":"DR.MADHU SUPER SPECIALITIES","Address":"#33-18-12,CHALASANI VENKATA KRISHNAIAH STREET,KRISHNA,,,520002","City":"KRISHNA","State":"Andhrapradesh","Pincode":"520002"},{"InsuranceCompanyName":"ADITYA BIRLA HEALTH INSURANCE COMPANY LTD","HospitalName":"DR.RAMALINGA REDDY MAXIVISION EYE HOSPITALS PRIVATE LIMITED","Address":"D.No.16-2-166, GUNTUR ROAD, NARASARAOPET,,,522601","City":"GUNTUR","State":"Andhrapradesh","Pincode":"522601"},{"InsuranceCompanyName":"ADITYA BIRLA HEALTH INSURANCE COMPANY LTD","HospitalName":"DR.RAMESH CARDIAC","Address":"39-1-102, NEAR INDIA GANDHI,,,520010","City":"KRISHNA","State":"Andhrapradesh","Pincode":"520010"},{"InsuranceCompanyName":"ADITYA BIRLA HEALTH INSURANCE COMPANY LTD","HospitalName":"DR.T.V.S CLINIC","Address":"14-14-30,HANUMAN PET,GANDHI NAGAR, VIJAYWADA,,,520003","City":"KRISHNA","State":"Andhrapradesh","Pincode":"520003"},{"InsuranceCompanyName":"ADITYA BIRLA HEALTH INSURANCE COMPANY LTD","HospitalName":"DURGA HOSPITAL","Address":"36-91-108,Beside SBI, Urvasi Junction,Kancharla Palem,,,530008","City":"VISHAKAPATNAM","State":"Andhrapradesh","Pincode":"530008"},{"InsuranceCompanyName":"ADITYA BIRLA HEALTH INSURANCE COMPANY LTD","HospitalName":"DURGA NURSING HOME","Address":"20-6--138(2),ANJAIAH ROAD,,523002","City":"PRAKASAM","State":"Andhrapradesh","Pincode":"523002"},{"InsuranceCompanyName":"ADITYA BIRLA HEALTH INSURANCE COMPANY LTD","HospitalName":"DVC HOSPITAL & RESEARCH CENTRE","Address":"D.NO: 12-29,VADALMUDI VILLAGE,CHEBROLU,GUNTUR,,522213","City":"GUNTUR","State":"Andhrapradesh","Pincode":"522213"},{"InsuranceCompanyName":"ADITYA BIRLA HEALTH INSURANCE COMPANY LTD","HospitalName":"ELITE MULTISEPCIALITY HOSPITAL PVT LTD","Address":"# 10-14-576/6/1, Reddy & Reddy Colony,,,517501","City":"CHITTOOR","State":"Andhrapradesh","Pincode":"517501"},{"InsuranceCompanyName":"ADITYA BIRLA HEALTH INSURANCE COMPANY LTD","HospitalName":"ENEL HOSPITALS","Address":"ANNAMAYYA,,,524004","City":"NELLORE","State":"Andhrapradesh","Pincode":"524004"},{"InsuranceCompanyName":"ADITYA BIRLA HEALTH INSURANCE COMPANY LTD","HospitalName":"FOCUS RETINA SUPER SPECIALITY HOSPITAL","Address":"2nd Lane Gunturivari Thota,,,522001","City":"GUNTUR","State":"Andhrapradesh","Pincode":"522001"},{"InsuranceCompanyName":"ADITYA BIRLA HEALTH INSURANCE COMPANY LTD","HospitalName":"FORTUNA WOMEN & ORTHO CARE HOSPITAL","Address":"PLOT NO.7, OPP. GAUTHAM TALENT SCHOOL, MM COMPLEX,,AIR BY-PASS ROAD, NEW BALAJI COLONY,,517501","City":"CHITTOOR","State":"Andhrapradesh","Pincode":"517501"},{"InsuranceCompanyName":"ADITYA BIRLA HEALTH INSURANCE COMPANY LTD","HospitalName":"G. SHOWREDDY MEMORIAL NURSING HOME","Address":"PLANADU ROAD,NEAR BUS STAND,VINUKONDA,522647","City":"GUNTUR","State":"Andhrapradesh","Pincode":"522647"},{"InsuranceCompanyName":"ADITYA BIRLA HEALTH INSURANCE COMPANY LTD","HospitalName":"G.B.R SUPER SPECIALTY HOSPITAL - GUNTUR","Address":"Opp Reddy College, Palnadu Road, Narasaraopet,Palnadu Road, Narasaraopet,Opp Govt Reddy College,,0,,522601","City":"GUNTUR","State":"Andhrapradesh","Pincode":"522601"},{"InsuranceCompanyName":"ADITYA BIRLA HEALTH INSURANCE COMPANY LTD","HospitalName":"G.K. EMERGENCY HOSPITAL","Address":"D.NO-10-2-138/F4,T.K LAYOUT,CHITTOOR,,,517501","City":"CHITTOOR","State":"Andhrapradesh","Pincode":"517501"},{"InsuranceCompanyName":"ADITYA BIRLA HEALTH INSURANCE COMPANY LTD","HospitalName":"G.N.R HOSPITAL","Address":"D NO 50/760/A7,GAYATHRI ESTATE,,,518003","City":"KURNOOL","State":"Andhrapradesh","Pincode":"518003"},{"InsuranceCompanyName":"ADITYA BIRLA HEALTH INSURANCE COMPANY LTD","HospitalName":"G.S.R.HOSPITAL","Address":"SUNDARIAH BHAVAN ROAD,,,523002","City":"PRAKASAM","State":"Andhrapradesh","Pincode":"523002"},{"InsuranceCompanyName":"ADITYA BIRLA HEALTH INSURANCE COMPANY LTD","HospitalName":"GANGINA HOSPITAL","Address":"#12-21-2, Aryapuram, Rajamahendravaram,,,,533104","City":"ANANTAPUR","State":"Andhrapradesh","Pincode":"533104"},{"InsuranceCompanyName":"ADITYA BIRLA HEALTH INSURANCE COMPANY LTD","HospitalName":"GAYATHRI SUPER SPECIALITY HOSPITAL","Address":"D.NO.27-31-7,OPP.RAGHAVAIAH PARK,M.G ROAD,GOVERNORPET,VIJAYAWADA,KRISHNA DISTRICT,,,520002","City":"KRISHNA","State":"Andhrapradesh","Pincode":"520002"},{"InsuranceCompanyName":"ADITYA BIRLA HEALTH INSURANCE COMPANY LTD","HospitalName":"GAYATRI NURSING HOME","Address":"# 14-38-5,NEAR MAHARANI PETA,,530002","City":"VISHAKAPATNAM","State":"Andhrapradesh","Pincode":"530002"},{"InsuranceCompanyName":"ADITYA BIRLA HEALTH INSURANCE COMPANY LTD","HospitalName":"GEETA HOSPITALS","Address":"D.NO:22-7-21, Vinnakotavari Street,,,534211","City":"WEST GODAVARI","State":"Andhrapradesh","Pincode":"534211"},{"InsuranceCompanyName":"ADITYA BIRLA HEALTH INSURANCE COMPANY LTD","HospitalName":"GELVI NURSING HOME","Address":"# 3/155, Byrmal Street, Nandyal, Nandyal,,,518501","City":"ALWAR","State":"Andhrapradesh","Pincode":"518501"},{"InsuranceCompanyName":"ADITYA BIRLA HEALTH INSURANCE COMPANY LTD","HospitalName":"GIRIDHAR ENT HOSPITAL","Address":"29-8-39,CH DURGAIAH STREET,,520002","City":"KRISHNA","State":"Andhrapradesh","Pincode":"520002"},{"InsuranceCompanyName":"ADITYA BIRLA HEALTH INSURANCE COMPANY LTD","HospitalName":"GLOBAL MULTIPSECIALITY HOSPITAL","Address":"M.G.ROAD,OPP. OLD BUS STAND,,520002","City":"KRISHNA","State":"Andhrapradesh","Pincode":"520002"},{"InsuranceCompanyName":"ADITYA BIRLA HEALTH INSURANCE COMPANY LTD","HospitalName":"GOOD HEALTHS NEW CENTRAL HOSPITAL","Address":"50-121-76/5,6,7, OPP.4TH TOWN POLICE STATION, B.S.LAYOUT, VIZAG,,,530013","City":"VISHAKAPATNAM","State":"Andhrapradesh","Pincode":"530013"},{"InsuranceCompanyName":"ADITYA BIRLA HEALTH INSURANCE COMPANY LTD","HospitalName":"GOOD SAMARITAN CANCER & GENERAL HOSPITAL","Address":"19-61,VANGAYGUDEM,WEST GODAVARI,,,534001","City":"WEST GODAVARI","State":"Andhrapradesh","Pincode":"534001"},{"InsuranceCompanyName":"ADITYA BIRLA HEALTH INSURANCE COMPANY LTD","HospitalName":"GOPI MADHAVI HOSPITAL","Address":"#10-3-206/M2/1,  Reddy & Reddy Colony, Tirupathi,,,517507","City":"CHITTOOR","State":"Andhrapradesh","Pincode":"517507"},{"InsuranceCompanyName":"ADITYA BIRLA HEALTH INSURANCE COMPANY LTD","HospitalName":"GOUTAMI EYE INSTITUTE","Address":"#1 RV NAGAR 23-11-32/1 OPP MARKET YARD,EAST GODAVARI,,533105","City":"EAST GODAVARI","State":"Andhrapradesh","Pincode":"533105"},{"InsuranceCompanyName":"ADITYA BIRLA HEALTH INSURANCE COMPANY LTD","HospitalName":"GOWRI GOPAL HOSPITAL PVT LTD","Address":"D.NO. 46-87 BUDHAWARA PETA,,,518002","City":"KURNOOL","State":"Andhrapradesh","Pincode":"518002"},{"InsuranceCompanyName":"ADITYA BIRLA HEALTH INSURANCE COMPANY LTD","HospitalName":"GSR HOSPITAL","Address":"D NO:25-684-3-7, NEAR SRINIVASA JUNIOR COLLEGE, PADMAVATHI NAGAR MAIN ROAD, NANADYAL, KURNOOL ANDHRA PRADESH,,,518501","City":"KURNOOL","State":"Andhrapradesh","Pincode":"518501"},{"InsuranceCompanyName":"ADITYA BIRLA HEALTH INSURANCE COMPANY LTD","HospitalName":"GUMMADI CHILDRENS HOSPITAL","Address":"OLD BANK ROAD,KOTHA PETA GUNTUR,,,522001","City":"GUNTUR","State":"Andhrapradesh","Pincode":"522001"},{"InsuranceCompanyName":"ADITYA BIRLA HEALTH INSURANCE COMPANY LTD","HospitalName":"GUNTUR KIDNEY & MULTI SPECIALITY HOSPITAL","Address":"# 15-11-1/10, NEAR PADMAJA PETROL BUNK, MANGALAGIRI ROAD, GUNTUR,,,522001","City":"GUNTUR","State":"Andhrapradesh","Pincode":"522001"},{"InsuranceCompanyName":"ADITYA BIRLA HEALTH INSURANCE COMPANY LTD","HospitalName":"HAPPY MULTI SPECIALITY HOSPITAL","Address":"D.NO:2-2-23,GANDHI NAGAR,OPP:OLD GOVT HOSPITAL ROAD,TENALI-522201,,,522201","City":"GUNTUR","State":"Andhrapradesh","Pincode":"522201"},{"InsuranceCompanyName":"ADITYA BIRLA HEALTH INSURANCE COMPANY LTD","HospitalName":"HARSHA HOSPITALS","Address":"75-1-7 PRAKASH NAGAR 2ND STREET EAST,GODAVARI,,533103","City":"GODAVARI","State":"Andhrapradesh","Pincode":"533103"},{"InsuranceCompanyName":"ADITYA BIRLA HEALTH INSURANCE COMPANY LTD","HospitalName":"HARSHA SUPER SPECIALITY HOSPITAL","Address":"3-1403,HOLMESPET,PRODDATUR,YSR KADAPA,,,516360","City":"CUDDAPAH","State":"Andhrapradesh","Pincode":"516360"},{"InsuranceCompanyName":"ADITYA BIRLA HEALTH INSURANCE COMPANY LTD","HospitalName":"HARSHITHA HOSPITAL","Address":"GNT Road, New Gajuwaka Main Road, New Gajuwaka Photo Studio, Gajuwaka,,,530026","City":"VISHAKAPATNAM","State":"Andhrapradesh","Pincode":"530026"},{"InsuranceCompanyName":"ADITYA BIRLA HEALTH INSURANCE COMPANY LTD","HospitalName":"HARSHITHA MULTI SPECIALITY HOSPITAL","Address":"#6-3-984, 1st CROSS, MARUTHI NAGAR, ANANTHAPURAM, A.P,,,515001","City":"ANANTAPUR","State":"Andhrapradesh","Pincode":"515001"},{"InsuranceCompanyName":"ADITYA BIRLA HEALTH INSURANCE COMPANY LTD","HospitalName":"HCG CURIE CITY CANCER CENTRE (A UNIT OF HEALTHCARE GLOBAL ENTERPRISES LTD)","Address":"PADAVALAREVU, GUNADALA,,,520004","City":"KRISHNA","State":"Andhrapradesh","Pincode":"520004"},{"InsuranceCompanyName":"ADITYA BIRLA HEALTH INSURANCE COMPANY LTD","HospitalName":"HCG MNR CURIE CANCER CENTRE","Address":"S.R.No-186/1,Mukthinuthalapadu (V)Beside Covt Iti,Prakasam,Pincode-523001,,,523001","City":"PRAKASAM","State":"Andhrapradesh","Pincode":"523001"},{"InsuranceCompanyName":"ADITYA BIRLA HEALTH INSURANCE COMPANY LTD","HospitalName":"HEALTH CURE AND CARE HOSPITAL","Address":"10/699-1,10/699-2, VANIPENTA ROAD,,,516172","City":"CUDDAPAH","State":"Andhrapradesh","Pincode":"516172"},{"InsuranceCompanyName":"ADITYA BIRLA HEALTH INSURANCE COMPANY LTD","HospitalName":"HEALTH HOSPITALS","Address":"#7-5-88/APRAKASAM ROAD NEAR LAKSHMI,THEATRE,,522201","City":"GUNTUR","State":"Andhrapradesh","Pincode":"522201"},{"InsuranceCompanyName":"ADITYA BIRLA HEALTH INSURANCE COMPANY LTD","HospitalName":"HEART CARE CENTRE","Address":"DOOR # 29-12-21 VENKATA RATHNAM STREET,DORNAKAL ROAD,,520002","City":"KRISHNA","State":"Andhrapradesh","Pincode":"520002"},{"InsuranceCompanyName":"ADITYA BIRLA HEALTH INSURANCE COMPANY LTD","HospitalName":"HELIOS HOSPITAL","Address":"46-19-17,Danavai peta,,,523103","City":"EAST GODAVARI","State":"Andhrapradesh","Pincode":"523103"},{"InsuranceCompanyName":"ADITYA BIRLA HEALTH INSURANCE COMPANY LTD","HospitalName":"HELIOS HOSPITALS","Address":"18-2-148, Devendra Theatre, Ashok Nagar, Tirupati,,,517501","City":"CHITTOOR","State":"Andhrapradesh","Pincode":"517501"},{"InsuranceCompanyName":"ADITYA BIRLA HEALTH INSURANCE COMPANY LTD","HospitalName":"HELP HOSPITAL","Address":"4/5th Arundelpet, Beside Of Kennedy School,,,522002","City":"GUNTUR","State":"Andhrapradesh","Pincode":"522002"},{"InsuranceCompanyName":"ADITYA BIRLA HEALTH INSURANCE COMPANY LTD","HospitalName":"HI-TECH TRAUMA & CRITICAL CARE HOSPITALS LTD.","Address":"6-29-34/A,LODGE CENTER AMARAVATHI ROAD,,522002","City":"GUNTUR","State":"Andhrapradesh","Pincode":"522002"},{"InsuranceCompanyName":"ADITYA BIRLA HEALTH INSURANCE COMPANY LTD","HospitalName":"HIMALAYA MULTISPECIALITY HOSPITAL","Address":"#1-81/1,R.S.ROAD,YERRA MUKKAPALLY,516004","City":"CUDDAPAH","State":"Andhrapradesh","Pincode":"516004"},{"InsuranceCompanyName":"ADITYA BIRLA HEALTH INSURANCE COMPANY LTD","HospitalName":"HOPE INTERNATIONAL HOSPITAL - KAKINADA","Address":"3-119 Adb Road Panasapadu Kakinada East Godavari Andhra Pradesh,0,,533005","City":"EAST GODAVARI","State":"Andhrapradesh","Pincode":"533005"},{"InsuranceCompanyName":"ADITYA BIRLA HEALTH INSURANCE COMPANY LTD","HospitalName":"HOPE WIN HOSPITALS","Address":"GUNTURVARI THOTA,7TH LINE,OLD CLUB ROAD,BESIDE LIFE HOSPITAL LINE,,,522001","City":"GUNTUR","State":"Andhrapradesh","Pincode":"522001"},{"InsuranceCompanyName":"ADITYA BIRLA HEALTH INSURANCE COMPANY LTD","HospitalName":"HRUDAYA CHILDRENS HOSPITAL","Address":"12-2-939, Beside State Bank of India, 3rd Cross, Sai Nagar, Anantapur,,,515001","City":"ANANTAPUR","State":"Andhrapradesh","Pincode":"515001"},{"InsuranceCompanyName":"ADITYA BIRLA HEALTH INSURANCE COMPANY LTD","HospitalName":"HYMA HOSPITALS (PVT) LTD.","Address":"MAIN ROAD,PATTABHIPURAM,,522006","City":"GUNTUR","State":"Andhrapradesh","Pincode":"522006"},{"InsuranceCompanyName":"ADITYA BIRLA HEALTH INSURANCE COMPANY LTD","HospitalName":"HYMA NETHRALAYAM","Address":"2-25, Main Road, Near TDP Office,Visakhapatnam,,531126","City":"PAYAKARAO PETA","State":"Andhrapradesh","Pincode":"531126"},{"InsuranceCompanyName":"ADITYA BIRLA HEALTH INSURANCE COMPANY LTD","HospitalName":"HYMAVAHI MULTISPECIALITY HOSPITAL","Address":"D.No. 16-7-53, Ramamurthi Nagar, Near Mini Bypass Road, Nellore, A.P,,,524002","City":"NELLORE","State":"Andhrapradesh","Pincode":"524002"},{"InsuranceCompanyName":"ADITYA BIRLA HEALTH INSURANCE COMPANY LTD","HospitalName":"IMPERIAL HOSPITALS A UNIT OF MUKUNDA HEALTHCARE PVT LTD","Address":"# 27-14-13/A, Opp Ganesh Canteen, Beside Bhasyam School, JP Road, Bhivaram,,,534202","City":"ALWAR","State":"Andhrapradesh","Pincode":"534202"},{"InsuranceCompanyName":"ADITYA BIRLA HEALTH INSURANCE COMPANY LTD","HospitalName":"INDIRA NURSING HOME","Address":"D.No.19.2.22, Gudachari Street, Vizianagaram,,,535002","City":"VIZIANAGARAM","State":"Andhrapradesh","Pincode":"535002"},{"InsuranceCompanyName":"ADITYA BIRLA HEALTH INSURANCE COMPANY LTD","HospitalName":"INDUS HEART INSTITUTE","Address":"D No.2/402-A2 Srinivasa Centre,Beside SBI Main Branch,,518501","City":"KURNOOL","State":"Andhrapradesh","Pincode":"518501"},{"InsuranceCompanyName":"ADITYA BIRLA HEALTH INSURANCE COMPANY LTD","HospitalName":"INDUS HOSPITAL (A UNIT OF M/S VASUGAN MEDICAL SPECIALITIES PVT. LTD.)","Address":"#18-1-6 K.G.H.DOWN ROAD MAHARANIPETA,NEAR LEPAKSHI SHOWROOM HOTEL DASPALLA,VISAKHAPATNAM,530002","City":"VISHAKAPATNAM","State":"Andhrapradesh","Pincode":"530002"},{"InsuranceCompanyName":"ADITYA BIRLA HEALTH INSURANCE COMPANY LTD","HospitalName":"INODAYA HOSPITAL","Address":"70-7-7/11,NFCL ROAD,NFCL ROAD, NAGAMALLITHOTA JN. KAKINADA,,533003","City":"EAST GODAVARI","State":"Andhrapradesh","Pincode":"533003"},{"InsuranceCompanyName":"ADITYA BIRLA HEALTH INSURANCE COMPANY LTD","HospitalName":"ISHA MULTISPECIALITY HOSPITAL","Address":"22-51/2,KAKANI NAGAR,CHANDERLAPADU ROAD,NANDIGAMA,KRISHNA DIST,,,521185","City":"NANDIGAMA","State":"Andhrapradesh","Pincode":"521185"},{"InsuranceCompanyName":"ADITYA BIRLA HEALTH INSURANCE COMPANY LTD","HospitalName":"J.K HOSPITAL","Address":"22-4-62/3, Road No. 4, Mangalam Road, Tirumala Reddy Nagar,,,517501","City":"CHITTOOR","State":"Andhrapradesh","Pincode":"517501"},{"InsuranceCompanyName":"ADITYA BIRLA HEALTH INSURANCE COMPANY LTD","HospitalName":"J.V.M. HOSPITAL-TENALI","Address":"NEHRU ROAD,ADRESSSS 1,,522201","City":"GUNTUR","State":"Andhrapradesh","Pincode":"522201"},{"InsuranceCompanyName":"ADITYA BIRLA HEALTH INSURANCE COMPANY LTD","HospitalName":"JANAKI HOSPITAL","Address":"STREAMER ROAD,NARSAPUR,WEST GODAVARI DISTRICT,,,534275","City":"NARSAPUR","State":"Andhrapradesh","Pincode":"534275"},{"InsuranceCompanyName":"ADITYA BIRLA HEALTH INSURANCE COMPANY LTD","HospitalName":"JANAKI NURSING HOME","Address":"N.R.T. CENTRE,CHILAKALURIPET,,522616","City":"GUNTUR","State":"Andhrapradesh","Pincode":"522616"},{"InsuranceCompanyName":"ADITYA BIRLA HEALTH INSURANCE COMPANY LTD","HospitalName":"JANARDANI HOSPITAL","Address":"GOWRISANKAR THEATRE ROAD,,,522002","City":"GUNTUR","State":"Andhrapradesh","Pincode":"522002"},{"InsuranceCompanyName":"ADITYA BIRLA HEALTH INSURANCE COMPANY LTD","HospitalName":"JANATHA INSTITUTE OF MEDICAL SCIENCES","Address":"5-1/1-1(A),beside jayram theatre,court centre,,,523002","City":"PRAKASAM","State":"Andhrapradesh","Pincode":"523002"},{"InsuranceCompanyName":"ADITYA BIRLA HEALTH INSURANCE COMPANY LTD","HospitalName":"JAYA VISHNU HOSPITAL","Address":"GEETHA ASHRAM ROAD,PRODDATUR,,516360","City":"ANANTAPUR","State":"Andhrapradesh","Pincode":"516360"},{"InsuranceCompanyName":"ADITYA BIRLA HEALTH INSURANCE COMPANY LTD","HospitalName":"JAYABHARAT HOSPITAL","Address":"16/2884, SOMASEKHARAPURAM, NEAR V.R. COLLEGE,,,524003","City":"NELLORE","State":"Andhrapradesh","Pincode":"524003"},{"InsuranceCompanyName":"ADITYA BIRLA HEALTH INSURANCE COMPANY LTD","HospitalName":"JAYATHI HOSPITALS","Address":"13-8-168,169, Old Club Road, Kothapet,,,522001","City":"GUNTUR","State":"Andhrapradesh","Pincode":"522001"},{"InsuranceCompanyName":"ADITYA BIRLA HEALTH INSURANCE COMPANY LTD","HospitalName":"JEEVANA JYOTHI HOSPITAL","Address":"#15/381,KAMALA NAGAR,,515001","City":"ANANTAPUR","State":"Andhrapradesh","Pincode":"515001"},{"InsuranceCompanyName":"ADITYA BIRLA HEALTH INSURANCE COMPANY LTD","HospitalName":"JHANSI LAKSHMI NURSING HOME","Address":"DOOR NO:5-4-4, PALANADU ROAD, NARASARAOPET, GUNTUR DISTRICT, PALANADU ROAD, ANDHRA PRADESH,,,522601","City":"GUNTUR","State":"Andhrapradesh","Pincode":"522601"},{"InsuranceCompanyName":"ADITYA BIRLA HEALTH INSURANCE COMPANY LTD","HospitalName":"JHANSI NURSING HOME","Address":"ADDANKI ROAD, DARSI, PRAKASHAM, ANDHRA PRADESH- 523247,,,523247","City":"PRAKASAM","State":"Andhrapradesh","Pincode":"523247"},{"InsuranceCompanyName":"ADITYA BIRLA HEALTH INSURANCE COMPANY LTD","HospitalName":"JNANANANDA RETINA FOUNDATION PVT LTD","Address":"MAYUR BUILDING TOWN RAILWAYJ.P.,ROADBHIMAVARAM,,534202","City":"WEST GODAVARI","State":"Andhrapradesh","Pincode":"534202"},{"InsuranceCompanyName":"ADITYA BIRLA HEALTH INSURANCE COMPANY LTD","HospitalName":"JYOTHI NURSING HOME","Address":"#3/374,RAILWAY STATION ROAD,,516001","City":"CUDDAPAH","State":"Andhrapradesh","Pincode":"516001"},{"InsuranceCompanyName":"ADITYA BIRLA HEALTH INSURANCE COMPANY LTD","HospitalName":"JYOTHI NURSING HOME","Address":"18-07-11, A.G. ROAD, THREE LAMPS JUNCTION, VIZIANAGARAM,,,535002","City":"VIZIANAGARAM","State":"Andhrapradesh","Pincode":"535002"},{"InsuranceCompanyName":"ADITYA BIRLA HEALTH INSURANCE COMPANY LTD","HospitalName":"K KRISHNA NURSING HOME PONNUR","Address":"GBC ROAD,PONNUR,,522124","City":"GUNTUR","State":"Andhrapradesh","Pincode":"522124"},{"InsuranceCompanyName":"ADITYA BIRLA HEALTH INSURANCE COMPANY LTD","HospitalName":"K R HOSPITAL","Address":"6-1-175 A K T Road Tiruprati,,,575001","City":"CHITTOOR","State":"Andhrapradesh","Pincode":"575001"},{"InsuranceCompanyName":"ADITYA BIRLA HEALTH INSURANCE COMPANY LTD","HospitalName":"K.C.M. HOSPITAL","Address":"3/224,CHRISTIAN LANE,,516001","City":"CUDDAPAH","State":"Andhrapradesh","Pincode":"516001"},{"InsuranceCompanyName":"ADITYA BIRLA HEALTH INSURANCE COMPANY LTD","HospitalName":"K.K HOSPITAL","Address":"32-2/1-3A, Ratnamamba Street Praja Sakthi Nagar, Moghalrajapuram,,,522503","City":"KRISHNA","State":"Andhrapradesh","Pincode":"522503"},{"InsuranceCompanyName":"ADITYA BIRLA HEALTH INSURANCE COMPANY LTD","HospitalName":"K.K. EYE CARE","Address":"#39-13-18, 1st Floor,\nMurali Nagar,,,530007","City":"ALWAR","State":"Andhrapradesh","Pincode":"530007"},{"InsuranceCompanyName":"ADITYA BIRLA HEALTH INSURANCE COMPANY LTD","HospitalName":"K.V SHINE HOSPITALS PRIVATE LIMITED","Address":"33-18-2-CHALASANI VENKATAKRISHNAIAH STREETT,NEAR PUSHPA HOTEL,SURYARAOPET,520002","City":"KRISHNA","State":"Andhrapradesh","Pincode":"520002"},{"InsuranceCompanyName":"ADITYA BIRLA HEALTH INSURANCE COMPANY LTD","HospitalName":"K.V.R. HOSPITAL","Address":"#H.No.25/29,Sanjeevaiah Nagar,kurnool,,,518501","City":"KURNOOL","State":"Andhrapradesh","Pincode":"518501"},{"InsuranceCompanyName":"ADITYA BIRLA HEALTH INSURANCE COMPANY LTD","HospitalName":"KADAPA HOSPITAL","Address":"3/120,christan line,opp police gate,kadapa,516001","City":"CUDDAPAH","State":"Andhrapradesh","Pincode":"516001"},{"InsuranceCompanyName":"ADITYA BIRLA HEALTH INSURANCE COMPANY LTD","HospitalName":"KAKUMANI HOSPITAL","Address":"D No-37-1-5(17), Near East Restaurant, Sai Baba Temple Road, Ongloe,,,523001","City":"PRAKASAM","State":"Andhrapradesh","Pincode":"523001"},{"InsuranceCompanyName":"ADITYA BIRLA HEALTH INSURANCE COMPANY LTD","HospitalName":"KALA HOSPITALS PVT LTD","Address":"47-1-104 6TH LANE DWARAKANAGAR,VISAKHAPATNAM- NEAR B.V.K. COLLEGE,,530016","City":"VISHAKAPATNAM","State":"Andhrapradesh","Pincode":"530016"},{"InsuranceCompanyName":"ADITYA BIRLA HEALTH INSURANCE COMPANY LTD","HospitalName":"KALAVATHI SURGICAL HOSPITAL","Address":"OPP SREEKANYA THEATER,RAILWAY NEW COLONY,,530016","City":"VISHAKAPATNAM","State":"Andhrapradesh","Pincode":"530016"},{"InsuranceCompanyName":"ADITYA BIRLA HEALTH INSURANCE COMPANY LTD","HospitalName":"KAMALA NURSING HOME","Address":"34-1-166-13,near navabharat theatre,G.T ROAD,ONGOLE,,523002","City":"PRAKASAM","State":"Andhrapradesh","Pincode":"523002"},{"InsuranceCompanyName":"ADITYA BIRLA HEALTH INSURANCE COMPANY LTD","HospitalName":"KAMALA ORTHOPEADIC NURSING HOME","Address":"29-19-51 DOMAKAL ROAD NEAR VEEDHI,RAJAIAH MEDA KOTHAVANTHENA BUS STOP,,520002","City":"KRISHNA","State":"Andhrapradesh","Pincode":"520002"},{"InsuranceCompanyName":"ADITYA BIRLA HEALTH INSURANCE COMPANY LTD","HospitalName":"KAMALAKAR HOSPITAL","Address":"D.No. 75-7-20, Near Prakash Nagar Round Park,,,533104","City":"GODAVARI","State":"Andhrapradesh","Pincode":"533104"},{"InsuranceCompanyName":"ADITYA BIRLA HEALTH INSURANCE COMPANY LTD","HospitalName":"KAMINENI HEALTH CARE PVT LTD","Address":"100 Feet New Autonagar Road, Tadigadapa Bus Stop, Near Siddhartha Engg. College, Poranki Rural, Vijayawada,,,521137","City":"KRISHNA","State":"Andhrapradesh","Pincode":"521137"},{"InsuranceCompanyName":"ADITYA BIRLA HEALTH INSURANCE COMPANY LTD","HospitalName":"KANAKADURGA HOSPITAL(A UNIT OF DR K B CHOWDARY PROVIDERS)","Address":"15-6-10A,MAHARANIPETA,ZP JUNCTION KANAKADURGA NURSING HOME ROAD,,,530002","City":"VISHAKAPATNAM","State":"Andhrapradesh","Pincode":"530002"},{"InsuranceCompanyName":"ADITYA BIRLA HEALTH INSURANCE COMPANY LTD","HospitalName":"KANDUKURI HOSPITALS","Address":"VAISHNALAYAM STREET,KAVALI,,524201","City":"NELLORE","State":"Andhrapradesh","Pincode":"524201"},{"InsuranceCompanyName":"ADITYA BIRLA HEALTH INSURANCE COMPANY LTD","HospitalName":"KANUMURI HOSPITAL","Address":"D NO.12 SANAKKAYALA FACTORY ROAD,KOTHAPET,,522001","City":"GUNTUR","State":"Andhrapradesh","Pincode":"522001"},{"InsuranceCompanyName":"ADITYA BIRLA HEALTH INSURANCE COMPANY LTD","HospitalName":"KANUMURI NURSING HOME","Address":"BEHIND SAI BABA COMPLEX MAIN ROAD,SATTENAPALLI,,522403","City":"GUNTUR","State":"Andhrapradesh","Pincode":"522403"},{"InsuranceCompanyName":"ADITYA BIRLA HEALTH INSURANCE COMPANY LTD","HospitalName":"KAR HOSPITAL ORTHOPAEDICS & MULTISPECIALITY","Address":"1-526, GIRLS  HIGH SCHOOL  ROAD, ANAPARTHY,,,533342","City":"EAST GODAVARI","State":"Andhrapradesh","Pincode":"533342"},{"InsuranceCompanyName":"ADITYA BIRLA HEALTH INSURANCE COMPANY LTD","HospitalName":"KARTHIK HOSPITAL","Address":"#Plot no.616, Ward-44/16-0-1B, Sunkesula Road,,,,518004","City":"KURNOOL","State":"Andhrapradesh","Pincode":"518004"},{"InsuranceCompanyName":"ADITYA BIRLA HEALTH INSURANCE COMPANY LTD","HospitalName":"KARTHIKA EYE AND ENT HOSPITAL","Address":"#D.No.20-1-248/A, Korlagunta Junction, Tirumala Bypass Road,,,517501","City":"ALWAR","State":"Andhrapradesh","Pincode":"517501"},{"InsuranceCompanyName":"ADITYA BIRLA HEALTH INSURANCE COMPANY LTD","HospitalName":"KARTHIKEYA HOSPITAL","Address":"#1/99, George Reddy Street Beside SBI Bank, yeramukkapally,,,516001","City":"CUDDAPAH","State":"Andhrapradesh","Pincode":"516001"},{"InsuranceCompanyName":"ADITYA BIRLA HEALTH INSURANCE COMPANY LTD","HospitalName":"KARTHIKEYA MULTI SPECIALITY HOSPITAL","Address":"N.H.16, # 3-212/2, Neeladri Rao Peta, Jaggampeta - 533435,,,533435","City":"EAST GODAVARI","State":"Andhrapradesh","Pincode":"533435"},{"InsuranceCompanyName":"ADITYA BIRLA HEALTH INSURANCE COMPANY LTD","HospitalName":"KARUMURI HOSPITAL","Address":"13-4-73,OLD CLUB ROAD,KOTHAPETA,522001","City":"GUNTUR","State":"Andhrapradesh","Pincode":"522001"},{"InsuranceCompanyName":"ADITYA BIRLA HEALTH INSURANCE COMPANY LTD","HospitalName":"KARUNA HOSPITAL","Address":"#10/202,203,\nGudivada Village, Eluru Road,,,,521301","City":"ALWAR","State":"Andhrapradesh","Pincode":"521301"},{"InsuranceCompanyName":"ADITYA BIRLA HEALTH INSURANCE COMPANY LTD","HospitalName":"KASI EYE HOSPITAL","Address":"D NO:27-8-12/4, J.P ROAD, WEST GODAVARI, BHIMAVARAM, AP -534202,,,534202","City":"WEST GODAVARI","State":"Andhrapradesh","Pincode":"534202"},{"InsuranceCompanyName":"ADITYA BIRLA HEALTH INSURANCE COMPANY LTD","HospitalName":"KATURI MEDICAL COLLEGE & HOSPITAL","Address":"KATURI NAGAR,CHINAKONDRUPADU VILLAGE,,522019","City":"GUNTUR","State":"Andhrapradesh","Pincode":"522019"},{"InsuranceCompanyName":"ADITYA BIRLA HEALTH INSURANCE COMPANY LTD","HospitalName":"KAY VEE HOSPITAL","Address":"#25-19-10, N.R. PRTA ELURU,,ELURU,534006","City":"WEST GODAVARI","State":"Andhrapradesh","Pincode":"534006"},{"InsuranceCompanyName":"ADITYA BIRLA HEALTH INSURANCE COMPANY LTD","HospitalName":"KBR ORTHOPAEDIC HOSPITAL","Address":"16-4-430,Near Sai Baba Temple,Trunk Road,,,524001","City":"NELLORE","State":"Andhrapradesh","Pincode":"524001"},{"InsuranceCompanyName":"ADITYA BIRLA HEALTH INSURANCE COMPANY LTD","HospitalName":"KC HOSPITAL","Address":"#D.No.80/4A1,\nKamathamur Circle, New By-Pass Road,,,517425","City":"ALWAR","State":"Andhrapradesh","Pincode":"517425"},{"InsuranceCompanyName":"ADITYA BIRLA HEALTH INSURANCE COMPANY LTD","HospitalName":"KEERTHI HOSPITAL","Address":"NEW NASARI NAGAR,CHALLAPALLI,KRISHNA,,,521126","City":"CHALLAPALLI","State":"Andhrapradesh","Pincode":"521126"},{"InsuranceCompanyName":"ADITYA BIRLA HEALTH INSURANCE COMPANY LTD","HospitalName":"KIDZ RAINBOW CHILDREN & BABY HOSPITAL","Address":"Ramesh Reddy Nagar, Near RTC Bus Stand Nellore,,,,524003","City":"NELLORE","State":"Andhrapradesh","Pincode":"524003"},{"InsuranceCompanyName":"ADITYA BIRLA HEALTH INSURANCE COMPANY LTD","HospitalName":"KIMS HOSPITAL KURNOOL PRIVATE LIMITED","Address":"69/213-K-9, REVENUE WARD NO 69, JOHARAPURAM, Kurnool,Andhra Pradesh, 518001,,,518002","City":"KURNOOL","State":"Andhrapradesh","Pincode":"518002"},{"InsuranceCompanyName":"ADITYA BIRLA HEALTH INSURANCE COMPANY LTD","HospitalName":"KIMS HOSPITAL-TENALI","Address":"7-5-9/2,PRAKASAM ROAD,GUNTUR,522201","City":"GUNTUR","State":"Andhrapradesh","Pincode":"522201"},{"InsuranceCompanyName":"ADITYA BIRLA HEALTH INSURANCE COMPANY LTD","HospitalName":"KIMS SAI SESHADRI HOSPITAL (A UNIT OF ARUNODAYA HOSPITAL PVT LTD)","Address":"P.N. COLONY JN., BRIDGE ROAD,,NEAR DATTA TEMPLE,,532001","City":"SRIKAKULAM","State":"Andhrapradesh","Pincode":"532001"},{"InsuranceCompanyName":"ADITYA BIRLA HEALTH INSURANCE COMPANY LTD","HospitalName":"KIMS SAVEERA HOSPITAL (SAVEERA INSTITUTE OF MEDICAL SCIENCES PRIVATE LIMITED)","Address":"1-1348,sri nagar colony extension,Opp sakshi office,,515004","City":"ANANTAPUR","State":"Andhrapradesh","Pincode":"515004"},{"InsuranceCompanyName":"ADITYA BIRLA HEALTH INSURANCE COMPANY LTD","HospitalName":"KIMS-ICON HOSPITAL(A UNIT OF ICON KRISHI INSTITUTE OF MEDICAL SCIENCES PVT LTD)","Address":"Door No 32-11-2, Sheela Nagar, Gajuwaka,,,530012","City":"VISHAKAPATNAM","State":"Andhrapradesh","Pincode":"530012"},{"InsuranceCompanyName":"ADITYA BIRLA HEALTH INSURANCE COMPANY LTD","HospitalName":"KMR UNIVERSAL HOSPITAL","Address":"#4-22/1, Raithupeta,\n600/1B,,,,521185","City":"ALWAR","State":"Andhrapradesh","Pincode":"521185"},{"InsuranceCompanyName":"ADITYA BIRLA HEALTH INSURANCE COMPANY LTD","HospitalName":"KNR HOSPITAL","Address":"#D.No.4-1-227/a,\nAnjaneyapeta, Amaravathi Road,,,,522007","City":"ALWAR","State":"Andhrapradesh","Pincode":"522007"},{"InsuranceCompanyName":"ADITYA BIRLA HEALTH INSURANCE COMPANY LTD","HospitalName":"KOLAPARTHI HOSPITAL-VIZAINAGARAM","Address":"Telephone Exchange Road, Srungavarapukota,,0,,535145","City":"VIZIANAGARAM","State":"Andhrapradesh","Pincode":"535145"},{"InsuranceCompanyName":"ADITYA BIRLA HEALTH INSURANCE COMPANY LTD","HospitalName":"KOMMALAPATI VEERAIAH NURSING HOME","Address":"58-9-16(2),KAMASASTRY ROAD,ONGOLE,523001","City":"PRAKASAM","State":"Andhrapradesh","Pincode":"523001"},{"InsuranceCompanyName":"ADITYA BIRLA HEALTH INSURANCE COMPANY LTD","HospitalName":"KOMMINENI NURSING HOME","Address":"Nehru Road,Pincode-522201,,,522201","City":"GUNTUR","State":"Andhrapradesh","Pincode":"522201"},{"InsuranceCompanyName":"ADITYA BIRLA HEALTH INSURANCE COMPANY LTD","HospitalName":"KONDAVEEDU ENT HOSPITAL","Address":"D NO-16-2-134,NARASARAOPET,,522601","City":"GUNTUR","State":"Andhrapradesh","Pincode":"522601"},{"InsuranceCompanyName":"ADITYA BIRLA HEALTH INSURANCE COMPANY LTD","HospitalName":"KOTNIS PRAJAVAIDYA SALA","Address":"LETURES'S COLONY, GANGANAMMA PET,,,522201","City":"GUNTUR","State":"Andhrapradesh","Pincode":"522201"},{"InsuranceCompanyName":"ADITYA BIRLA HEALTH INSURANCE COMPANY LTD","HospitalName":"KRANTHI SPECIALITY HOSPITAL","Address":"#13-2-\n391/1, Ameya Towers, Ramachandra Nagar,,,515001","City":"ALWAR","State":"Andhrapradesh","Pincode":"515001"},{"InsuranceCompanyName":"ADITYA BIRLA HEALTH INSURANCE COMPANY LTD","HospitalName":"KRISHNA CHILDRENS HOSPITAL","Address":"43-4-23, Railway New Colony Near Kamalamma Hospital Road,,,530016","City":"VISHAKAPATNAM","State":"Andhrapradesh","Pincode":"530016"},{"InsuranceCompanyName":"ADITYA BIRLA HEALTH INSURANCE COMPANY LTD","HospitalName":"KRISHNA GASTRO & LIVER CENTRE AND SAFE HOSPITAL","Address":"Do No-29-14-52, Prakasam Road, Near Pushpa Hotel, Krishna,,,520002","City":"KRISHNA","State":"Andhrapradesh","Pincode":"520002"},{"InsuranceCompanyName":"ADITYA BIRLA HEALTH INSURANCE COMPANY LTD","HospitalName":"KRISHNA INSTITUE OF MEDICAL SCIENCES LTD","Address":"24I/1520/1 BRAHMANDAPURAM, DARGAMITTA,,,524003","City":"NELLORE","State":"Andhrapradesh","Pincode":"524003"},{"InsuranceCompanyName":"ADITYA BIRLA HEALTH INSURANCE COMPANY LTD","HospitalName":"KRISHNA INSTITUTE OF MEDICAL SCIENCE (BOLLINENI)","Address":"#77-7-77/1,SEELAM NOOKARAJU COMPLEX,ROAD,KATARI GARDENS,RAJAHMUNDRY,,533103","City":"EAST GODAVARI","State":"Andhrapradesh","Pincode":"533103"},{"InsuranceCompanyName":"ADITYA BIRLA HEALTH INSURANCE COMPANY LTD","HospitalName":"KRISHNA INSTITUTE OF MEDICAL SCIENCE LTD.","Address":"#4-120/A, North Bypass Road, Nh-5, Backside Agriculture Market Yard, MukthI Nuthalapadu Village,,,523001","City":"PRAKASAM","State":"Andhrapradesh","Pincode":"523001"},{"InsuranceCompanyName":"ADITYA BIRLA HEALTH INSURANCE COMPANY LTD","HospitalName":"KRISHNA INSTITUTE OF MEDICAL SCIENCES LTD-VIJAYAWADA","Address":"D. NO-61-9-10 PINNAMANENI POLY CLINIC,ROAD SIDDARTHA NAGAR,,520010","City":"KRISHNA","State":"Andhrapradesh","Pincode":"520010"},{"InsuranceCompanyName":"ADITYA BIRLA HEALTH INSURANCE COMPANY LTD","HospitalName":"KRISHNA MATERNITY AND NURSING HOME","Address":"D.NO.43-5-53 RAIWAY NEW COLONY,VISAKAPATNAM,,530016","City":"VISHAKAPATNAM","State":"Andhrapradesh","Pincode":"530016"},{"InsuranceCompanyName":"ADITYA BIRLA HEALTH INSURANCE COMPANY LTD","HospitalName":"KRISHNA MULTI SPECIALITY HOSPITAL","Address":"#675/2B-1,BRAHMIN STREET,NEAR SHIVALAYAM,RAJACHOTI,YSR KADAPA,,,516269","City":"RAYACHOTI","State":"Andhrapradesh","Pincode":"516269"},{"InsuranceCompanyName":"ADITYA BIRLA HEALTH INSURANCE COMPANY LTD","HospitalName":"KRISHNA PRABHAS LEELA MOTHER AND CHILD HOSPITAL","Address":"#41/880, Beside Gokul Residency, sankarapuram,,,516001","City":"CUDDAPAH","State":"Andhrapradesh","Pincode":"516001"},{"InsuranceCompanyName":"ADITYA BIRLA HEALTH INSURANCE COMPANY LTD","HospitalName":"KUMAR ORTHO AND MULTISPECIALITY HOSPITAL","Address":"#12-3-957,VIDYUTH NAGAR,ANANTPUR,,,515001","City":"ANANTAPUR","State":"Andhrapradesh","Pincode":"515001"},{"InsuranceCompanyName":"ADITYA BIRLA HEALTH INSURANCE COMPANY LTD","HospitalName":"KUSUMA HOSPITAL","Address":"#7-7-5/4 NEAR TOWN RAILWAY STATION,RAMARAOPETA,KIKINADA,,533004","City":"EAST GODAVARI","State":"Andhrapradesh","Pincode":"533004"},{"InsuranceCompanyName":"ADITYA BIRLA HEALTH INSURANCE COMPANY LTD","HospitalName":"KVR MULTI SPECIALITY HOSPITAL","Address":"D.No.4/207, Gandhi Road,,,,516360","City":"CUDDAPAH","State":"Andhrapradesh","Pincode":"516360"},{"InsuranceCompanyName":"ADITYA BIRLA HEALTH INSURANCE COMPANY LTD","HospitalName":"LAHIRI HOSPITAL","Address":"K.B.ROAD, SUBAHANI NAGAR, CHILAKALURIPET,,,522616","City":"GUNTUR","State":"Andhrapradesh","Pincode":"522616"},{"InsuranceCompanyName":"ADITYA BIRLA HEALTH INSURANCE COMPANY LTD","HospitalName":"LAKSHMI ARUNDHATI NURSING HOME","Address":"WEST GODAVARI DT,ADRESSSS 1,,534211","City":"WEST GODAVARI","State":"Andhrapradesh","Pincode":"534211"},{"InsuranceCompanyName":"ADITYA BIRLA HEALTH INSURANCE COMPANY LTD","HospitalName":"LAKSHMI EYE & MATERNITY & LAPAROSCOPY HOSPITAL","Address":"ABOVE LAKSHMI VILAS BANK BENZ CIRCLE,GAYATRI NAGAR OPP. ST. PAULS CHURCH,,520008","City":"KRISHNA","State":"Andhrapradesh","Pincode":"520008"},{"InsuranceCompanyName":"ADITYA BIRLA HEALTH INSURANCE COMPANY LTD","HospitalName":"LAKSHMI KISHORE HOSPITAL","Address":"5/1895,GEETHA ASHRAMAM ROAD,PRODDATUR,516360","City":"CUDDAPAH","State":"Andhrapradesh","Pincode":"516360"},{"InsuranceCompanyName":"ADITYA BIRLA HEALTH INSURANCE COMPANY LTD","HospitalName":"LAKSHMI MEENAKSHI EYE AND MATERNITY CARE CENTRE","Address":"# 13-8-66,7Th Line,Gunturivar Ithota Old Club Road,Kothapet,Pincode-522001,,,522001","City":"GUNTUR","State":"Andhrapradesh","Pincode":"522001"},{"InsuranceCompanyName":"ADITYA BIRLA HEALTH INSURANCE COMPANY LTD","HospitalName":"LAKSHMI NURSING HOME","Address":"5-87-18,LAKSHMI PURAM MAIN ROAD,,522007","City":"GUNTUR","State":"Andhrapradesh","Pincode":"522007"},{"InsuranceCompanyName":"ADITYA BIRLA HEALTH INSURANCE COMPANY LTD","HospitalName":"LAKSHMI NURSING HOME","Address":"2/261-1-1 BuddayapalliJammalamadugu Road,,,516360","City":"PRODDATUR","State":"Andhrapradesh","Pincode":"516360"},{"InsuranceCompanyName":"ADITYA BIRLA HEALTH INSURANCE COMPANY LTD","HospitalName":"LAKSHMI SRINIVASA HOSPITAL","Address":"D.NO. 15-1-29, NEAR R.T.C BUS STAND,,,,522001","City":"GUNTUR","State":"Andhrapradesh","Pincode":"522001"},{"InsuranceCompanyName":"ADITYA BIRLA HEALTH INSURANCE COMPANY LTD","HospitalName":"LAKSHMI SRINIVASA MULTI SPECIALITY HOSPITAL","Address":"SUNDARAIAH BHAVAN ROAD,PRAKASAM,ONGOLE,,,523002","City":"PRAKASAM","State":"Andhrapradesh","Pincode":"523002"},{"InsuranceCompanyName":"ADITYA BIRLA HEALTH INSURANCE COMPANY LTD","HospitalName":"LAKSHMI SUPER SPECIALITY HOSPITAL","Address":"OPP. RIMS Govt. Hospital Ram Nagar,6th Line Prakasm Distt. Ongole,,523001","City":"PRAKASAM","State":"Andhrapradesh","Pincode":"523001"},{"InsuranceCompanyName":"ADITYA BIRLA HEALTH INSURANCE COMPANY LTD","HospitalName":"LAKSHMI WOMEN'S HOSPITAL","Address":"D.NO.23/399 RAMANAIDUPET,KRISHNA,,521001","City":"KRISHNA","State":"Andhrapradesh","Pincode":"521001"},{"InsuranceCompanyName":"ADITYA BIRLA HEALTH INSURANCE COMPANY LTD","HospitalName":"LAKSHMIRAM HOSPITAL","Address":"\"4-2-158, LAKSHMIRAM HOSPITAL, SRIKALAHASTHI BYPASS ROAD, NAIDUPETA, NELLORE,,,524126","City":"NELLORE","State":"Andhrapradesh","Pincode":"524126"},{"InsuranceCompanyName":"ADITYA BIRLA HEALTH INSURANCE COMPANY LTD","HospitalName":"LALITHA EYE HOSPITAL","Address":"15/246 THIKKANA TELEPHONE BHAVAN,EXCHANGE ST BRINDAVANAM,,524001","City":"NELLORE","State":"Andhrapradesh","Pincode":"524001"},{"InsuranceCompanyName":"ADITYA BIRLA HEALTH INSURANCE COMPANY LTD","HospitalName":"LALITHA SUPER SPECIALITIES HOSPITAL (P) LTD","Address":"12-21-59 GOWRISANKA,R THEATRE ROAD,,522001","City":"GUNTUR","State":"Andhrapradesh","Pincode":"522001"},{"InsuranceCompanyName":"ADITYA BIRLA HEALTH INSURANCE COMPANY LTD","HospitalName":"LATHA CHILDRENS HOSPITAL","Address":"DOOR NO: 10-02-30 2ND LANE, SAMBASIVAPET, WOMENS COLLEGE ROAD, GUNTUR , COLLEGE ROAD(GUNTUR) , GUNTUR,College Road(Guntur),,522001","City":"GUNTUR","State":"Andhrapradesh","Pincode":"522001"},{"InsuranceCompanyName":"ADITYA BIRLA HEALTH INSURANCE COMPANY LTD","HospitalName":"LATHA MATERNITY NURSING HOME","Address":"#H.No.3-3-186, Behind Civil hospital road,,,505001","City":"ALWAR","State":"Andhrapradesh","Pincode":"505001"},{"InsuranceCompanyName":"ADITYA BIRLA HEALTH INSURANCE COMPANY LTD","HospitalName":"LATHA POLY NURSING HOME","Address":"HOLMESPET 3-1461 PRODDATUR NEAR GANDHI,ROAD,,516360","City":"CUDDAPAH","State":"Andhrapradesh","Pincode":"516360"},{"InsuranceCompanyName":"ADITYA BIRLA HEALTH INSURANCE COMPANY LTD","HospitalName":"LATHA SUPER SPECIALITY HOSPITAL (A UNIT OF KLMM HOSPITAL PVT LTD)","Address":"29-14-58, LATHA PRAKASHAM ROAD, SURYARAOPET,,,520002","City":"KRISHNA","State":"Andhrapradesh","Pincode":"520002"},{"InsuranceCompanyName":"ADITYA BIRLA HEALTH INSURANCE COMPANY LTD","HospitalName":"LATHA THALLI PILLALA HOSPITAL","Address":"# 10-23-10/D Christian Peta, 3rd Lane, Kavali, Nellore,,,524201","City":"ALWAR","State":"Andhrapradesh","Pincode":"524201"},{"InsuranceCompanyName":"ADITYA BIRLA HEALTH INSURANCE COMPANY LTD","HospitalName":"LAXMI HOSPITAL","Address":"#3-16-207, SRI VIDYA COLONY, EAST GODAVARI,,,533003","City":"EAST GODAVARI","State":"Andhrapradesh","Pincode":"533003"},{"InsuranceCompanyName":"ADITYA BIRLA HEALTH INSURANCE COMPANY LTD","HospitalName":"LAZARUS HOSPITALS LTD","Address":"WALTAIR MAIN ROAD,ADRESSSS 1,,530002","City":"VISHAKAPATNAM","State":"Andhrapradesh","Pincode":"530002"},{"InsuranceCompanyName":"ADITYA BIRLA HEALTH INSURANCE COMPANY LTD","HospitalName":"LIBERTY HOSPITAL","Address":"#74-1-2, King Square Complex, Opp Auto Nagar Bus Terminals, Patamata, MG Road,VIJAYAWADA,,520007","City":"KRISHNA","State":"Andhrapradesh","Pincode":"520007"},{"InsuranceCompanyName":"ADITYA BIRLA HEALTH INSURANCE COMPANY LTD","HospitalName":"LIFE CARE HOSPITAL","Address":"DR.OBAIAH HOSPITALBUILDING CHRISTIAN,PET 4THLINE OPP MAIN BUSSTAND KAVALI,,524201","City":"NELLORE","State":"Andhrapradesh","Pincode":"524201"},{"InsuranceCompanyName":"ADITYA BIRLA HEALTH INSURANCE COMPANY LTD","HospitalName":"LIFE EMERGENCY","Address":"36-26-10/1,NEAR KOTIPALLIBRIDGECENTER,,533101","City":"EAST GODAVARI","State":"Andhrapradesh","Pincode":"533101"},{"InsuranceCompanyName":"ADITYA BIRLA HEALTH INSURANCE COMPANY LTD","HospitalName":"LIFE HOSPITAL","Address":"OLD CLUB ROAD,KOTHAPET,,522001","City":"GUNTUR","State":"Andhrapradesh","Pincode":"522001"},{"InsuranceCompanyName":"ADITYA BIRLA HEALTH INSURANCE COMPANY LTD","HospitalName":"LIFE LINE HOSPITALS","Address":"DOOR NO:16-1-265,MALLAMMA CENTER,MAIN ROAD,GUNTUR,,,522601","City":"GUNTUR","State":"Andhrapradesh","Pincode":"522601"},{"InsuranceCompanyName":"ADITYA BIRLA HEALTH INSURANCE COMPANY LTD","HospitalName":"LIFE LINE MULTISPECIALITY EMERGENCY CENTRE","Address":"#D.No.10/259, Gandhi Road,,,,517001","City":"ALWAR","State":"Andhrapradesh","Pincode":"517001"},{"InsuranceCompanyName":"ADITYA BIRLA HEALTH INSURANCE COMPANY LTD","HospitalName":"LIFE LINE TRIMURTHY HOSPITAL","Address":"#29-26-55,JADAGAM VARI STREET,,520002","City":"KRISHNA","State":"Andhrapradesh","Pincode":"520002"},{"InsuranceCompanyName":"ADITYA BIRLA HEALTH INSURANCE COMPANY LTD","HospitalName":"LIFELINE HOSPITAL","Address":"Landmark Sri Saili, 60 Feet Road, Ananthpur,,,515801","City":"GUNTAKAL","State":"Andhrapradesh","Pincode":"515801"},{"InsuranceCompanyName":"ADITYA BIRLA HEALTH INSURANCE COMPANY LTD","HospitalName":"LIKHITHA SUPERSPECIALITY HOSPITAL","Address":"KOTA CENTER,SATENAPALLI ROAD,NAVSARAOPET,,,520008","City":"GUNTUR","State":"Andhrapradesh","Pincode":"520008"},{"InsuranceCompanyName":"ADITYA BIRLA HEALTH INSURANCE COMPANY LTD","HospitalName":"LIONS DISTRICT 324-C1,CANCER TREATMENT & RESEARCH CENTRE","Address":"SEETHAMMADHARA NORTH EXTENSION ABHAYA,ANJANEYA SWAMY TEMPLE,,530013","City":"VISHAKAPATNAM","State":"Andhrapradesh","Pincode":"530013"},{"InsuranceCompanyName":"ADITYA BIRLA HEALTH INSURANCE COMPANY LTD","HospitalName":"LMR MULTI SPECIALITY HOSPITAL - ANANTHAPUR","Address":"#13-3-187, Sreenivas Nagar,Behind Rtc Bus Stand, Indian Bank Road,,0,,515001","City":"ANANTAPUR","State":"Andhrapradesh","Pincode":"515001"},{"InsuranceCompanyName":"ADITYA BIRLA HEALTH INSURANCE COMPANY LTD","HospitalName":"LOTUS EMERGENCY HOSPITAL","Address":"18-1-301/302, Bhavani nagar circle,,Near TTD A.D Building,,K T Road,,517501","City":"CHITTOOR","State":"Andhrapradesh","Pincode":"517501"},{"InsuranceCompanyName":"ADITYA BIRLA HEALTH INSURANCE COMPANY LTD","HospitalName":"LOTUS HOSPITALS FOR WOMEN AND CHILDREN","Address":"10-59-9, OPP Waltair Club,Siripuram,,,,530003","City":"VISHAKAPATNAM","State":"Andhrapradesh","Pincode":"530003"},{"InsuranceCompanyName":"ADITYA BIRLA HEALTH INSURANCE COMPANY LTD","HospitalName":"M.M HOSPITAL","Address":"D NO : 21/626, SALT FEET ROAD, YSR DISTRICT, KADAPA, AP,,,516001","City":"CUDDAPAH","State":"Andhrapradesh","Pincode":"516001"},{"InsuranceCompanyName":"ADITYA BIRLA HEALTH INSURANCE COMPANY LTD","HospitalName":"M.N. HOSPITAL","Address":"# 4/10 BRODIEPET 5-37-77 OPP SITICABLE,OFFICE,,522002","City":"GUNTUR","State":"Andhrapradesh","Pincode":"522002"},{"InsuranceCompanyName":"ADITYA BIRLA HEALTH INSURANCE COMPANY LTD","HospitalName":"M.P.S. MEMORIAL HOSPITAL, ONGOLE","Address":"DIBBALA ROAD NEAR R.T.C. DEPOT,PRAKASAM (DIST),,523002","City":"PRAKASAM","State":"Andhrapradesh","Pincode":"523002"},{"InsuranceCompanyName":"ADITYA BIRLA HEALTH INSURANCE COMPANY LTD","HospitalName":"M.S.HOSPITALS","Address":"18-2-263, ROAD #1, ABBANNA COLONY,,,517501","City":"CHITTOOR","State":"Andhrapradesh","Pincode":"517501"},{"InsuranceCompanyName":"ADITYA BIRLA HEALTH INSURANCE COMPANY LTD","HospitalName":"M/S BAGGU SAROJINI DEVI HOSPITALS","Address":"2-2-132,Ilisipuram West,,,,532001","City":"SRIKAKULAM","State":"Andhrapradesh","Pincode":"532001"},{"InsuranceCompanyName":"ADITYA BIRLA HEALTH INSURANCE COMPANY LTD","HospitalName":"MAANOHARI HOSPITAL","Address":"548, Tilak Road, Beside Mansa Hotel,,Reddy & Reddy Colony,,517501","City":"CHITTOOR","State":"Andhrapradesh","Pincode":"517501"},{"InsuranceCompanyName":"ADITYA BIRLA HEALTH INSURANCE COMPANY LTD","HospitalName":"MADANAPALLE HOSPITAL (P) LTD","Address":"C.T.M ROAD,MADANAPALLE,,517325","City":"CHITTOOR","State":"Andhrapradesh","Pincode":"517325"},{"InsuranceCompanyName":"ADITYA BIRLA HEALTH INSURANCE COMPANY LTD","HospitalName":"MADHUMANI NURSING HOME","Address":"# 2-444C,BALAJI COMPLEX,KURNOOL,518501","City":"KURNOOL","State":"Andhrapradesh","Pincode":"518501"},{"InsuranceCompanyName":"ADITYA BIRLA HEALTH INSURANCE COMPANY LTD","HospitalName":"MADHURI REMEDY HOSPITAL","Address":"D.NO:6-7-550,ISKON TEMPLE ROAD,NEAR ANNA RAO CIRCLE,TIRUPATI,,,517501","City":"CHITTOOR","State":"Andhrapradesh","Pincode":"517501"},{"InsuranceCompanyName":"ADITYA BIRLA HEALTH INSURANCE COMPANY LTD","HospitalName":"MADURAI NETRALAYA","Address":"16-2-280 NEAR SUNDAY MARKET GANDHINAGAR,POGATHOTA,,524001","City":"NELLORE","State":"Andhrapradesh","Pincode":"524001"},{"InsuranceCompanyName":"ADITYA BIRLA HEALTH INSURANCE COMPANY LTD","HospitalName":"MAHARAJAH'S INSTITUTE OF MEDICAL SCIENCES","Address":"#31-15,NELLIMARLA,,535217","City":"VIZIANAGARAM","State":"Andhrapradesh","Pincode":"535217"},{"InsuranceCompanyName":"ADITYA BIRLA HEALTH INSURANCE COMPANY LTD","HospitalName":"MAHATHMA GANDHI SUPER SPECIALITY HOSPITALS","Address":"DOOR NO:15-0812, PANASATHOTA, NARASARAOPET, CHILAKALURIPET ROAD,,,522601","City":"GUNTUR","State":"Andhrapradesh","Pincode":"522601"},{"InsuranceCompanyName":"ADITYA BIRLA HEALTH INSURANCE COMPANY LTD","HospitalName":"MAKKENA HOSPITALS","Address":"suryaopet,,,520002","City":"KRISHNA","State":"Andhrapradesh","Pincode":"520002"},{"InsuranceCompanyName":"ADITYA BIRLA HEALTH INSURANCE COMPANY LTD","HospitalName":"MALLIKA SPINE CENTRE","Address":"12-12-30,Beside Andhra Bank,Old Club Road,Kothapet,,,522001","City":"GUNTUR","State":"Andhrapradesh","Pincode":"522001"},{"InsuranceCompanyName":"ADITYA BIRLA HEALTH INSURANCE COMPANY LTD","HospitalName":"MANASA INSTITUTE OF GASTROENTEROLOGY","Address":"#29-8-44,CHILUKADUGURAIAH STREET,SURYARAO PET,VIJAYAWADA,,,520002","City":"KRISHNA","State":"Andhrapradesh","Pincode":"520002"},{"InsuranceCompanyName":"ADITYA BIRLA HEALTH INSURANCE COMPANY LTD","HospitalName":"MANASA MOTHER & CHILD HOSPITAL","Address":"Lambadi Donka, Near Aditya, School,,,523002","City":"PRAKASAM","State":"Andhrapradesh","Pincode":"523002"},{"InsuranceCompanyName":"ADITYA BIRLA HEALTH INSURANCE COMPANY LTD","HospitalName":"MANIPAL HOSPITAL","Address":"18-1-3,Kgh Down,Maharani Peta,Jagadamba Junction,Pincode-530002,,,530002","City":"VISHAKAPATNAM","State":"Andhrapradesh","Pincode":"530002"},{"InsuranceCompanyName":"ADITYA BIRLA HEALTH INSURANCE COMPANY LTD","HospitalName":"MANIPAL SUPER SPECIALITY HOSPITAL","Address":"15-2-9A,Gokhale Road,Pincode-530002,,,530002","City":"VISHAKAPATNAM","State":"Andhrapradesh","Pincode":"530002"},{"InsuranceCompanyName":"ADITYA BIRLA HEALTH INSURANCE COMPANY LTD","HospitalName":"MANNE PARDHASARADHI MEMORIAL HOSPITAL","Address":"#3-319/2,DIBBALA ROAD,PRAKASAM,,,523001","City":"PRAKASAM","State":"Andhrapradesh","Pincode":"523001"},{"InsuranceCompanyName":"ADITYA BIRLA HEALTH INSURANCE COMPANY LTD","HospitalName":"MANVI HOSPITALS LLP","Address":"D.No.29-12-43,\nVenkataratnam Street, 4th Line, Nakkala Road, Suryaraopet,,,520002","City":"ALWAR","State":"Andhrapradesh","Pincode":"520002"},{"InsuranceCompanyName":"ADITYA BIRLA HEALTH INSURANCE COMPANY LTD","HospitalName":"MARUTHI HOSPITAL","Address":"MAIN ROAD NELLIMARLA,,,535217","City":"VIZIANAGARAM","State":"Andhrapradesh","Pincode":"535217"},{"InsuranceCompanyName":"ADITYA BIRLA HEALTH INSURANCE COMPANY LTD","HospitalName":"MAXIVISION EYE HOSPITALS PVT LTD.","Address":"H.NO. 40-1-48, LABBIPET,,,520010","City":"KRISHNA","State":"Andhrapradesh","Pincode":"520010"},{"InsuranceCompanyName":"ADITYA BIRLA HEALTH INSURANCE COMPANY LTD","HospitalName":"MAXIVISION EYE HOSPITALS PVT LTD.","Address":"47-10-12 PAVAN PARADISE DWARAKA NAGAR,II LANE,,530016","City":"VISHAKAPATNAM","State":"Andhrapradesh","Pincode":"530016"},{"InsuranceCompanyName":"ADITYA BIRLA HEALTH INSURANCE COMPANY LTD","HospitalName":"MB MULTISPECIALTY HOSPITALS","Address":"Plot no. 15-B, Healthcity,Chinagadili, Arilova,,530040","City":"VISHAKAPATNAM","State":"Andhrapradesh","Pincode":"530040"},{"InsuranceCompanyName":"ADITYA BIRLA HEALTH INSURANCE COMPANY LTD","HospitalName":"MEDICOVER HOSPITALS","Address":"3-119 Ads Road,east godhavari,Panasapadv,,533005","City":"EAST GODAVARI","State":"Andhrapradesh","Pincode":"533005"},{"InsuranceCompanyName":"ADITYA BIRLA HEALTH INSURANCE COMPANY LTD","HospitalName":"MEDICOVER HOSPITALS","Address":"D No 51/E2-3-4, Sy No-419-B2,kallur village, Near RTC Bus Stand,,518003","City":"KURNOOL","State":"Andhrapradesh","Pincode":"518003"},{"InsuranceCompanyName":"ADITYA BIRLA HEALTH INSURANCE COMPANY LTD","HospitalName":"MEDICOVER HOSPITALS","Address":"NH-5, CHINTHAREDDY PAALEM CROSS ROAD, NELLORE,,,524003","City":"NELLORE","State":"Andhrapradesh","Pincode":"524003"},{"InsuranceCompanyName":"ADITYA BIRLA HEALTH INSURANCE COMPANY LTD","HospitalName":"MEDICOVER HOSPITALS ( A UNIT OF SAHRUDAYA SRIKAKULAM HEALTH CARE PRIVATE LIMITED)-SRIKAKULAM","Address":"Door No. 16-12-166, 167 Survey No : 73/3 to 16, Byravanipeta JN,New Bridge Road,PN Colony,,532005","City":"SRIKAKULAM","State":"Andhrapradesh","Pincode":"532005"},{"InsuranceCompanyName":"ADITYA BIRLA HEALTH INSURANCE COMPANY LTD","HospitalName":"MEDICOVER HOSPITALS UNIT III(A UNIT OF SAHRUDAYA HEALTHCARE PVT LTD)","Address":"NO:27;PLOT NO 5,HEALTH CITY,CHINNAGADHILI,ARILOVA,,,530002","City":"VISHAKAPATNAM","State":"Andhrapradesh","Pincode":"530002"},{"InsuranceCompanyName":"ADITYA BIRLA HEALTH INSURANCE COMPANY LTD","HospitalName":"MEDICOVER HOSPITALS(A UNIT OF SAHRUDAYA HEALTHCARE PVT LTD)","Address":"DO.NO:1-1-83, Venkojipalem,,,530017","City":"VISHAKAPATNAM","State":"Andhrapradesh","Pincode":"530017"},{"InsuranceCompanyName":"ADITYA BIRLA HEALTH INSURANCE COMPANY LTD","HospitalName":"MEDICOVER HOSPITALS(A UNIT OF SAHRUDAYA HEALTHCARE PVT LTD)","Address":"18-1-3, KGH DOWN, MAHARANI PETA, JAGADAMBA JUNCTION,,,,530002","City":"VISHAKAPATNAM","State":"Andhrapradesh","Pincode":"530002"},{"InsuranceCompanyName":"ADITYA BIRLA HEALTH INSURANCE COMPANY LTD","HospitalName":"MEDIGO MULTI SPEICIALITY HOSPITAL (A UNIT OF ANJANADRI MULTISPECIALITY HOSPITAL PRIVATELIMITED)","Address":"#D.No.22-4-50/1, Reddy Gunta,Revenue Ward No.22, Karakambadi Road,,,,517501","City":"CHITTOOR","State":"Andhrapradesh","Pincode":"517501"},{"InsuranceCompanyName":"ADITYA BIRLA HEALTH INSURANCE COMPANY LTD","HospitalName":"MEENAKSHI EYE HOSPITAL","Address":"MOHANBAGH APARTMENTS, DORNAKAL ROAD, SURYARAOPET,DORNAKAL ROAD,,520002","City":"KRISHNA","State":"Andhrapradesh","Pincode":"520002"},{"InsuranceCompanyName":"ADITYA BIRLA HEALTH INSURANCE COMPANY LTD","HospitalName":"MEGHANA STAR HOSPITAL","Address":"CHRISTIAN PET 2ND LANE,KAVALI,,524201","City":"NELLORE","State":"Andhrapradesh","Pincode":"524201"},{"InsuranceCompanyName":"ADITYA BIRLA HEALTH INSURANCE COMPANY LTD","HospitalName":"METRO SUPER SPECIALITY HOSPITAL","Address":"#29-14-32 NAKKAL ROAD CROSS JUNCTION,PRAKASAM RD SURYARAOPET KRISHNA,,520002","City":"KRISHNA","State":"Andhrapradesh","Pincode":"520002"},{"InsuranceCompanyName":"ADITYA BIRLA HEALTH INSURANCE COMPANY LTD","HospitalName":"MODERN EYE HOSPITAL & RESEARCH CENTRE","Address":"#50 760 A 127 2 A CP R MANSION BEHIND,SATYANARAYANA SWAMY,,518002","City":"KURNOOL","State":"Andhrapradesh","Pincode":"518002"},{"InsuranceCompanyName":"ADITYA BIRLA HEALTH INSURANCE COMPANY LTD","HospitalName":"MODERN EYE HOSPITAL & RESEARCH CENTRE","Address":"#16-11-101, POGATHOTA,NELLORE,,,524001","City":"NELLORE","State":"Andhrapradesh","Pincode":"524001"},{"InsuranceCompanyName":"ADITYA BIRLA HEALTH INSURANCE COMPANY LTD","HospitalName":"MODERN EYE HOSPITAL & RESEARCH CENTRE","Address":"#7/13/1, LAWYERPAT, EXTENTION 5TH LANE, OPP DR. BETHUNE NURSING HOME,,,523002","City":"PRAKASAM","State":"Andhrapradesh","Pincode":"523002"},{"InsuranceCompanyName":"ADITYA BIRLA HEALTH INSURANCE COMPANY LTD","HospitalName":"MODERN RETINA CENTRE","Address":"#29-27-5,KALESWARA RAO ROAD,,520002","City":"KRISHNA","State":"Andhrapradesh","Pincode":"520002"},{"InsuranceCompanyName":"ADITYA BIRLA HEALTH INSURANCE COMPANY LTD","HospitalName":"MOTHER HOSPITAL","Address":"6-2-145, Opp. Bhavani Nagar, Anjaneya Tample, Bhavani Nagar,,,517501","City":"CHITTOOR","State":"Andhrapradesh","Pincode":"517501"},{"InsuranceCompanyName":"ADITYA BIRLA HEALTH INSURANCE COMPANY LTD","HospitalName":"MOTHER TERESA HOSPITAL","Address":"Opp. R & B - Bunglow, Maaykaavari Street, Near Bus & Railway Station,,,522265","City":"REPALLE","State":"Andhrapradesh","Pincode":"522265"},{"InsuranceCompanyName":"ADITYA BIRLA HEALTH INSURANCE COMPANY LTD","HospitalName":"MOTHER THERESA MULTI SPECIALITY HOSPITAL","Address":"#5-1-17, PALNADU ROAD,,GUNTUR,522601","City":"GUNTUR","State":"Andhrapradesh","Pincode":"522601"},{"InsuranceCompanyName":"ADITYA BIRLA HEALTH INSURANCE COMPANY LTD","HospitalName":"MRUDULA HOSPITAL","Address":"1/102, George Reddy Street, Yerramukkapalli,,,516004","City":"CUDDAPAH","State":"Andhrapradesh","Pincode":"516004"},{"InsuranceCompanyName":"ADITYA BIRLA HEALTH INSURANCE COMPANY LTD","HospitalName":"MUPPA ROSAIAH HOSPITAL","Address":"19-1-53, NEAR PANCHAYATH RAJ OFFICE,KANDUKUR,,523105","City":"PRAKASAM","State":"Andhrapradesh","Pincode":"523105"},{"InsuranceCompanyName":"ADITYA BIRLA HEALTH INSURANCE COMPANY LTD","HospitalName":"MUVVA GOPALA HOSPITALS PVT LTD","Address":"18-1-10 JIDDUVARI STREET.KOTA JN.,VIZIANANGARAM,,535002","City":"VIZIANAGARAM","State":"Andhrapradesh","Pincode":"535002"},{"InsuranceCompanyName":"ADITYA BIRLA HEALTH INSURANCE COMPANY LTD","HospitalName":"MVS ACCIDENT HOSPITAL","Address":"SURYARAOPET,,,520002","City":"KRISHNA","State":"Andhrapradesh","Pincode":"520002"},{"InsuranceCompanyName":"ADITYA BIRLA HEALTH INSURANCE COMPANY LTD","HospitalName":"MYTHREE SUPER SPECIALITY HOSPITAL","Address":"D.NO:6-7-34/1,NEHR ROAD,OPP,HDFC BANK,TENALI-522201 GUNTUR,ANDHRAPRADESH,,,522201","City":"GUNTUR","State":"Andhrapradesh","Pincode":"522201"},{"InsuranceCompanyName":"ADITYA BIRLA HEALTH INSURANCE COMPANY LTD","HospitalName":"MYTHRI HOSPITAL","Address":"15/721,MUNIRATHNAM TRANSPORT,KAMALANAGAR,515001","City":"ANANTAPUR","State":"Andhrapradesh","Pincode":"515001"},{"InsuranceCompanyName":"ADITYA BIRLA HEALTH INSURANCE COMPANY LTD","HospitalName":"MYTHRI MULTI SPECIALITY HOSPITAL","Address":"D.NO:59-1-135,itukabattila street,Old Guntur,,522001","City":"GUNTUR","State":"Andhrapradesh","Pincode":"522001"},{"InsuranceCompanyName":"ADITYA BIRLA HEALTH INSURANCE COMPANY LTD","HospitalName":"MYTHRI NURSING HOME","Address":"16-1-4 K.G.H. BEACH,ROADVISHAKAPATNAM,,530002","City":"VISHAKAPATNAM","State":"Andhrapradesh","Pincode":"530002"},{"InsuranceCompanyName":"ADITYA BIRLA HEALTH INSURANCE COMPANY LTD","HospitalName":"NAGARJUNA EYE HOSPITAL","Address":"STATE BANK OF INDIA LANE, SATTENA PALLI, GUNTUR DISTRICT,,,522403","City":"GUNTUR","State":"Andhrapradesh","Pincode":"522403"},{"InsuranceCompanyName":"ADITYA BIRLA HEALTH INSURANCE COMPANY LTD","HospitalName":"NAGARJUNA HOSPITALS LTD","Address":"DOOR NO 8-102,KANURU,,520007","City":"KRISHNA","State":"Andhrapradesh","Pincode":"520007"},{"InsuranceCompanyName":"ADITYA BIRLA HEALTH INSURANCE COMPANY LTD","HospitalName":"NALLURI NURSING HOME","Address":"KOTHAPATNAM ROAD,ADRESSSS 1,,523001","City":"PRAKASAM","State":"Andhrapradesh","Pincode":"523001"},{"InsuranceCompanyName":"ADITYA BIRLA HEALTH INSURANCE COMPANY LTD","HospitalName":"NANDAN HOSPITALS","Address":"29-28/1-56, KOVELAMUDIVARI STREET , NEAR PUSHPA HOTEL, CENTRE, SURYARAOPETA, VIJAYWADA, ANDHRA PRADESH,,,520002","City":"KRISHNA","State":"Andhrapradesh","Pincode":"520002"},{"InsuranceCompanyName":"ADITYA BIRLA HEALTH INSURANCE COMPANY LTD","HospitalName":"NANDYAL CRITICAL CARE CENTER","Address":"25-684-14-A,NEAR RYTHU BAZAR,TTD ROAD,KURNOOL DISTRICT,,,518501","City":"KURNOOL","State":"Andhrapradesh","Pincode":"518501"},{"InsuranceCompanyName":"ADITYA BIRLA HEALTH INSURANCE COMPANY LTD","HospitalName":"NARAYANA GENERAL HOSPTIAL & NARAYANA SUPER SPECIALITY HOSPITAL","Address":"CHITHAREDDY PALEM,ADRESSSS 1,,524002","City":"NELLORE","State":"Andhrapradesh","Pincode":"524002"},{"InsuranceCompanyName":"ADITYA BIRLA HEALTH INSURANCE COMPANY LTD","HospitalName":"NARAYANA REDDY  SUPERSPECIALITY EYE HOSPITAL","Address":"NO.1-102,CANAL ROAD,ANAPARTHI,533342","City":"EAST GODAVARI","State":"Andhrapradesh","Pincode":"533342"},{"InsuranceCompanyName":"ADITYA BIRLA HEALTH INSURANCE COMPANY LTD","HospitalName":"NARAYANA SUPERSPECIALITY HOSPITAL","Address":"D.NO 12-12-93 OLD CLUB ROAD KOTHAPET GUNTUR,GUNTUR,,522001","City":"GUNTUR","State":"Andhrapradesh","Pincode":"522001"},{"InsuranceCompanyName":"ADITYA BIRLA HEALTH INSURANCE COMPANY LTD","HospitalName":"NARENDRA HOSPITAL","Address":"NO:6-7-573/AN,SRIPURAM COLONY,CHITTOOR,,,517501","City":"CHITTOOR","State":"Andhrapradesh","Pincode":"517501"},{"InsuranceCompanyName":"ADITYA BIRLA HEALTH INSURANCE COMPANY LTD","HospitalName":"NARMADA NURSING HOME","Address":"21/125-15B BYE PASS,ROADNANDYAL,,518501","City":"KURNOOL","State":"Andhrapradesh","Pincode":"518501"},{"InsuranceCompanyName":"ADITYA BIRLA HEALTH INSURANCE COMPANY LTD","HospitalName":"NAVYA GREEN HILLS HOSPITAL","Address":"#18-332,\nR.L.Puram, BRTS Road, Chinagadili,,,,530040","City":"ALWAR","State":"Andhrapradesh","Pincode":"530040"},{"InsuranceCompanyName":"ADITYA BIRLA HEALTH INSURANCE COMPANY LTD","HospitalName":"NAVYA NETHRALAYA","Address":"D.NO.2-2-349, K.V LAYOUT,,,CHITTOOR DISTRICT,517507","City":"CHITTOOR","State":"Andhrapradesh","Pincode":"517507"},{"InsuranceCompanyName":"ADITYA BIRLA HEALTH INSURANCE COMPANY LTD","HospitalName":"NAYANA EYE CARE","Address":"D.NO.2-1-50 SRINAGAR BHANUGUDI JUNCTION,EG DIST,,533003","City":"EAST GODAVARI","State":"Andhrapradesh","Pincode":"533003"},{"InsuranceCompanyName":"ADITYA BIRLA HEALTH INSURANCE COMPANY LTD","HospitalName":"NAYANA EYE CARE AND DENTAL RESEARCH CENTRE","Address":"DOOR NO : 25/684-391-1A, PADMAVATHI NAGAR, NANDYAL KURNOOL ANDHRA PRADESH,,,518501","City":"KURNOOL","State":"Andhrapradesh","Pincode":"518501"},{"InsuranceCompanyName":"ADITYA BIRLA HEALTH INSURANCE COMPANY LTD","HospitalName":"NEELA JEAR HOSPITAL","Address":"44-22-5,RAJAHMUNDRY, EST GODAVARI DIST.,,,533103","City":"EAST GODAVARI","State":"Andhrapradesh","Pincode":"533103"},{"InsuranceCompanyName":"ADITYA BIRLA HEALTH INSURANCE COMPANY LTD","HospitalName":"NEELIMA MATERNITY NURSING HOME","Address":"#D.No.18-2-246, Road, No.01, Abbanna Colony,,,517501","City":"CHITTOOR","State":"Andhrapradesh","Pincode":"517501"},{"InsuranceCompanyName":"ADITYA BIRLA HEALTH INSURANCE COMPANY LTD","HospitalName":"NEPHROPLUS DIALYSIS CENTER - K.T. NAGAR","Address":"Manasa Kidney Foundation,K. T. Road,,,517501","City":"CHITTOOR","State":"Andhrapradesh","Pincode":"517501"},{"InsuranceCompanyName":"ADITYA BIRLA HEALTH INSURANCE COMPANY LTD","HospitalName":"NEPHROPLUS DIALYSIS CENTER - KURNOOL","Address":"Gowri Gopal Hospital, H.no – 46-87,Budhawarpeta,,,518002","City":"KURNOOL","State":"Andhrapradesh","Pincode":"518002"},{"InsuranceCompanyName":"ADITYA BIRLA HEALTH INSURANCE COMPANY LTD","HospitalName":"NEPHROPLUS DIALYSIS CENTER - MARUTI NAGAR","Address":"DBR & SK Super Speciality Hospital, 4th Floor, Door No: 20-7-37,TMC Music Center Road,Maruthi Nagar, Korlagunta,,,517001","City":"CHITTOOR","State":"Andhrapradesh","Pincode":"517001"},{"InsuranceCompanyName":"ADITYA BIRLA HEALTH INSURANCE COMPANY LTD","HospitalName":"NEPHROPLUS DIALYSIS CENTER-KUPPAM, ANDHRA PRADESH","Address":"C/o. Nephroplus Dialysis center, P.E.S. Institute of Medical Sciences and Research, National Highway 219,Kuppam ,Chittoor,Andhar Pradesh - 517425,,,517425","City":"ALWAR","State":"Andhrapradesh","Pincode":"517425"},{"InsuranceCompanyName":"ADITYA BIRLA HEALTH INSURANCE COMPANY LTD","HospitalName":"NERAVATI HOSPITAL","Address":"HNO 1-184A,GANDHI CHOWK,NANDYAL,518501","City":"KURNOOL","State":"Andhrapradesh","Pincode":"518501"},{"InsuranceCompanyName":"ADITYA BIRLA HEALTH INSURANCE COMPANY LTD","HospitalName":"NEST NEW BORN HOSPITAL","Address":"46-12-12,Opp Sagar Hospital,Danavaipet,East Godavari,Pincode-533103,,,533103","City":"EAST GODAVARI","State":"Andhrapradesh","Pincode":"533103"},{"InsuranceCompanyName":"ADITYA BIRLA HEALTH INSURANCE COMPANY LTD","HospitalName":"NEUROSTAR MULTISPECILITY HOSPITAL","Address":"# 67-19-1 OPP ASHRAM SCHOOL NAGAMALLITHOTA JUNCTION KAKINADA 533003,,,533003","City":"EAST GODAVARI","State":"Andhrapradesh","Pincode":"533003"},{"InsuranceCompanyName":"ADITYA BIRLA HEALTH INSURANCE COMPANY LTD","HospitalName":"NEW LIFE HOSPITAL","Address":"Beside RTC Stand,Delux Road,,534260","City":"PALAKOLLU","State":"Andhrapradesh","Pincode":"534260"},{"InsuranceCompanyName":"ADITYA BIRLA HEALTH INSURANCE COMPANY LTD","HospitalName":"NEW LONDON HOSPITALS","Address":"R H Road, Near Sunday Market, Bhimavaram, West Godavari District,,,534201","City":"ALWAR","State":"Andhrapradesh","Pincode":"534201"},{"InsuranceCompanyName":"ADITYA BIRLA HEALTH INSURANCE COMPANY LTD","HospitalName":"NIKITHA HOSPITAL","Address":"54-13-6, SEETHAMMADHARA JUNCTION,,VISAKHAPATNAM,530013","City":"VISHAKAPATNAM","State":"Andhrapradesh","Pincode":"530013"},{"InsuranceCompanyName":"ADITYA BIRLA HEALTH INSURANCE COMPANY LTD","HospitalName":"NIRANJAN ENT HOSPITAL","Address":"60FT ROAD,ONGOLE,PRAKASAM,,,523002","City":"PRAKASAM","State":"Andhrapradesh","Pincode":"523002"},{"InsuranceCompanyName":"ADITYA BIRLA HEALTH INSURANCE COMPANY LTD","HospitalName":"NISA HOSPITAL","Address":"#D.No.21-4-29, Old Police\nStation Street,,,,534211","City":"ALWAR","State":"Andhrapradesh","Pincode":"534211"},{"InsuranceCompanyName":"ADITYA BIRLA HEALTH INSURANCE COMPANY LTD","HospitalName":"NOBLE MULTI SPECIALITY HOSPITAL","Address":"#43-194-2A,OPP. MUNCIPAL OFFICE, 7TH LANE, N.R. PETA,,ADRESSSS 1,,518005","City":"KURNOOL","State":"Andhrapradesh","Pincode":"518005"},{"InsuranceCompanyName":"ADITYA BIRLA HEALTH INSURANCE COMPANY LTD","HospitalName":"NORI MEDICARE PRIVATE LIMITED","Address":"N.R.R ROAD,GANDHINAGAR,,520003","City":"KRISHNA","State":"Andhrapradesh","Pincode":"520003"},{"InsuranceCompanyName":"ADITYA BIRLA HEALTH INSURANCE COMPANY LTD","HospitalName":"NRI ACADEMY OF SCIENCES","Address":"CHINAKAKANI,MANGALAGIRI MANDAL. DISTRICT,,522503","City":"GUNTUR","State":"Andhrapradesh","Pincode":"522503"},{"InsuranceCompanyName":"ADITYA BIRLA HEALTH INSURANCE COMPANY LTD","HospitalName":"NUHA HOSPITALS","Address":"#D.No.12-19-61&62,Old Bank Road, Nawazish Rabbani, Kothapet,Old Guntur,,522001","City":"GUNTUR","State":"Andhrapradesh","Pincode":"522001"},{"InsuranceCompanyName":"ADITYA BIRLA HEALTH INSURANCE COMPANY LTD","HospitalName":"OM HOSPITAL","Address":"18-1-667 (OLD) 544 (NEW) BHAVANI NAGAR, NEAR DEVENDRA THEATRE CHITTOR,,,517501","City":"CHITTOOR","State":"Andhrapradesh","Pincode":"517501"},{"InsuranceCompanyName":"ADITYA BIRLA HEALTH INSURANCE COMPANY LTD","HospitalName":"OMEGA HOSPITAL(A UNIT OF GUNTUR INSTITUTE OF ONCOLOGY PVT LTD)","Address":"D. No. 55-1-11, Meher Nagar, Behind Meher Baba Temple, Autonagar,,,522001","City":"GUNTUR","State":"Andhrapradesh","Pincode":"522001"},{"InsuranceCompanyName":"ADITYA BIRLA HEALTH INSURANCE COMPANY LTD","HospitalName":"OMEGA HOSPITALS(KURNOOL INSTITUTE OF ONCOLOGY PVT LTD)","Address":"PLOT NO-178 & 173,JUDICAL COLONY,,,518003","City":"KURNOOL","State":"Andhrapradesh","Pincode":"518003"},{"InsuranceCompanyName":"ADITYA BIRLA HEALTH INSURANCE COMPANY LTD","HospitalName":"OMNI HOSPITAL (A UNIT OF INCOR PADMACHANDRA HOSPITALS PVT. LTD.)","Address":"46-93-35-1, Budhawar Peta,,,518001","City":"KURNOOL","State":"Andhrapradesh","Pincode":"518001"},{"InsuranceCompanyName":"ADITYA BIRLA HEALTH INSURANCE COMPANY LTD","HospitalName":"ORANGE MEDICAL AND HEALTH PRIVATE LIMITED","Address":"# 10-12-410, TILAK ROAD, OPP. SRIDEVI COMPLEX,,,517501","City":"CHITTOOR","State":"Andhrapradesh","Pincode":"517501"},{"InsuranceCompanyName":"ADITYA BIRLA HEALTH INSURANCE COMPANY LTD","HospitalName":"P.E.S. INSTITUTE OF MEDICAL SCIENCES & RESEARCH HOSPITAL","Address":"Chittoor District, National Highway 219, Kuppam,,,517425","City":"CHITTOOR","State":"Andhrapradesh","Pincode":"517425"},{"InsuranceCompanyName":"ADITYA BIRLA HEALTH INSURANCE COMPANY LTD","HospitalName":"PADMA CHANDRA KIDNEY CENTRE SUPER SPECIALITY HOSPITAL","Address":"NALANDA COMPLEX,BESIDE HOTEL RAJ VIHAR,,518001","City":"KURNOOL","State":"Andhrapradesh","Pincode":"518001"},{"InsuranceCompanyName":"ADITYA BIRLA HEALTH INSURANCE COMPANY LTD","HospitalName":"PADMAJA HOSPITAL","Address":"OLD JUNCTION,VISAKHAPATNAM,,530026","City":"VISHAKAPATNAM","State":"Andhrapradesh","Pincode":"530026"},{"InsuranceCompanyName":"ADITYA BIRLA HEALTH INSURANCE COMPANY LTD","HospitalName":"PADMASRI HOSPITAL","Address":"# 49-48-16/5 NGGO'S COLONY HIGHWAY,VISAKHAPATNAM,,530016","City":"VISHAKAPATNAM","State":"Andhrapradesh","Pincode":"530016"},{"InsuranceCompanyName":"ADITYA BIRLA HEALTH INSURANCE COMPANY LTD","HospitalName":"PADMAVATHI HOSPITAL","Address":"D NO: 6-2-411, SUMITRA NAGAR, SIDDAVATAM ROAD, BADVEL, KADAPA, A P -516227,,,516227","City":"CUDDAPAH","State":"Andhrapradesh","Pincode":"516227"},{"InsuranceCompanyName":"ADITYA BIRLA HEALTH INSURANCE COMPANY LTD","HospitalName":"PADMAVATHI HOSPITAL","Address":"15/285, Opp. Babu Ice Cream Road, Brundavanam, Naidu Peta,,,524001","City":"NELLORE","State":"Andhrapradesh","Pincode":"524001"},{"InsuranceCompanyName":"ADITYA BIRLA HEALTH INSURANCE COMPANY LTD","HospitalName":"PADMAVATHI HOSPITALS","Address":"#10/145,RAJENDRA NAGAV(MAIN LINE),,521301","City":"KRISHNA","State":"Andhrapradesh","Pincode":"521301"},{"InsuranceCompanyName":"ADITYA BIRLA HEALTH INSURANCE COMPANY LTD","HospitalName":"PADMAVATHI NURSING HOME","Address":"BESIDE RAJADHANI HOTEL,SANTHAPET.ONGLE,,523001","City":"PRAKASAM","State":"Andhrapradesh","Pincode":"523001"},{"InsuranceCompanyName":"ADITYA BIRLA HEALTH INSURANCE COMPANY LTD","HospitalName":"PALLA HOSPITALS","Address":"Dno:- 21/32.33.35.36 RS Road,7 Roads Circle,,516001","City":"CUDDAPAH","State":"Andhrapradesh","Pincode":"516001"},{"InsuranceCompanyName":"ADITYA BIRLA HEALTH INSURANCE COMPANY LTD","HospitalName":"PALLA KRISHNAIAH MEMORIAL NURSING HOME","Address":"CHRISTIAN LINE,OPP POLICE LINE GATE,,516001","City":"CUDDAPAH","State":"Andhrapradesh","Pincode":"516001"},{"InsuranceCompanyName":"ADITYA BIRLA HEALTH INSURANCE COMPANY LTD","HospitalName":"PALLAVI HOSPITAL","Address":"NO.15-2-8A,GOKHALE ROAD,MAHARANIPETA,530002","City":"VISHAKAPATNAM","State":"Andhrapradesh","Pincode":"530002"},{"InsuranceCompanyName":"ADITYA BIRLA HEALTH INSURANCE COMPANY LTD","HospitalName":"PALNADU HOSPITAL","Address":"No 7-234 Main Road, Pidguralla,PIDGURALLA,,522413","City":"GUNTUR","State":"Andhrapradesh","Pincode":"522413"},{"InsuranceCompanyName":"ADITYA BIRLA HEALTH INSURANCE COMPANY LTD","HospitalName":"PANDU CHILDREN & MULTISPECIALITY HOSPITAL","Address":"Petro Bunk Road Beside RTC Depot,,,523002","City":"PRAKASAM","State":"Andhrapradesh","Pincode":"523002"},{"InsuranceCompanyName":"ADITYA BIRLA HEALTH INSURANCE COMPANY LTD","HospitalName":"PANDURANGA PRAJA VYDYASALA.","Address":"Dr. No.2-17-29, R.S Peta,,,533401","City":"ALWAR","State":"Andhrapradesh","Pincode":"533401"},{"InsuranceCompanyName":"ADITYA BIRLA HEALTH INSURANCE COMPANY LTD","HospitalName":"PARAMAHANSA YOGANANDA NETRALAYA","Address":"No. Vemgiri, Kadiyam Road, Rajahmundry,,,533125","City":"EAST GODAVARI","State":"Andhrapradesh","Pincode":"533125"},{"InsuranceCompanyName":"ADITYA BIRLA HEALTH INSURANCE COMPANY LTD","HospitalName":"PASUPULETI NURSING HOME","Address":"4-370,INFRONT #PGAS,NEAR RAVI GROUP THEATRE KADAPA,,,516001","City":"CUDDAPAH","State":"Andhrapradesh","Pincode":"516001"},{"InsuranceCompanyName":"ADITYA BIRLA HEALTH INSURANCE COMPANY LTD","HospitalName":"PAVAN EYE HOSPITAL","Address":"Venkateswara, Complex,Ring Road, Opp. More Super Market,,535002","City":"VIZIANAGARAM","State":"Andhrapradesh","Pincode":"535002"},{"InsuranceCompanyName":"ADITYA BIRLA HEALTH INSURANCE COMPANY LTD","HospitalName":"PAVAN SAI HOSPITAL","Address":"30-21-3/4, VADLAPUDI 87TH WARD,JAGUVAKA VISAKHAPATANAM,,530046","City":"VISHAKAPATNAM","State":"Andhrapradesh","Pincode":"530046"},{"InsuranceCompanyName":"ADITYA BIRLA HEALTH INSURANCE COMPANY LTD","HospitalName":"PAVANI MULTISPECIALITY HOSPITAL","Address":"SAI NAGAR , ANANTAPUR,,,515001","City":"ANANTAPUR","State":"Andhrapradesh","Pincode":"515001"},{"InsuranceCompanyName":"ADITYA BIRLA HEALTH INSURANCE COMPANY LTD","HospitalName":"PEOPLES CLINIC","Address":"PALAPARTHIVARI STREET,GOVERNORPET,,520002","City":"KRISHNA","State":"Andhrapradesh","Pincode":"520002"},{"InsuranceCompanyName":"ADITYA BIRLA HEALTH INSURANCE COMPANY LTD","HospitalName":"PEOPLES TRUMA AND EMERGENCY HOSPITAL","Address":"D. NO 13.04.78 KOTHAPET GUNTUR,,,522001","City":"GUNTUR","State":"Andhrapradesh","Pincode":"522001"},{"InsuranceCompanyName":"ADITYA BIRLA HEALTH INSURANCE COMPANY LTD","HospitalName":"PG STAR HOSPITAL","Address":"RANGALA STREET, RAMANAIDU ROAD, VIZIANAGARAM , VIZIANAGARAM CIT,,,535001","City":"VIZIANAGARAM","State":"Andhrapradesh","Pincode":"535001"},{"InsuranceCompanyName":"ADITYA BIRLA HEALTH INSURANCE COMPANY LTD","HospitalName":"PINNACLE HOSPITALS INDIA PVT. LTD.","Address":"Plot No.10, 11 & 12, Apiic Health City, Parvati Nagar, Arilova,,,530040","City":"VISHAKAPATNAM","State":"Andhrapradesh","Pincode":"530040"},{"InsuranceCompanyName":"ADITYA BIRLA HEALTH INSURANCE COMPANY LTD","HospitalName":"PINNAMANENI CARE HOSPITAL","Address":"60-9-10 SIDDARTHA NAGAR.PINNAMANENI,POLY CLINIC ROAD,,520010","City":"KRISHNA","State":"Andhrapradesh","Pincode":"520010"},{"InsuranceCompanyName":"ADITYA BIRLA HEALTH INSURANCE COMPANY LTD","HospitalName":"POSITIVE PULSE HOSPITALS","Address":"OPP: EENADU: BENZ CIRCLE,KRISHNA,,520010","City":"KRISHNA","State":"Andhrapradesh","Pincode":"520010"},{"InsuranceCompanyName":"ADITYA BIRLA HEALTH INSURANCE COMPANY LTD","HospitalName":"PRABHA CLINIC & NURSING HOME","Address":"29-2-36 JAIL ROAD OPP:DIST COURT,VISAKHAPATNAM,,530020","City":"VISHAKAPATNAM","State":"Andhrapradesh","Pincode":"530020"},{"InsuranceCompanyName":"ADITYA BIRLA HEALTH INSURANCE COMPANY LTD","HospitalName":"PRABHAKAR HOSPITAL","Address":"#Kothapeta\nMandapam,,,535002","City":"ALWAR","State":"Andhrapradesh","Pincode":"535002"},{"InsuranceCompanyName":"ADITYA BIRLA HEALTH INSURANCE COMPANY LTD","HospitalName":"PRAGATHI NURSING HOME","Address":"PRAGATHI MARELLAVARI MA RELLAVARI,STREET POLICE STATION ROAD CHIKALURIPET,,522616","City":"GUNTUR","State":"Andhrapradesh","Pincode":"522616"},{"InsuranceCompanyName":"ADITYA BIRLA HEALTH INSURANCE COMPANY LTD","HospitalName":"PRAGATI SUPERSPECIALITY HOSPITAL","Address":"75-6-18 PRAKASH NAGAR MAIN ROAD,RAJAHMUNDRY,,533103","City":"EAST GODAVARI","State":"Andhrapradesh","Pincode":"533103"},{"InsuranceCompanyName":"ADITYA BIRLA HEALTH INSURANCE COMPANY LTD","HospitalName":"PRAJA VYDYASALA MULTI SPECIALITY HOSPITAL","Address":"GUJJA NAGUNDLA,,,522006","City":"GUNTUR","State":"Andhrapradesh","Pincode":"522006"},{"InsuranceCompanyName":"ADITYA BIRLA HEALTH INSURANCE COMPANY LTD","HospitalName":"PRAKASAM SUPER SPECIALITY HOSPITAL","Address":"Near RTC Bus Stand, Onglole,,,523001","City":"PRAKASAM","State":"Andhrapradesh","Pincode":"523001"},{"InsuranceCompanyName":"ADITYA BIRLA HEALTH INSURANCE COMPANY LTD","HospitalName":"PRAMEELA HOSPITAL","Address":"10-3-206,K.K. Street,Chittoor,Pincode-517501,,,517501","City":"CHITTOOR","State":"Andhrapradesh","Pincode":"517501"},{"InsuranceCompanyName":"ADITYA BIRLA HEALTH INSURANCE COMPANY LTD","HospitalName":"PRASAD MULTISPECIALITY HOSPITAL","Address":"D. No. 15-15-5 Nuthi Radha Krishna ST Chittoor,,,517325","City":"MADANAPALLE","State":"Andhrapradesh","Pincode":"517325"},{"InsuranceCompanyName":"ADITYA BIRLA HEALTH INSURANCE COMPANY LTD","HospitalName":"PRAVEEN CARDIAC CENTRE","Address":"33-25-35/C BELLAPU SHOBHA NADRI STREET,KASTURIBAIPET,,520010","City":"KRISHNA","State":"Andhrapradesh","Pincode":"520010"},{"InsuranceCompanyName":"ADITYA BIRLA HEALTH INSURANCE COMPANY LTD","HospitalName":"PRIME HOSPITAL","Address":"BESIDE SBI BANK STREET,,,516004","City":"KAKINADA","State":"Andhrapradesh","Pincode":"516004"},{"InsuranceCompanyName":"ADITYA BIRLA HEALTH INSURANCE COMPANY LTD","HospitalName":"PURNA HEART INSTITUTE","Address":"#29-28/1-17 KOVELAMUDIVARI STREET,SURYARAO PET,,520002","City":"KRISHNA","State":"Andhrapradesh","Pincode":"520002"},{"InsuranceCompanyName":"ADITYA BIRLA HEALTH INSURANCE COMPANY LTD","HospitalName":"PUSHPAGIRI VITREO RETINA INSTITUTE","Address":"SY.NO. 521, BESIDE TTD KALYANAMANDAPAM, ALAKNAGAR, AYODYA ROAD,,,535002","City":"VIZIANAGARAM","State":"Andhrapradesh","Pincode":"535002"},{"InsuranceCompanyName":"ADITYA BIRLA HEALTH INSURANCE COMPANY LTD","HospitalName":"PUVVADA HOSPITALS","Address":"5-1-1, PALANADU ROAD, NARASARAOPET, ANDHRA PRADESH,,,522601","City":"GUNTUR","State":"Andhrapradesh","Pincode":"522601"},{"InsuranceCompanyName":"ADITYA BIRLA HEALTH INSURANCE COMPANY LTD","HospitalName":"PVS HOSPITAL","Address":"4-1-180, Sriram Nagar,,,524126","City":"NAIDUPET","State":"Andhrapradesh","Pincode":"524126"},{"InsuranceCompanyName":"ADITYA BIRLA HEALTH INSURANCE COMPANY LTD","HospitalName":"Q1 HOSPITALS (A UNIT OF Q1 BONE & JOINT HOSPITAL)","Address":"PLOT NO: 13A & 13B,ARILOVA, HEALTH CITY,VISAKHAPATNAM,,530040","City":"VISHAKAPATNAM","State":"Andhrapradesh","Pincode":"530040"},{"InsuranceCompanyName":"ADITYA BIRLA HEALTH INSURANCE COMPANY LTD","HospitalName":"QUEENS NRI HOSPITAL ( ASSCIATED WITH VIJAYANAGAR HOSPITALS PVT. LTD. )","Address":"Opp. SBI Main Branch, MG Road,Srinivasa Nagar, Near NCS Theatre,,535001","City":"VIZIANAGARAM","State":"Andhrapradesh","Pincode":"535001"},{"InsuranceCompanyName":"ADITYA BIRLA HEALTH INSURANCE COMPANY LTD","HospitalName":"R.K. EYE CENTRE","Address":"OPP ANNA SRISRINIVASA RAO KALYANA,MANTAPAM KOTHAPET,,522001","City":"GUNTUR","State":"Andhrapradesh","Pincode":"522001"},{"InsuranceCompanyName":"ADITYA BIRLA HEALTH INSURANCE COMPANY LTD","HospitalName":"R.K.EYE CARE CENTRE","Address":"15/68 BRINDAVANAM BESIDES TIKKANA,TELEPHONE BHAVAN,,524001","City":"NELLORE","State":"Andhrapradesh","Pincode":"524001"},{"InsuranceCompanyName":"ADITYA BIRLA HEALTH INSURANCE COMPANY LTD","HospitalName":"R.R. HOSPITAL","Address":"BHAGYANAGAR,ADRESSSS 1,,518004","City":"KURNOOL","State":"Andhrapradesh","Pincode":"518004"},{"InsuranceCompanyName":"ADITYA BIRLA HEALTH INSURANCE COMPANY LTD","HospitalName":"R.R.HOSPITAL - NANDYAL","Address":"26/615C R.S.Road Nandyal,Y.S.R.Junction,Sowjanya Hero Motors,,0,,518502","City":"KURNOOL","State":"Andhrapradesh","Pincode":"518502"},{"InsuranceCompanyName":"ADITYA BIRLA HEALTH INSURANCE COMPANY LTD","HospitalName":"R.R.SPECIALITY HOSPITAL - GUNTUR","Address":"13-3-32,3Rd Line, Gunturivari Thota,,0,,522001","City":"GUNTUR","State":"Andhrapradesh","Pincode":"522001"},{"InsuranceCompanyName":"ADITYA BIRLA HEALTH INSURANCE COMPANY LTD","HospitalName":"R.S. NEURO AND MULTISPECIALITY HOSPITALS","Address":"#46-21-10, Danavaipeta, Rajahmundry, East Godavari,,,533103","City":"ALWAR","State":"Andhrapradesh","Pincode":"533103"},{"InsuranceCompanyName":"ADITYA BIRLA HEALTH INSURANCE COMPANY LTD","HospitalName":"R.S.R.HOSPITAL","Address":"# 16-2/62,POGATHOTA,,524001","City":"NELLORE","State":"Andhrapradesh","Pincode":"524001"},{"InsuranceCompanyName":"ADITYA BIRLA HEALTH INSURANCE COMPANY LTD","HospitalName":"RADHA KRISHNA NETRALAYA","Address":"OLD BJP OFFICE ROAD,#2-1-18, JP ROAD ,BHIMAVARAM,WEST GODAVARI DISTRICT,,,534202","City":"WEST GODAVARI","State":"Andhrapradesh","Pincode":"534202"},{"InsuranceCompanyName":"ADITYA BIRLA HEALTH INSURANCE COMPANY LTD","HospitalName":"RADHAKRISHNA NURSING HOME","Address":"41413,PONDUR ROAD,RAJAM,532127","City":"SRIKAKULAM","State":"Andhrapradesh","Pincode":"532127"},{"InsuranceCompanyName":"ADITYA BIRLA HEALTH INSURANCE COMPANY LTD","HospitalName":"RAGHAVA 24 HOURS EMERGENCY HOSPITAL","Address":"41216,VET HOSPITAL ROAD,,533004","City":"EAST GODAVARI","State":"Andhrapradesh","Pincode":"533004"},{"InsuranceCompanyName":"ADITYA BIRLA HEALTH INSURANCE COMPANY LTD","HospitalName":"RAGHAVENDRA HOSPITAL","Address":"#49-54-10/2/A NEAR,PORT STADIUM NH,,530013","City":"VISHAKAPATNAM","State":"Andhrapradesh","Pincode":"530013"},{"InsuranceCompanyName":"ADITYA BIRLA HEALTH INSURANCE COMPANY LTD","HospitalName":"RAINBOW SUPER SPECIALITY HOSPITAL(A UNIT OF NELLORE HEALTH CARE & RESEARCH INSTITUTE PVT.LTD.)","Address":"Near Saibaba Temple,(Sanday Market), Sankara Agraharam,16/2/686 GANDHI NAGAR NELLORE,,524001","City":"NELLORE","State":"Andhrapradesh","Pincode":"524001"}],[],[{"InsuranceCompanyName":"ADITYA BIRLA HEALTH INSURANCE COMPANY LTD","HospitalName":"ADITYA DIAGNOSTICS & HOSPITALS (A UNIT OF DR. N. SAHEWALLA & CO PVT. LTD)","Address":"AMC ROAD,,AVENUE,786005","City":"DIBRUGARH","State":"Assam","Pincode":"786005"},{"InsuranceCompanyName":"ADITYA BIRLA HEALTH INSURANCE COMPANY LTD","HospitalName":"ADITYA DIAGNOSTICS AND HOSPITAL","Address":"Amolapatty Sivasager,,,785640","City":"SIBSAGAR","State":"Assam","Pincode":"785640"},{"InsuranceCompanyName":"ADITYA BIRLA HEALTH INSURANCE COMPANY LTD","HospitalName":"APOLLO HOSPITALS GUWAHATI, UNIT INTERNATIONAL HOSPITAL (OWNED BY ASSAM HOSPITALS LIMITED)-OLD HOSPITAL NAME INTERNATIONAL HOSPITAL (A UNIT OF ASSAM HOSPITAL LIMITED)","Address":"Lotus Tower, Christianbasti, G S Road,,,781005","City":"ALWAR","State":"Assam","Pincode":"781005"},{"InsuranceCompanyName":"ADITYA BIRLA HEALTH INSURANCE COMPANY LTD","HospitalName":"APOLLO HOSPITALS-GUWAHATI (A UNIT OF INTERNATIONAL HOSPITAL)","Address":"Lotus Tower, G.S. Road, Kamru,,,781005","City":"GUWAHATI","State":"Assam","Pincode":"781005"},{"InsuranceCompanyName":"ADITYA BIRLA HEALTH INSURANCE COMPANY LTD","HospitalName":"ARCHANA TRAUMA & ORTHOPAEDICS HOSPITAL & RESEARCH CENTRE","Address":"Dr Siba Nath Baruah Path, Paltan Bazar,,,786005","City":"ALWAR","State":"Assam","Pincode":"786005"},{"InsuranceCompanyName":"ADITYA BIRLA HEALTH INSURANCE COMPANY LTD","HospitalName":"ARUNA MEMORIAL HOSPITAL(A UNIT OF MAGNUS HEALTH CARE)","Address":"Rajgorh Bhangagarh,,,781005","City":"ALWAR","State":"Assam","Pincode":"781005"},{"InsuranceCompanyName":"ADITYA BIRLA HEALTH INSURANCE COMPANY LTD","HospitalName":"ASG HOSPITAL PVT LTD","Address":"Shubham Redstone, 1st Floor,G.S. Stone, Downtown, Guwahati,,,781006","City":"GUWAHATI","State":"Assam","Pincode":"781006"},{"InsuranceCompanyName":"ADITYA BIRLA HEALTH INSURANCE COMPANY LTD","HospitalName":"ASG HOSPITAL PVT LTD","Address":"Amaze Plaza,Md Shah Road,Paltan Bazar,,,781008","City":"GUWAHATI","State":"Assam","Pincode":"781008"},{"InsuranceCompanyName":"ADITYA BIRLA HEALTH INSURANCE COMPANY LTD","HospitalName":"AYURSUNDRA HEALTH CARE PVT LTD - GUWAHATI","Address":"Opp Dps, Ahomgaon, Gorchuk, Guwahati 781035,0,,781035","City":"GUWAHATI","State":"Assam","Pincode":"781035"},{"InsuranceCompanyName":"ADITYA BIRLA HEALTH INSURANCE COMPANY LTD","HospitalName":"BAPTIST CHRISTIAN HOSPITAL","Address":"MISSION CHARIALI 4 CORPS ARMY BATTALION.,TEZPUR,,784001","City":"SONITPUR","State":"Assam","Pincode":"784001"},{"InsuranceCompanyName":"ADITYA BIRLA HEALTH INSURANCE COMPANY LTD","HospitalName":"BARTHAKUR CLINIC PVT LTD","Address":"KARGHULI ROAD KHARGHULI,,,781028","City":"GUWAHATI","State":"Assam","Pincode":"781028"},{"InsuranceCompanyName":"ADITYA BIRLA HEALTH INSURANCE COMPANY LTD","HospitalName":"CENTRE FOR SIGHT","Address":"Ground, 1st & 2nd Floor, Arya Masion,Dag No. 1608, GS Road, Bhangagarh,Gmc Dispur,781005","City":"GUWAHATI","State":"Assam","Pincode":"781005"},{"InsuranceCompanyName":"ADITYA BIRLA HEALTH INSURANCE COMPANY LTD","HospitalName":"CHANDRAPRABHA EYE HOSPITAL (A UNIT OF CATRACT & IOL HOSPITAL PVT LTD.)","Address":"K.K. HANDIQUE PATH, JARHAT, ASSAM,,,785001","City":"JORHAT","State":"Assam","Pincode":"785001"},{"InsuranceCompanyName":"ADITYA BIRLA HEALTH INSURANCE COMPANY LTD","HospitalName":"CITY HEART HOSPITAL ( UNIT OF RAJGARH POLYCLINIC & NURSING HOME )","Address":"RAJGARH ROAD,GAWAHATI,KAMRUP,781007","City":"GUWAHATI","State":"Assam","Pincode":"781007"},{"InsuranceCompanyName":"ADITYA BIRLA HEALTH INSURANCE COMPANY LTD","HospitalName":"CITY HOSPITAL & RESEARCH CENTRE","Address":"A.T. ROAD,NEAR TIMKONIA DUKMARI,TIMSUKIA,786125","City":"TINSUKIA","State":"Assam","Pincode":"786125"},{"InsuranceCompanyName":"ADITYA BIRLA HEALTH INSURANCE COMPANY LTD","HospitalName":"DISPUR HOSPITALS PVT LTD.","Address":"Ganeshguri,Dispur,Pincode-781006,,,781005","City":"GUWAHATI","State":"Assam","Pincode":"781005"},{"InsuranceCompanyName":"ADITYA BIRLA HEALTH INSURANCE COMPANY LTD","HospitalName":"DOOMDOOMA POLYCLINIC & NURSING HOME","Address":"K.P.Road,Tinsuka,Pincode-786151,,,786151","City":"TINSUKIA","State":"Assam","Pincode":"786151"},{"InsuranceCompanyName":"ADITYA BIRLA HEALTH INSURANCE COMPANY LTD","HospitalName":"DOWN TOWN HOSPITAL LTD","Address":"G.S. ROAD, DISPUR, GUWAHATI,Assam,,781006","City":"GUWAHATI","State":"Assam","Pincode":"781006"},{"InsuranceCompanyName":"ADITYA BIRLA HEALTH INSURANCE COMPANY LTD","HospitalName":"DR. DAMANI'S NURSING HOME","Address":"LOKAPRIYA GOPINATH BORDOLOI AVENUE NEAR,CIRCUILT HOUSE, P.O,,786001","City":"DIBRUGARH","State":"Assam","Pincode":"786001"},{"InsuranceCompanyName":"ADITYA BIRLA HEALTH INSURANCE COMPANY LTD","HospitalName":"EAST POINT HOSPITAL & RESEARCH CENTRE","Address":"B.G. Road,,,785640","City":"SIBSAGAR","State":"Assam","Pincode":"785640"},{"InsuranceCompanyName":"ADITYA BIRLA HEALTH INSURANCE COMPANY LTD","HospitalName":"EXCELCARE HOSPITALS - GUWAHATI","Address":"Paschim Boragaon, Nh 37, Near Ganesh Mandir,0,,781001","City":"GUWAHATI","State":"Assam","Pincode":"781001"},{"InsuranceCompanyName":"ADITYA BIRLA HEALTH INSURANCE COMPANY LTD","HospitalName":"EYE DOCTORS ( AN EYE INSTITUTE AND SURGERY CENTRE )","Address":"THIRD FLOOR, MAYUR HEIGHTS, NEAR ABC BUS STOP, OPPOSITE SOHUM EMPORIA, GS ROAD,Dispur,,781005","City":"GUWAHATI","State":"Assam","Pincode":"781005"},{"InsuranceCompanyName":"ADITYA BIRLA HEALTH INSURANCE COMPANY LTD","HospitalName":"G.D. HOSPTIAL & RESEARCH CENTRE","Address":"N.H.37,HAIBARGAON,,782002","City":"NAGAON","State":"Assam","Pincode":"782002"},{"InsuranceCompanyName":"ADITYA BIRLA HEALTH INSURANCE COMPANY LTD","HospitalName":"GNRC HOSPITAL","Address":"Dispur Supermarket,,,781006","City":"GUWAHATI","State":"Assam","Pincode":"781006"},{"InsuranceCompanyName":"ADITYA BIRLA HEALTH INSURANCE COMPANY LTD","HospitalName":"GNRC HOSPITAL LTD","Address":"DISPUR,,,781006","City":"GUWAHATI","State":"Assam","Pincode":"781006"},{"InsuranceCompanyName":"ADITYA BIRLA HEALTH INSURANCE COMPANY LTD","HospitalName":"GNRC HOSPITALS - SIXMILE","Address":"SIXMILE -GUWAHATI,,,781005","City":"GUWAHATI","State":"Assam","Pincode":"781005"},{"InsuranceCompanyName":"ADITYA BIRLA HEALTH INSURANCE COMPANY LTD","HospitalName":"GOOD HEALTH HOSPITAL","Address":"G.S ROAD,ADRESSSS 1,,781006","City":"GUWAHATI","State":"Assam","Pincode":"781006"},{"InsuranceCompanyName":"ADITYA BIRLA HEALTH INSURANCE COMPANY LTD","HospitalName":"GREEN HEALS HOSPITAL","Address":"Beltala,Mehepur,Silchar,,,788015","City":"SILCHAR","State":"Assam","Pincode":"788015"},{"InsuranceCompanyName":"ADITYA BIRLA HEALTH INSURANCE COMPANY LTD","HospitalName":"GUWAHATI EYE HOSPITAL","Address":"OPP. HANUMAN MANDIR LACHIT NAGAR  G.S ROAD, GWAHATI,,,781006","City":"GUWAHATI","State":"Assam","Pincode":"781006"},{"InsuranceCompanyName":"ADITYA BIRLA HEALTH INSURANCE COMPANY LTD","HospitalName":"GUWAHATI METRO HOSPITAL","Address":"2 No Khanapara NH 37,Opposite Bodoland Guest House , Dist : Kamrup Metro ,Guwahati,,,781022","City":"ALWAR","State":"Assam","Pincode":"781022"},{"InsuranceCompanyName":"ADITYA BIRLA HEALTH INSURANCE COMPANY LTD","HospitalName":"H.M.POLY CLINIC & DIAGNOSTIC CENTER - DIBRUGARH","Address":"Bordoloi Avenue, Amc Road,0,,786001","City":"DIBRUGARH","State":"Assam","Pincode":"786001"},{"InsuranceCompanyName":"ADITYA BIRLA HEALTH INSURANCE COMPANY LTD","HospitalName":"HAJI ABDUL MAJID MEMORIAL (HAMM) HOSPITAL","Address":"MAIN ROAD, HOJAI, ASSAM , HOJAI , HOJAI , ASSAM,,,782435","City":"NAGAON","State":"Assam","Pincode":"782435"},{"InsuranceCompanyName":"ADITYA BIRLA HEALTH INSURANCE COMPANY LTD","HospitalName":"HAYAT HOSPITAL","Address":"Odalbakra,Lalganesh,Kamrup,Pincode-781034,,,781034","City":"GUWAHATI","State":"Assam","Pincode":"781034"},{"InsuranceCompanyName":"ADITYA BIRLA HEALTH INSURANCE COMPANY LTD","HospitalName":"HEALTH CITY GUWAHATI","Address":"Koinadhara,Khanapara, NH-37,,781022","City":"GUWAHATI","State":"Assam","Pincode":"781022"},{"InsuranceCompanyName":"ADITYA BIRLA HEALTH INSURANCE COMPANY LTD","HospitalName":"INSTITUTE OF CHILD & WOMAN HEALTH CARE (A UNIT OF DR.KUNTAL GOSWAMI MEMORIAL TRUST )","Address":"ZOO-NARENGI ROAD OPPOSITE GEETANAGAR,POLICE STATION,,781024","City":"GUWAHATI","State":"Assam","Pincode":"781024"},{"InsuranceCompanyName":"ADITYA BIRLA HEALTH INSURANCE COMPANY LTD","HospitalName":"INSTITUTE OF HUMAN REPRODUCTION","Address":"Fatasil Ambari,,,781009","City":"GUWAHATI","State":"Assam","Pincode":"781009"},{"InsuranceCompanyName":"ADITYA BIRLA HEALTH INSURANCE COMPANY LTD","HospitalName":"J.J. MEMORIAL DIAGNOSTICS & HOSPITAL (P) LTD","Address":"LGB AVENUE,CIRCUIT HOUSE,,786001","City":"DIBRUGARH","State":"Assam","Pincode":"786001"},{"InsuranceCompanyName":"ADITYA BIRLA HEALTH INSURANCE COMPANY LTD","HospitalName":"LOWER ASSAM HOSPITAL & RESEARCH CENTRE","Address":"Chapaguri Road,North Bongaigaon,Pincode-783380,,,783380","City":"BONGAIGAON","State":"Assam","Pincode":"783380"},{"InsuranceCompanyName":"ADITYA BIRLA HEALTH INSURANCE COMPANY LTD","HospitalName":"M. R. M. MEMORIAL HOSPITAL","Address":"2098/297, J.D ROAD,BTC,KOKRAJHAR,,,783370","City":"KOKRAJHAR","State":"Assam","Pincode":"783370"},{"InsuranceCompanyName":"ADITYA BIRLA HEALTH INSURANCE COMPANY LTD","HospitalName":"MARWARI HOSPITALS-GUWAHATI","Address":"Sati Joymati Road, Athgaon, Guwahati,Kamrup,,781008","City":"GUWAHATI","State":"Assam","Pincode":"781008"},{"InsuranceCompanyName":"ADITYA BIRLA HEALTH INSURANCE COMPANY LTD","HospitalName":"MEDICARE DIAGNOSTIC AND HOSPITAL","Address":"LGB AVENUE NEAR GRCUIT HOUSE,,,786001","City":"DIBRUGARH","State":"Assam","Pincode":"786001"},{"InsuranceCompanyName":"ADITYA BIRLA HEALTH INSURANCE COMPANY LTD","HospitalName":"MEDICURE CENTRE (MALPANI HOSPITAL & RESEARCH INSTITUTE)","Address":"RAJA MAIDAM ROAD,P.O,,785001","City":"JORHAT","State":"Assam","Pincode":"785001"},{"InsuranceCompanyName":"ADITYA BIRLA HEALTH INSURANCE COMPANY LTD","HospitalName":"MEDILAND HOSPITAL & RESEARCH CENTRE","Address":"ITKHOLA,MALUGRAM,CACHAR,788002","City":"SILCHAR","State":"Assam","Pincode":"788002"},{"InsuranceCompanyName":"ADITYA BIRLA HEALTH INSURANCE COMPANY LTD","HospitalName":"MIDLAND  HOSPITAL","Address":"SHREE NAGAR , RGB ROAD,  ( NEAR STATE 200) GUWAHATI,Kamrup,,781005","City":"GUWAHATI","State":"Assam","Pincode":"781005"},{"InsuranceCompanyName":"ADITYA BIRLA HEALTH INSURANCE COMPANY LTD","HospitalName":"NALBARI MULTISPECIALITY HOSPITAL (A UNIT OF  HI-TECH HEALTH CARE PVT LTD)","Address":"Alternative Road, Nalbari,,,781335","City":"ALWAR","State":"Assam","Pincode":"781335"},{"InsuranceCompanyName":"ADITYA BIRLA HEALTH INSURANCE COMPANY LTD","HospitalName":"NARAYANA SUPERSPECIALITY HOSPITAL","Address":"Tolaram Bafna,Civil Hospital Campus Amingaon,,,781031","City":"GUWAHATI","State":"Assam","Pincode":"781031"},{"InsuranceCompanyName":"ADITYA BIRLA HEALTH INSURANCE COMPANY LTD","HospitalName":"NEMCARE HOSPITAL","Address":"G.S. ROAD,ADRESSSS 1,,781005","City":"GUWAHATI","State":"Assam","Pincode":"781005"},{"InsuranceCompanyName":"ADITYA BIRLA HEALTH INSURANCE COMPANY LTD","HospitalName":"NEMCARE HOSPITAL","Address":"RANU SINGH ROAD, TEZPUR, DIST-SONITPUR (ASSAM),,,784001","City":"SONITPUR","State":"Assam","Pincode":"784001"},{"InsuranceCompanyName":"ADITYA BIRLA HEALTH INSURANCE COMPANY LTD","HospitalName":"NEMCARE HOSPITALS PVT LTD","Address":"G.M.C.H ROAD,BHANGAGARH,GUWAHATI, KAMRUP,,781005","City":"GUWAHATI","State":"Assam","Pincode":"781005"},{"InsuranceCompanyName":"ADITYA BIRLA HEALTH INSURANCE COMPANY LTD","HospitalName":"NEPHROPLUS DIALYSIS CENTER-GARCHUK, GUWAHATI","Address":"Boro Path Opposite: DPS School Ahom Gaon,GARCHUK, Guwahati, Assam 781035,,,781035","City":"ALWAR","State":"Assam","Pincode":"781035"},{"InsuranceCompanyName":"ADITYA BIRLA HEALTH INSURANCE COMPANY LTD","HospitalName":"NORTH EAST CANCER HOSPITAL AND RESEARCH INSTITUTE(A UNIT OF NORTH EAST ONCO CARE PVT LTD)","Address":"11Th Mile,Amerigog,Jorabat,Pincode-781023,,,781023","City":"KAMRUP","State":"Assam","Pincode":"781023"},{"InsuranceCompanyName":"ADITYA BIRLA HEALTH INSURANCE COMPANY LTD","HospitalName":"NORTH EASTERN MEDICAL RESEARCH INSTITUTE LIMITED","Address":"A.M. ROAD, REHABARI,,,781008","City":"GUWAHATI","State":"Assam","Pincode":"781008"},{"InsuranceCompanyName":"ADITYA BIRLA HEALTH INSURANCE COMPANY LTD","HospitalName":"PINEWOOD HOSPITAL","Address":"SUBOCHONI ROAD,ADRESSSS 1,,786125","City":"TINSUKIA","State":"Assam","Pincode":"786125"},{"InsuranceCompanyName":"ADITYA BIRLA HEALTH INSURANCE COMPANY LTD","HospitalName":"PLEXUS HOSPITALS PRIVATE LIMITED","Address":"SRISHTI HOSPITAL PALTAN BAZAAR, DIBRUGARH,JALAN NAGAR,,,786005","City":"DIBRUGARH","State":"Assam","Pincode":"786005"},{"InsuranceCompanyName":"ADITYA BIRLA HEALTH INSURANCE COMPANY LTD","HospitalName":"PRAGATI HOSPITAL & RESEARCH CENTRE","Address":"N.H. BYPASS,JENGANIKATIA,,785640","City":"SIBSAGAR","State":"Assam","Pincode":"785640"},{"InsuranceCompanyName":"ADITYA BIRLA HEALTH INSURANCE COMPANY LTD","HospitalName":"PRATIKSHA HOSPITAL","Address":"VIP ROAD, BARBARI, KAMRUP,,,781036","City":"GUWAHATI","State":"Assam","Pincode":"781036"},{"InsuranceCompanyName":"ADITYA BIRLA HEALTH INSURANCE COMPANY LTD","HospitalName":"RAHMAN HOSPITALS PRIVATE LIMITED","Address":"V. I. P. Road, Sixmile, Guwahati, Assam,- 781022 (India),,781022","City":"GUWAHATI","State":"Assam","Pincode":"781022"},{"InsuranceCompanyName":"ADITYA BIRLA HEALTH INSURANCE COMPANY LTD","HospitalName":"SAINT JOHNS HOSPITAL","Address":"GMCH Road Christian Basti Guwahati,,,781005","City":"GUWAHATI","State":"Assam","Pincode":"781005"},{"InsuranceCompanyName":"ADITYA BIRLA HEALTH INSURANCE COMPANY LTD","HospitalName":"SANJEVANI HOSPITAL","Address":"A T ROAD,MALIGAON,,781011","City":"GUWAHATI","State":"Assam","Pincode":"781011"},{"InsuranceCompanyName":"ADITYA BIRLA HEALTH INSURANCE COMPANY LTD","HospitalName":"SANJIVANI DIAGNOSTICS & HOSPITAL","Address":"BORDOLI AVENUE,AMC ROAD,PATTAN BAZAR,786005","City":"DIBRUGARH","State":"Assam","Pincode":"786005"},{"InsuranceCompanyName":"ADITYA BIRLA HEALTH INSURANCE COMPANY LTD","HospitalName":"SANJIVANI HOSPITAL","Address":"A.T. ROAD,TARAJAN,,785001","City":"JORHAT","State":"Assam","Pincode":"785001"},{"InsuranceCompanyName":"ADITYA BIRLA HEALTH INSURANCE COMPANY LTD","HospitalName":"SARMA NURSING HOME","Address":"THANA ROAD,SIBSAGAR,,785640","City":"SIBSAGAR","State":"Assam","Pincode":"785640"},{"InsuranceCompanyName":"ADITYA BIRLA HEALTH INSURANCE COMPANY LTD","HospitalName":"SEVEN SISTERS MEDICAL SERVICE LTD - GOALPARA","Address":"Bapuji Nagar,P.O.Aladmari,0,,783121","City":"GOALPARA","State":"Assam","Pincode":"783121"},{"InsuranceCompanyName":"ADITYA BIRLA HEALTH INSURANCE COMPANY LTD","HospitalName":"SOUTH CITY HOSPITAL ( A UNIT OF LOKNATH HEALTHCARE PVT.LTD ) - SILCHAR","Address":"Meherpur ,,0,,788015","City":"SILCHAR","State":"Assam","Pincode":"788015"},{"InsuranceCompanyName":"ADITYA BIRLA HEALTH INSURANCE COMPANY LTD","HospitalName":"SPARSH HOSPITAL (A UNIT OF ARIMATTA HEALTH CARE PRIVATE LIMITED)","Address":"RANGIA STATION ROAD, WARD NO. 2 , RANGIA , RANGIA BLOCK781354,Rangia Block,,781354","City":"KAMRUP","State":"Assam","Pincode":"781354"},{"InsuranceCompanyName":"ADITYA BIRLA HEALTH INSURANCE COMPANY LTD","HospitalName":"SRI SANKARA DEVA NETHRALAYA","Address":"96, BASISTHA ROAD, BELTOLA , GUWAHATI,Kamrup,,781027","City":"GUWAHATI","State":"Assam","Pincode":"781027"},{"InsuranceCompanyName":"ADITYA BIRLA HEALTH INSURANCE COMPANY LTD","HospitalName":"SRISHTI HOSPITAL & RESEARCH CENTRE (P) LTD.","Address":"Paltan Bazar,,,786005","City":"DIBRUGARH","State":"Assam","Pincode":"786005"},{"InsuranceCompanyName":"ADITYA BIRLA HEALTH INSURANCE COMPANY LTD","HospitalName":"SWAGAT SUPER SPECIALITY SURGICAL INSTITUTE & NH","Address":"Dinesh Goswami Path,Gate No 4,Maligaon,,,781011","City":"GUWAHATI","State":"Assam","Pincode":"781011"},{"InsuranceCompanyName":"ADITYA BIRLA HEALTH INSURANCE COMPANY LTD","HospitalName":"SWAGT HOSPITAL & RESEARCH CENTRE","Address":"DR. C.M. DAS PATH,NORTH,,783380","City":"BONGAIGAON","State":"Assam","Pincode":"783380"},{"InsuranceCompanyName":"ADITYA BIRLA HEALTH INSURANCE COMPANY LTD","HospitalName":"SWASTIK NURSING HOME","Address":"Jyoti Nagar Nav Pukhuri,,,786125","City":"TINSUKIA","State":"Assam","Pincode":"786125"},{"InsuranceCompanyName":"ADITYA BIRLA HEALTH INSURANCE COMPANY LTD","HospitalName":"TEZPUR INSTITUTE OF MEDICAL SCIENCES PRIVATE LIMITED (TIMES HOSPITAL)","Address":"OLD N.T. ROAD, DEURIGAON OPPOSITE NRL PETROL PUMP, MISSION CHARIALI, KETEKIBARI, TEZPUR , KACHARIGAON,Kacharigaon,,784001","City":"DHUBURI","State":"Assam","Pincode":"784001"},{"InsuranceCompanyName":"ADITYA BIRLA HEALTH INSURANCE COMPANY LTD","HospitalName":"THE RETINA CENTRE ( A UNIT OF CONFETTI HOLDINGS PRIVATE LIMITED)","Address":"5TH AND 6TH FLOOR, SUBHAM BIJAY CRESCENT, RUKMINI GAON, GS ROAD, GUWAHATI - ASSAM , KHANAPARA,,,781022","City":"GUWAHATI","State":"Assam","Pincode":"781022"},{"InsuranceCompanyName":"ADITYA BIRLA HEALTH INSURANCE COMPANY LTD","HospitalName":"UNITED HOSPITAL AND RESEARCH CENTRE PVT.LTD.","Address":"CIRCUIT HOUSE ROAD,ADRESSSS 1,,781335","City":"NALBARI","State":"Assam","Pincode":"781335"},{"InsuranceCompanyName":"ADITYA BIRLA HEALTH INSURANCE COMPANY LTD","HospitalName":"UROVISION HOSPITAL","Address":"Opposite Satsangh Vihar, Jyotinagar,,,786005","City":"ALWAR","State":"Assam","Pincode":"786005"},{"InsuranceCompanyName":"ADITYA BIRLA HEALTH INSURANCE COMPANY LTD","HospitalName":"VALLEY HOSPITAL","Address":"Meherpur, Birbal Bazar, Assam,,,788015","City":"SILCHAR","State":"Assam","Pincode":"788015"},{"InsuranceCompanyName":"ADITYA BIRLA HEALTH INSURANCE COMPANY LTD","HospitalName":"WINTROBE HOSPITAL","Address":"59,G.N.B. ROAD OPP AGP HEAD OFFICE,,781001","City":"GUWAHATI","State":"Assam","Pincode":"781001"}],[{"InsuranceCompanyName":"ADITYA BIRLA HEALTH INSURANCE COMPANY LTD","HospitalName":"SATYADEV SUPERSPECILITY  HOSPITAL","Address":"Magistrate Colony Main Rd, Near Souvarsha Garden , Ashiyana Digha Road,,,800025","City":"ALWAR","State":"Bihar","Pincode":"800025"},{"InsuranceCompanyName":"ADITYA BIRLA HEALTH INSURANCE COMPANY LTD","HospitalName":"A.B.EYE INSTITUTE","Address":"ROAD NO.12,RAJENDRA NAGAR,,800016","City":"PATNA","State":"Bihar","Pincode":"800016"},{"InsuranceCompanyName":"ADITYA BIRLA HEALTH INSURANCE COMPANY LTD","HospitalName":"AADDHYAS WELLNESS PVT LTD","Address":"Plot-199, RPS Mangalam, Bailey Road,Sherpur,,801503","City":"PATNA","State":"Bihar","Pincode":"801503"},{"InsuranceCompanyName":"ADITYA BIRLA HEALTH INSURANCE COMPANY LTD","HospitalName":"AAROGYAM EMERGENCY HOSPITAL PRIVATE LIMITED","Address":"90 Ft Road, Vijay Nagar Kankarbagh,,,800020","City":"PATNA","State":"Bihar","Pincode":"800020"},{"InsuranceCompanyName":"ADITYA BIRLA HEALTH INSURANCE COMPANY LTD","HospitalName":"AASTH LOK HOSPITAL PVT. LTD.","Address":"N/4, Professer Colony,Near Kendriya Vidyalaya,Kankarbagh,800020,,,800020","City":"PATNA","State":"Bihar","Pincode":"800020"},{"InsuranceCompanyName":"ADITYA BIRLA HEALTH INSURANCE COMPANY LTD","HospitalName":"ABHAY INSTITUTE OF MEDICAL SCIENCES ( AIMS ) - GAYA","Address":"Hario , Gaya Dobhi Road , Gaya, Opposite To Officer Training Academy,NEAR OFFICER TRAINING ACADEMYOPPOSITE GAYA INTERNATIONAL AIR PORT,,823001","City":"GAYA","State":"Bihar","Pincode":"823001"},{"InsuranceCompanyName":"ADITYA BIRLA HEALTH INSURANCE COMPANY LTD","HospitalName":"ABHINANDAN HOSPITAL","Address":"0/60,DOCTORS COLONY,KANKAR BAGA,800020","City":"PATNA","State":"Bihar","Pincode":"800020"},{"InsuranceCompanyName":"ADITYA BIRLA HEALTH INSURANCE COMPANY LTD","HospitalName":"ADARSH LIFE CARE HOSPITAL PVT.LTD","Address":"90 FEET RAOD, JANKI NAGER,HANUMAN NAGAR,PATNA,,,800020","City":"PATNA","State":"Bihar","Pincode":"800020"},{"InsuranceCompanyName":"ADITYA BIRLA HEALTH INSURANCE COMPANY LTD","HospitalName":"ADARSH SUKH SAGAR HOSPITAL","Address":"RAJOPATTI, DUMRA ROAD, SITAMARHI, BIHAR,,,843302","City":"ALWAR","State":"Bihar","Pincode":"843302"},{"InsuranceCompanyName":"ADITYA BIRLA HEALTH INSURANCE COMPANY LTD","HospitalName":"ADVANCED NEURO HOSPITAL ( A UNIT OF ADVANCE NEURODIAGNOSTIC CENTRE PVT. LTD. )","Address":"46, Kavi Raman Path, Nageshwar Colony,Boring Road,,800001","City":"PATNA","State":"Bihar","Pincode":"800001"},{"InsuranceCompanyName":"ADITYA BIRLA HEALTH INSURANCE COMPANY LTD","HospitalName":"ADWITA HOSPITAL","Address":"Dak Banglow Road, Near SK Mahila College,,,851101","City":"BEGUSARAI","State":"Bihar","Pincode":"851101"},{"InsuranceCompanyName":"ADITYA BIRLA HEALTH INSURANCE COMPANY LTD","HospitalName":"AHMAD LIFE CARE HOSPITAL","Address":"Bankey Bazar ,Sherghati ,,,824211","City":"ALWAR","State":"Bihar","Pincode":"824211"},{"InsuranceCompanyName":"ADITYA BIRLA HEALTH INSURANCE COMPANY LTD","HospitalName":"AKHAND JYOTI EYE HOSPITAL","Address":"X T T I MORE, DIGHAHAT, NEAR ALPANA CINEMA, PATNA,,,800011","City":"PATNA","State":"Bihar","Pincode":"800011"},{"InsuranceCompanyName":"ADITYA BIRLA HEALTH INSURANCE COMPANY LTD","HospitalName":"AKHAND JYOTI EYE HOSPITAL","Address":"VILL+POST MASTICHAK, DARIYAPUR,,,841219","City":"SARAN","State":"Bihar","Pincode":"841219"},{"InsuranceCompanyName":"ADITYA BIRLA HEALTH INSURANCE COMPANY LTD","HospitalName":"AKSHAT SEVA SADAN","Address":"Yarpur Patna,,,800001","City":"PATNA","State":"Bihar","Pincode":"800001"},{"InsuranceCompanyName":"ADITYA BIRLA HEALTH INSURANCE COMPANY LTD","HospitalName":"AMAR JYOTI HOSPITAL","Address":"Behind of Sadar Hospital  Parmila Chowk,,,851101","City":"BEGUSARAI","State":"Bihar","Pincode":"851101"},{"InsuranceCompanyName":"ADITYA BIRLA HEALTH INSURANCE COMPANY LTD","HospitalName":"ANANDITA HOSPITAL - PATNA","Address":"Road No. 13/C,RAJENDRA NAGAR,,800016","City":"PATNA","State":"Bihar","Pincode":"800016"},{"InsuranceCompanyName":"ADITYA BIRLA HEALTH INSURANCE COMPANY LTD","HospitalName":"ANMOL HOSPITAL (A UNIT OF SAI ANMOL MULTISPECIALITY HOSPITAL PVT LTD)","Address":"Gandhi Setu Road, NH 77,,,800026","City":"ALWAR","State":"Bihar","Pincode":"800026"},{"InsuranceCompanyName":"ADITYA BIRLA HEALTH INSURANCE COMPANY LTD","HospitalName":"ANUP INSTITUTE OF ORTHOPAEDICS & REHABILITATION","Address":"G-75- 77, P.C. COLONY, KANKARBAGH PATNA BIHAR,,,800020","City":"PATNA","State":"Bihar","Pincode":"800020"},{"InsuranceCompanyName":"ADITYA BIRLA HEALTH INSURANCE COMPANY LTD","HospitalName":"AROGYAM SURGICAL & TRAUMA HOSPITAL(OPC) PVT. LTD.","Address":"Agamkuan Road, Doctors Colony,Chooti Pahari,,800007","City":"PATNA","State":"Bihar","Pincode":"800007"},{"InsuranceCompanyName":"ADITYA BIRLA HEALTH INSURANCE COMPANY LTD","HospitalName":"AROHI HOSPITAL","Address":"SBI Officers Colony House No-7, Brahmsthani Road,Sheikhpura Bailey Road,,,800014","City":"PATNA","State":"Bihar","Pincode":"800014"},{"InsuranceCompanyName":"ADITYA BIRLA HEALTH INSURANCE COMPANY LTD","HospitalName":"ARSH SUPER SPECIALITY HOSPITAL( A UNIT OF ARSH MEDI TECH PVT LTD. )","Address":"West of Judge Colony,,,823001","City":"ALWAR","State":"Bihar","Pincode":"823001"},{"InsuranceCompanyName":"ADITYA BIRLA HEALTH INSURANCE COMPANY LTD","HospitalName":"ARVIND HOSPITAL PVT LTD","Address":"ASHOK RAJPATH,,,800004","City":"PATNA","State":"Bihar","Pincode":"800004"},{"InsuranceCompanyName":"ADITYA BIRLA HEALTH INSURANCE COMPANY LTD","HospitalName":"ASG HOSPITAL (PATNA)","Address":"Old R.K Avenue, Rajendra Nagar, and Near Dinkar Golamber-Patna,,,800020","City":"PATNA","State":"Bihar","Pincode":"800020"},{"InsuranceCompanyName":"ADITYA BIRLA HEALTH INSURANCE COMPANY LTD","HospitalName":"ASG HOSPITAL PRIVATE LIMITED","Address":"Beena Imperia, VIP Road Laheria Sarai,,,846001","City":"DARBHANGA","State":"Bihar","Pincode":"846001"},{"InsuranceCompanyName":"ADITYA BIRLA HEALTH INSURANCE COMPANY LTD","HospitalName":"ASG HOSPITAL PVT LTD.","Address":"Swadha's Sharda Complex , Near Canara Bank , Danapur,,,801503","City":"PATNA","State":"Bihar","Pincode":"801503"},{"InsuranceCompanyName":"ADITYA BIRLA HEALTH INSURANCE COMPANY LTD","HospitalName":"ASG HOSPITAL PVT. LTD.","Address":"Zila School Road,Hati Chowk,Ramna,,,842001","City":"MUZAFFARPUR","State":"Bihar","Pincode":"842001"},{"InsuranceCompanyName":"ADITYA BIRLA HEALTH INSURANCE COMPANY LTD","HospitalName":"ASHOKA HOSPITAL","Address":"ROAD  NO 1, JURAN CHAPRA, , MUZAFFARPUR, BIHAR,,,842001","City":"MUZAFFARPUR","State":"Bihar","Pincode":"842001"},{"InsuranceCompanyName":"ADITYA BIRLA HEALTH INSURANCE COMPANY LTD","HospitalName":"ASHOKA MULTISPECIALITY HOSPITAL PVT. LTD.","Address":"Rajendra Nagar,,Road No. 3,800016,,,800016","City":"PATNA","State":"Bihar","Pincode":"800016"},{"InsuranceCompanyName":"ADITYA BIRLA HEALTH INSURANCE COMPANY LTD","HospitalName":"ASIAN CITY HOSPITAL","Address":"Behind P and M Mall,Patliputra Industrial Area,,,800013","City":"PATNA","State":"Bihar","Pincode":"800013"},{"InsuranceCompanyName":"ADITYA BIRLA HEALTH INSURANCE COMPANY LTD","HospitalName":"ASLAM MANO HOSPITAL","Address":"ABGILLA ,NEAR MANPUR BLOCK PAHARTALLI ROAD GAYA , MANPUR,,,823003","City":"GAYA","State":"Bihar","Pincode":"823003"},{"InsuranceCompanyName":"ADITYA BIRLA HEALTH INSURANCE COMPANY LTD","HospitalName":"B.S.L. EYE CARE","Address":"85A, Block, 1St Floor, Ayodhya Niwas, Road No. 2 , Rajendra Nagar,0,,800016","City":"PATNA","State":"Bihar","Pincode":"800016"},{"InsuranceCompanyName":"ADITYA BIRLA HEALTH INSURANCE COMPANY LTD","HospitalName":"BANKA EYE HOSPITAL AND DELTAL CARE CENTRE","Address":"Kurji Opp Loyala School,,,800012","City":"PATNA","State":"Bihar","Pincode":"800012"},{"InsuranceCompanyName":"ADITYA BIRLA HEALTH INSURANCE COMPANY LTD","HospitalName":"BIG APOLLO SPECTRA HOSPITALS (A UNIT OF BIG HEALTHCARE PVT LTD)","Address":"Sheetla mandir road agamkun patna bihar,,,800007","City":"PATNA","State":"Bihar","Pincode":"800007"},{"InsuranceCompanyName":"ADITYA BIRLA HEALTH INSURANCE COMPANY LTD","HospitalName":"BONE AND JOINT HOSPITAL","Address":"Badi Pokhar , Pokhariya ,,,851101","City":"ALWAR","State":"Bihar","Pincode":"851101"},{"InsuranceCompanyName":"ADITYA BIRLA HEALTH INSURANCE COMPANY LTD","HospitalName":"BSM NIRAMAYA HOLISTIC CARE HOSPITAL","Address":"KESHWE ROAD, ANGREJI DHALA , NEAR GAS GODAM, BEGUSARAI,,,851134","City":"BEGUSARAI","State":"Bihar","Pincode":"851134"},{"InsuranceCompanyName":"ADITYA BIRLA HEALTH INSURANCE COMPANY LTD","HospitalName":"BUDDHA CANCER CENTRE PRIVATE LIMITED","Address":"Nahar Road Left Nahar Chowk Rupaspur Bailey Road,,,801503","City":"PATNA","State":"Bihar","Pincode":"801503"},{"InsuranceCompanyName":"ADITYA BIRLA HEALTH INSURANCE COMPANY LTD","HospitalName":"BUDDHA EYE CARE AND LASER CENTRE","Address":"GOLA ROAD MORE, BAILEY ROAD, NEAR BANK OF BARODA, OPP FOOD MALL, RAM JAIPAL NAGAR,,,801503","City":"PATNA","State":"Bihar","Pincode":"801503"},{"InsuranceCompanyName":"ADITYA BIRLA HEALTH INSURANCE COMPANY LTD","HospitalName":"CENTRAL HOSPITAL (SHAMBHU KUMAR SHASHI HOSPITAL PVT LTD)","Address":"Dhanki More Kankar Bagh Road Kumhrar,,,800026","City":"PATNA","State":"Bihar","Pincode":"800026"},{"InsuranceCompanyName":"ADITYA BIRLA HEALTH INSURANCE COMPANY LTD","HospitalName":"CENTRE FOR SIGHT-PATNA (A UNIT OF NEW DELHI CENTRE FOR SIGHT LTD).","Address":"A31, PC COLONY, KANKARBAGH, PATNA, K, SECTOR, SAMPATCHAK, BIHAR,,,800020","City":"PATNA","State":"Bihar","Pincode":"800020"},{"InsuranceCompanyName":"ADITYA BIRLA HEALTH INSURANCE COMPANY LTD","HospitalName":"CHANDIGARH EYE CARE - PATNA","Address":"2H/102 Bhoothnath Road, Bahadurpur Housing Colony,INFRONT OF SANI MANDIR,,800026","City":"PATNA","State":"Bihar","Pincode":"800026"},{"InsuranceCompanyName":"ADITYA BIRLA HEALTH INSURANCE COMPANY LTD","HospitalName":"CISRO HOSPITAL","Address":"Saguna More, Bailey Road, Danapur, Patna, Bihar,,,801503","City":"PATNA","State":"Bihar","Pincode":"801503"},{"InsuranceCompanyName":"ADITYA BIRLA HEALTH INSURANCE COMPANY LTD","HospitalName":"CNS HOSPITAL PVT. LTD.","Address":"8/1, Patliputra Industrial Estate,,,800013","City":"PATNA","State":"Bihar","Pincode":"800013"},{"InsuranceCompanyName":"ADITYA BIRLA HEALTH INSURANCE COMPANY LTD","HospitalName":"CONTACARE EYE HOSPITAL","Address":"\"RUPAM TOWER, NEAR TWARI BECHARS PETROL PUMP, KANKARBAG PATNA\",Lohia Nagar Sampatchak,,800020","City":"PATNA","State":"Bihar","Pincode":"800020"},{"InsuranceCompanyName":"ADITYA BIRLA HEALTH INSURANCE COMPANY LTD","HospitalName":"CRIBS HOSPITAL","Address":"BASUARA CHOWK NEAR AIRPORT MADHUBANI BIHAR, BASUARA,Basuara,,847212","City":"MADHUBANI","State":"Bihar","Pincode":"847212"},{"InsuranceCompanyName":"ADITYA BIRLA HEALTH INSURANCE COMPANY LTD","HospitalName":"CSN NETRALAYA PVT LTD","Address":"Colony More, Kankarbagh Main Road,,,800020","City":"PATNA","State":"Bihar","Pincode":"800020"},{"InsuranceCompanyName":"ADITYA BIRLA HEALTH INSURANCE COMPANY LTD","HospitalName":"CSSH PATNA ARTEMIS HEART CENTRE","Address":"Karbigahiya east central railway patna Junction Bihar 800001,,,800001","City":"PATNA","State":"Bihar","Pincode":"800001"},{"InsuranceCompanyName":"ADITYA BIRLA HEALTH INSURANCE COMPANY LTD","HospitalName":"CURIS HOSPITAL-PATNA","Address":"R.K Puram More,Near Saguna More, Danapur Khagaul Road Patna,0,,801503","City":"PATNA","State":"Bihar","Pincode":"801503"},{"InsuranceCompanyName":"ADITYA BIRLA HEALTH INSURANCE COMPANY LTD","HospitalName":"CUTIS BLISS SKIN AND MATERNITY HOSPITAL","Address":"Middle school road, Opp MIT Telephone Exchange Gate. Jhitkahiya.Bairiya.Muzaffarpur Bihar,,,842003","City":"MUZAFFARPUR","State":"Bihar","Pincode":"842003"},{"InsuranceCompanyName":"ADITYA BIRLA HEALTH INSURANCE COMPANY LTD","HospitalName":"DAYLIGHT HOSPITAL & RESEARCH CENTRE","Address":"OPP.P&T COLONY,NEAR XAVIER SCHOOL,MUZAFFARPUR,,,,842002","City":"MUZAFFARPUR","State":"Bihar","Pincode":"842002"},{"InsuranceCompanyName":"ADITYA BIRLA HEALTH INSURANCE COMPANY LTD","HospitalName":"DHAMMA SUPERSPECIALITY HOSPITAL","Address":"Near AIMS Gate No1, Phulwarisharif,,,801505","City":"ALWAR","State":"Bihar","Pincode":"801505"},{"InsuranceCompanyName":"ADITYA BIRLA HEALTH INSURANCE COMPANY LTD","HospitalName":"DIVYA JYOTI HOSPITAL","Address":"Bhaisasur Chouraha , Kagzi Mohalla,,,803101","City":"ALWAR","State":"Bihar","Pincode":"803101"},{"InsuranceCompanyName":"ADITYA BIRLA HEALTH INSURANCE COMPANY LTD","HospitalName":"DR. SRISHTI SHAUMYA HOSPITAL","Address":"Sai Kripa, Rajendra Nagar,,,841428","City":"GOPALGANJ","State":"Bihar","Pincode":"841428"},{"InsuranceCompanyName":"ADITYA BIRLA HEALTH INSURANCE COMPANY LTD","HospitalName":"DR.BIMAL HOSPITAL AND RESURCH CENTRE PVT.LTD-PATNA","Address":"Adarsh Colony,Near Saguna More,BAILY ROAD PATNA, Danapur Cantt,,801503","City":"PATNA","State":"Bihar","Pincode":"801503"},{"InsuranceCompanyName":"ADITYA BIRLA HEALTH INSURANCE COMPANY LTD","HospitalName":"DRISHTI PUNJ EYE HOSPITAL PVT LTD","Address":"RPS More Bailey Road Saguna More Danapur,,,801503","City":"PATNA","State":"Bihar","Pincode":"801503"},{"InsuranceCompanyName":"ADITYA BIRLA HEALTH INSURANCE COMPANY LTD","HospitalName":"DRISHTIKUNJ NETRALAYA PRIVATE LIMITED","Address":"2ND & 3RD FLOOR, D.S. BUSINESS PARK, SAGUNA MORE ,BAILY ROAD. PATNA , DANAPUR CANTT,,,801503","City":"PATNA","State":"Bihar","Pincode":"801503"},{"InsuranceCompanyName":"ADITYA BIRLA HEALTH INSURANCE COMPANY LTD","HospitalName":"DRISHTIPUNJ NETRALAYA LLP","Address":"D S Business Park, 2nd Floor Above icici Bank,Saguna More Danapur,,801503","City":"PATNA","State":"Bihar","Pincode":"801503"},{"InsuranceCompanyName":"ADITYA BIRLA HEALTH INSURANCE COMPANY LTD","HospitalName":"FATMA HOSPITAL","Address":"NEAR KAPTANPULL, LINE BAZAR, PURNIA,,,854301","City":"PURNIA","State":"Bihar","Pincode":"854301"},{"InsuranceCompanyName":"ADITYA BIRLA HEALTH INSURANCE COMPANY LTD","HospitalName":"FORD HOSPITAL AND RESEARCH CENTER PVT. LTD","Address":"NH.30 KHEMANICHAK NEW JAGANPURA,RAMKRISHNA NAGAR,,800027","City":"PATNA","State":"Bihar","Pincode":"800027"},{"InsuranceCompanyName":"ADITYA BIRLA HEALTH INSURANCE COMPANY LTD","HospitalName":"GALAXY HOSPITAL HEART CARE CENTRE","Address":"Khuskibagh Road, Near Kaptanpur,,,854302","City":"ALWAR","State":"Bihar","Pincode":"854302"},{"InsuranceCompanyName":"ADITYA BIRLA HEALTH INSURANCE COMPANY LTD","HospitalName":"GANPATI RESEARCH INSTITUTE AND HOSPITAL PVT. LTD.","Address":"Old Gandak Pool Road, Jauhari Bazar,,,844101","City":"ALWAR","State":"Bihar","Pincode":"844101"},{"InsuranceCompanyName":"ADITYA BIRLA HEALTH INSURANCE COMPANY LTD","HospitalName":"GARIB NAWAZ EYE CARE","Address":"SWAMI VIVEKANAND PATHNAYA BAZARBHAGALPUR , BHAGALPUR CITY , JAGDISHPUR,,,812002","City":"BHAGALPUR","State":"Bihar","Pincode":"812002"},{"InsuranceCompanyName":"ADITYA BIRLA HEALTH INSURANCE COMPANY LTD","HospitalName":"GETWEL HOSPITAL-PATNA","Address":"Raja Bazar Bailey Road,NEAR PARAS HOSPITAL,,800014","City":"PATNA","State":"Bihar","Pincode":"800014"},{"InsuranceCompanyName":"ADITYA BIRLA HEALTH INSURANCE COMPANY LTD","HospitalName":"GHSPL BEGUSARAI HEALTHCARE LLP - BEGUSARAI","Address":"Shushil Nagar,Near Sing Havl Pokhar,Thana - NH - 31,,,851134","City":"BEGUSARAI","State":"Bihar","Pincode":"851134"},{"InsuranceCompanyName":"ADITYA BIRLA HEALTH INSURANCE COMPANY LTD","HospitalName":"GHSPL BGLP SUPER SPECIALITY HEALTHCARE LLP - BHAGALPUR","Address":"Vila Bansi Tikar,New Kamakhya City,Near astha,,,813210","City":"BHAGALPUR","State":"Bihar","Pincode":"813210"},{"InsuranceCompanyName":"ADITYA BIRLA HEALTH INSURANCE COMPANY LTD","HospitalName":"GHSPL MUZF SUPERSPECILITY HEALTHCARE LLP-MUZAFFARPUR","Address":"Sadatpur, Near New Hazrat Academy Public School,Muzaffarpur,Bihar,0,,842002","City":"MUZAFFARPUR","State":"Bihar","Pincode":"842002"},{"InsuranceCompanyName":"ADITYA BIRLA HEALTH INSURANCE COMPANY LTD","HospitalName":"GLOBAL VISHWAMITRA HOSPITAL","Address":"Main Road,Golomber,Pincode-802101,,,802101","City":"BUXAR","State":"Bihar","Pincode":"802101"},{"InsuranceCompanyName":"ADITYA BIRLA HEALTH INSURANCE COMPANY LTD","HospitalName":"HARRISON MULTISPECIALITY HOSPITAL ( A UNIT OF RASP HEALTHCARE PRIVATE LIMITED )","Address":"P-9, Vidyapuri , Near Kendriya Vidyalaya Road ,,,800020","City":"ALWAR","State":"Bihar","Pincode":"800020"},{"InsuranceCompanyName":"ADITYA BIRLA HEALTH INSURANCE COMPANY LTD","HospitalName":"HARSAN HOSPITAL &TRAUMA CENTRE - GOPALGANJ","Address":"Banjari,Gopalganj,GOPALGANJNEAR NH-28, GOPALGANJ,,841428","City":"GOPALGANJ","State":"Bihar","Pincode":"841428"},{"InsuranceCompanyName":"ADITYA BIRLA HEALTH INSURANCE COMPANY LTD","HospitalName":"HEART HOSPITAL PRIVATE LIMITED","Address":"CHANDRALAYA B-29,PATRAKAR NAGAR KANKARBAGH,,,800020","City":"PATNA","State":"Bihar","Pincode":"800020"},{"InsuranceCompanyName":"ADITYA BIRLA HEALTH INSURANCE COMPANY LTD","HospitalName":"HI TECH EMERGENCY HOSPITAL-PATNA","Address":"Saguna More, Khagaul Road Danapur,SAGUNA MORE, KHAGAUL ROAD DANAPUR,,801503","City":"PATNA","State":"Bihar","Pincode":"801503"},{"InsuranceCompanyName":"ADITYA BIRLA HEALTH INSURANCE COMPANY LTD","HospitalName":"HIMALAYA HOSPITAL","Address":"A UNIT OF MEDISERVE HOSPITAL AND RESEARCH CENTER PVT LTD, 70 FEET I.O.C. ROAD MAHAVIR NAGAR , SIPARA ,,,,800002","City":"PATNA","State":"Bihar","Pincode":"800002"},{"InsuranceCompanyName":"ADITYA BIRLA HEALTH INSURANCE COMPANY LTD","HospitalName":"HTS CHILD HOSPITAL AND RESEARCH CENTRE PVT. LTD.","Address":"L/39, ADARSH COLONY, KIDWAIPURI, PATNA,,,800001","City":"PATNA","State":"Bihar","Pincode":"800001"},{"InsuranceCompanyName":"ADITYA BIRLA HEALTH INSURANCE COMPANY LTD","HospitalName":"I CARE EYE HOSPITAL & RESEARCH CENTRE","Address":"Bhagwat Nagar Naya Tola'Kumhrar,,,800026","City":"PATNA","State":"Bihar","Pincode":"800026"},{"InsuranceCompanyName":"ADITYA BIRLA HEALTH INSURANCE COMPANY LTD","HospitalName":"INDIRA IVF HOSPITAL PVT. LTD.","Address":"2nd floor Vinayak Building , Patalbabu Road,Above V market, Shah Market,Bhagal Pur ,Bihar -812002 ,,,812002","City":"ALWAR","State":"Bihar","Pincode":"812002"},{"InsuranceCompanyName":"ADITYA BIRLA HEALTH INSURANCE COMPANY LTD","HospitalName":"INDIRA IVF HOSPITAL PVT. LTD.","Address":"Juran Chhapra Main Road Sutapatti,Brahmapura, Muzzaffarpur ,Bihar -842001,,,842001","City":"ALWAR","State":"Bihar","Pincode":"842001"},{"InsuranceCompanyName":"ADITYA BIRLA HEALTH INSURANCE COMPANY LTD","HospitalName":"INDIRA IVF HOSPITAL PVT. LTD.","Address":"Kashyap Complex, Bailey Road Above Bigbazar , Patna Bihar  -800014 ,,,800014","City":"ALWAR","State":"Bihar","Pincode":"800014"},{"InsuranceCompanyName":"ADITYA BIRLA HEALTH INSURANCE COMPANY LTD","HospitalName":"ISHWAR DAYAL MEMORIAL HOSPITAL","Address":"N.R.Tower,Khemnichak More,Hanuman Nagar,Kankarbagh,Pincode-800020,,,800012","City":"PATNA","State":"Bihar","Pincode":"800012"},{"InsuranceCompanyName":"ADITYA BIRLA HEALTH INSURANCE COMPANY LTD","HospitalName":"IT MEMORIAL HOSPITAL  ( UNIT OF SUVIKSHA HEALTH CARE PVT. LTD. )","Address":"Bhikanpur Near SKMCH Medical College,NH -57,,842002","City":"MUZAFFARPUR","State":"Bihar","Pincode":"842002"},{"InsuranceCompanyName":"ADITYA BIRLA HEALTH INSURANCE COMPANY LTD","HospitalName":"JAGDISH MEMORIAL HOSPITAL","Address":"BEHIND GEOLOGICAL SURVEY OF INDIA,LOHIYA NAGAR KANKARBAGH,,800020","City":"PATNA","State":"Bihar","Pincode":"800020"},{"InsuranceCompanyName":"ADITYA BIRLA HEALTH INSURANCE COMPANY LTD","HospitalName":"JAHNAVI EYE CARE AND RESEARCH CENTRE","Address":"1ST Floor ,Neelgagan Complex , Paila Pokhar ,,,803101","City":"ALWAR","State":"Bihar","Pincode":"803101"},{"InsuranceCompanyName":"ADITYA BIRLA HEALTH INSURANCE COMPANY LTD","HospitalName":"JAISWAL EYE HOSPITAL","Address":"LMLICHATTI,BEHIND MARIPUR OVERBRIDGE,MUZAFFARPUR 842001 BIHAR,,,842001","City":"MUZAFFARPUR","State":"Bihar","Pincode":"842001"},{"InsuranceCompanyName":"ADITYA BIRLA HEALTH INSURANCE COMPANY LTD","HospitalName":"JAY PRABHA MEDANTA SUPER SPECIALITY HOSPITAL","Address":"HOUSING BOARD COLONY,KANKARBAGH,PATRAKAR NAGAR,PATNA,LOHIA NAGAR,SAMPATCHAK,,,800020","City":"PATNA","State":"Bihar","Pincode":"800020"},{"InsuranceCompanyName":"ADITYA BIRLA HEALTH INSURANCE COMPANY LTD","HospitalName":"JEEVAN SAHARA HOSPITAL PVT LTD","Address":"Rajdhani Road, Tajpur,,,848130","City":"ALWAR","State":"Bihar","Pincode":"848130"},{"InsuranceCompanyName":"ADITYA BIRLA HEALTH INSURANCE COMPANY LTD","HospitalName":"JP MULTISPECIALITY HOSPITAL PRIVATE LIMITED","Address":"Vishanpur Bypass,Goradih road, Lodipur,,813210","City":"BHAGALPUR","State":"Bihar","Pincode":"813210"},{"InsuranceCompanyName":"ADITYA BIRLA HEALTH INSURANCE COMPANY LTD","HospitalName":"JYOTI PUNJ HOSPITAL","Address":"BORING ROAD, SHRI KRISHNAPURI,,,800001","City":"PATNA","State":"Bihar","Pincode":"800001"},{"InsuranceCompanyName":"ADITYA BIRLA HEALTH INSURANCE COMPANY LTD","HospitalName":"KAMALA NURSING HOME","Address":"DR. WIMAL PRASAD SINGH POST OFFICE,HOSPITAL ROAD,,805110","City":"NAWADA","State":"Bihar","Pincode":"805110"},{"InsuranceCompanyName":"ADITYA BIRLA HEALTH INSURANCE COMPANY LTD","HospitalName":"KAUSHALYA EYE RESEARCH INSTITUTE - BHAGALPUR","Address":"Kathalbari,Sukhraj Ray Road,Bhagalpur,0,,812001","City":"BHAGALPUR","State":"Bihar","Pincode":"812001"},{"InsuranceCompanyName":"ADITYA BIRLA HEALTH INSURANCE COMPANY LTD","HospitalName":"KAUSHALYA NURSING HOME","Address":"G.B. Road, near Murarpur Chawk,,,823001","City":"GAYA","State":"Bihar","Pincode":"823001"},{"InsuranceCompanyName":"ADITYA BIRLA HEALTH INSURANCE COMPANY LTD","HospitalName":"KAUSHALYA SAMAY HOSPITAL","Address":"ZERO MILE , NH 30, ARA-JAGDISHPUR ROAD, ARA, BHOJPUR, BIHAR,,,802210","City":"BHOJPUR","State":"Bihar","Pincode":"802210"},{"InsuranceCompanyName":"ADITYA BIRLA HEALTH INSURANCE COMPANY LTD","HospitalName":"KESHAV HOSPITAL PVT LTD","Address":"Saguna More,Beiley Road,Pincode-801503,,,801503","City":"PATNA","State":"Bihar","Pincode":"801503"},{"InsuranceCompanyName":"ADITYA BIRLA HEALTH INSURANCE COMPANY LTD","HospitalName":"KRISHNA HOSPITAL","Address":"Patapur Road, Mahua ,,,844122","City":"VAISHALI","State":"Bihar","Pincode":"844122"},{"InsuranceCompanyName":"ADITYA BIRLA HEALTH INSURANCE COMPANY LTD","HospitalName":"KUMAR EYE CENTRE","Address":"Asha Bhavan Opp. Maharana Pratap Bhawan   Beside Machuatoli Power Hosue, Arya Kumar Road,,,800004","City":"PATNA","State":"Bihar","Pincode":"800004"},{"InsuranceCompanyName":"ADITYA BIRLA HEALTH INSURANCE COMPANY LTD","HospitalName":"KUMAR NETRALAYA","Address":"Doctor Colony,Khandakpar, Nalanda,,803101","City":"BIHAR SHARIF","State":"Bihar","Pincode":"803101"},{"InsuranceCompanyName":"ADITYA BIRLA HEALTH INSURANCE COMPANY LTD","HospitalName":"KURJI HOLY FAMILY HOSPITAL","Address":"Danapur Road, Sadaquat Ashram Post Office, Kurji,,,800010","City":"PATNA","State":"Bihar","Pincode":"800010"},{"InsuranceCompanyName":"ADITYA BIRLA HEALTH INSURANCE COMPANY LTD","HospitalName":"L-UV ACADEMY OF MEDICAL SCIENCE","Address":"AG Colony Main Road, Keshari Nagar Near Veer Kunwar Singh Chowk,,,800024","City":"PATNA","State":"Bihar","Pincode":"800024"},{"InsuranceCompanyName":"ADITYA BIRLA HEALTH INSURANCE COMPANY LTD","HospitalName":"LAHAN EYE HOSPITAL","Address":"Harishaba Chowk ,Ward no-23,,,842002","City":"ALWAR","State":"Bihar","Pincode":"842002"},{"InsuranceCompanyName":"ADITYA BIRLA HEALTH INSURANCE COMPANY LTD","HospitalName":"LAXMI NETRALAYA PRIVATE LIMITED","Address":"Mahabir Tola Ara Bhojpur,,,802301","City":"BHOJPUR","State":"Bihar","Pincode":"802301"},{"InsuranceCompanyName":"ADITYA BIRLA HEALTH INSURANCE COMPANY LTD","HospitalName":"LIFE LINE HOSPITAL & RESEARCH CENTER - BEGUSARAI","Address":"Near Barauni Dairy,BARAUNI,,851112","City":"BEGUSARAI","State":"Bihar","Pincode":"851112"},{"InsuranceCompanyName":"ADITYA BIRLA HEALTH INSURANCE COMPANY LTD","HospitalName":"M S ADARSH HOSPITAL PVT. LTD","Address":"Barwat Sena,,,845438","City":"ALWAR","State":"Bihar","Pincode":"845438"},{"InsuranceCompanyName":"ADITYA BIRLA HEALTH INSURANCE COMPANY LTD","HospitalName":"M. G. M. HOSPITAL & RESEARCH CENTRE PVT. LTD.","Address":"Jagat Narayan Road,,Kadam Kuan,800003,,,800003","City":"PATNA","State":"Bihar","Pincode":"800003"},{"InsuranceCompanyName":"ADITYA BIRLA HEALTH INSURANCE COMPANY LTD","HospitalName":"M.G.M. HOSPITAL & RESEARCH CENTRE PVT. LTD. - PATNA","Address":"Jagat Narayan Road , Kadamkuna,Phulwari Kadamkuan,,800003","City":"PATNA","State":"Bihar","Pincode":"800003"},{"InsuranceCompanyName":"ADITYA BIRLA HEALTH INSURANCE COMPANY LTD","HospitalName":"MAA JANAK NANDINI HOSPITAL","Address":"Hospital Road,,,843302","City":"ALWAR","State":"Bihar","Pincode":"843302"},{"InsuranceCompanyName":"ADITYA BIRLA HEALTH INSURANCE COMPANY LTD","HospitalName":"MAA JANKI HOSPITAL & RESEARCH CENTRE PVT. LTD. - MUZAFFARPUR","Address":"Bairiya Golambar, Near Durga Mandir,NEAR DURGA MANDIR\nNEAR BAIRIYA BUS STAND,,842001","City":"MUZAFFARPUR","State":"Bihar","Pincode":"842001"},{"InsuranceCompanyName":"ADITYA BIRLA HEALTH INSURANCE COMPANY LTD","HospitalName":"MAGADH HOSPITAL(A UNIT OF MAGADH HEALTH PRINT PVR LTD)","Address":"ROAD NO. 2BRAJENDRA NAGAR,,,800016","City":"PATNA","State":"Bihar","Pincode":"800016"},{"InsuranceCompanyName":"ADITYA BIRLA HEALTH INSURANCE COMPANY LTD","HospitalName":"MAMTA MOTHER AND CHILD HOSPITAL PRIVATE LIMITED","Address":"Kashi Takiya , Ranchi Road,Nalanda ,,,803101","City":"ALWAR","State":"Bihar","Pincode":"803101"},{"InsuranceCompanyName":"ADITYA BIRLA HEALTH INSURANCE COMPANY LTD","HospitalName":"MANISH NURSING HOME","Address":"R.K.MISSION ROAD,ADRESSSS 1,,854105","City":"KATIHAR","State":"Bihar","Pincode":"854105"},{"InsuranceCompanyName":"ADITYA BIRLA HEALTH INSURANCE COMPANY LTD","HospitalName":"MATRICHHAYA ORTHO & HEALTH CARE","Address":"G-43, P C COLONY KANKARBAGH PATNA,,,800020","City":"PATNA","State":"Bihar","Pincode":"800020"},{"InsuranceCompanyName":"ADITYA BIRLA HEALTH INSURANCE COMPANY LTD","HospitalName":"MAX EYE HOSPITAL PVT. LTD.","Address":"Near 9 to 9 Super Market,Ram nagari More, Ashiana Digha Road,,800025","City":"PATNA","State":"Bihar","Pincode":"800025"},{"InsuranceCompanyName":"ADITYA BIRLA HEALTH INSURANCE COMPANY LTD","HospitalName":"MAX SEVEN HOSPITAL PVT. LTD - PURNEA","Address":"Rambagh Road , Line Bazar , Purnea , Bihar,0,,854301","City":"PURNIA","State":"Bihar","Pincode":"854301"},{"InsuranceCompanyName":"ADITYA BIRLA HEALTH INSURANCE COMPANY LTD","HospitalName":"MEDAZ SUPER SPECIALITY HOSPITAL PVT LTD","Address":"Biscomaun Colony Golamber, Bajrangpuri,,,800007","City":"ALWAR","State":"Bihar","Pincode":"800007"},{"InsuranceCompanyName":"ADITYA BIRLA HEALTH INSURANCE COMPANY LTD","HospitalName":"MEDI WORLD HOSPITAL","Address":"East Ramkrishna Nagar, Changar More, Patna,,,800027","City":"PATNA","State":"Bihar","Pincode":"800027"},{"InsuranceCompanyName":"ADITYA BIRLA HEALTH INSURANCE COMPANY LTD","HospitalName":"MEDICITY  HOSPITAL & RESEARCH CENTRE","Address":"H.NO-2142, Ward No-14, Pawapuri,,,803115","City":"NALANDA","State":"Bihar","Pincode":"803115"},{"InsuranceCompanyName":"ADITYA BIRLA HEALTH INSURANCE COMPANY LTD","HospitalName":"MEDIVERSAL SUPERSPECIALITY HOSPITAL","Address":"DS - 6 Doctores Colony 90 Feet Road, Kankar Bagh,,,800020","City":"PATNA","State":"Bihar","Pincode":"800020"},{"InsuranceCompanyName":"ADITYA BIRLA HEALTH INSURANCE COMPANY LTD","HospitalName":"METRO TRAUMA HOSPITAL_TR186","Address":"KHEMANI CHAK MORE, MAHAVIR NAGAR, KANKARBAGH,,,,800020","City":"PATNA","State":"Bihar","Pincode":"800020"},{"InsuranceCompanyName":"ADITYA BIRLA HEALTH INSURANCE COMPANY LTD","HospitalName":"MINAKSHI MULTISPECIALITY HOSPITAL","Address":"Main road Brahampura ,Near Zenith Petrol Pump,,,,842003","City":"MUZAFFARPUR","State":"Bihar","Pincode":"842003"},{"InsuranceCompanyName":"ADITYA BIRLA HEALTH INSURANCE COMPANY LTD","HospitalName":"MISHRA MULTI SPECIALITIES HOSPITAL P LTD","Address":"Juran Chapra, Road No. 4,,,842001","City":"MUZAFFARPUR","State":"Bihar","Pincode":"842001"},{"InsuranceCompanyName":"ADITYA BIRLA HEALTH INSURANCE COMPANY LTD","HospitalName":"MM HOSPITAL","Address":"8/M/5 Bahadur Housing Colony, 90 feet main road, Vijay Nagar, Kankarbagh,,,800026","City":"ALWAR","State":"Bihar","Pincode":"800026"},{"InsuranceCompanyName":"ADITYA BIRLA HEALTH INSURANCE COMPANY LTD","HospitalName":"MODERN HOSPITAL","Address":"A/171, P.C COLONY, KANKARBAGH,PATNA,BIHAR,800020","City":"PATNA","State":"Bihar","Pincode":"800020"},{"InsuranceCompanyName":"ADITYA BIRLA HEALTH INSURANCE COMPANY LTD","HospitalName":"MR HOSPITAL","Address":"Pillar No. 76 Rajabazar Bailey Road,,,800014","City":"PATNA","State":"Bihar","Pincode":"800014"},{"InsuranceCompanyName":"ADITYA BIRLA HEALTH INSURANCE COMPANY LTD","HospitalName":"MUNGER EMERGENCY HOSPITAL(A UNIT OF SAARA HOSPITAL AND RESEARCH CENTER PRIVATE LIMITED","Address":"NH-80,NEAR PETROL PUMP,JAMALPUR,MUNGER,,,811214","City":"JAMALPUR","State":"Bihar","Pincode":"811214"},{"InsuranceCompanyName":"ADITYA BIRLA HEALTH INSURANCE COMPANY LTD","HospitalName":"MUNGER NATIONAL HOSPITAL( A UNIT OF MMA HOSPITAL PRIVATE LIMITED )","Address":"Choti Kela Bari,Topkhana Bazar Road,,811201","City":"MUNGER","State":"Bihar","Pincode":"811201"},{"InsuranceCompanyName":"ADITYA BIRLA HEALTH INSURANCE COMPANY LTD","HospitalName":"NAINA EYE CARE CENTRE","Address":"SUBHASH CHOWK, NEAR AXIS BANK, HAJIPUR, VAISHALI,,,844101","City":"VAISHALI","State":"Bihar","Pincode":"844101"},{"InsuranceCompanyName":"ADITYA BIRLA HEALTH INSURANCE COMPANY LTD","HospitalName":"NARAYAN MEDICAL COLLEGE & HOSPITAL - SASARAM","Address":"At+P.O-Jamuhar,Dist-Rohtas.,0,,821305","City":"SAHARSA","State":"Bihar","Pincode":"821305"},{"InsuranceCompanyName":"ADITYA BIRLA HEALTH INSURANCE COMPANY LTD","HospitalName":"NEELKANTH HOSPITAL (UNIT OF SHIVAM HEALTH SERVICES HOSPITAL PVT LTD)","Address":"1A/1 Neelkanth Colony, Ashiyana Digha Road,,,800025","City":"ALWAR","State":"Bihar","Pincode":"800025"},{"InsuranceCompanyName":"ADITYA BIRLA HEALTH INSURANCE COMPANY LTD","HospitalName":"NEPHROPLUS DIALYSIS CENTER-MUZAFFARPUR, BIHAR","Address":"C/o. Nephroplus Dialysis center, Bhawani Hospital & Research Institute Maripur, Power House Chowk, Muzaffarpur, Bihar - 842001,,,842001","City":"ALWAR","State":"Bihar","Pincode":"842001"},{"InsuranceCompanyName":"ADITYA BIRLA HEALTH INSURANCE COMPANY LTD","HospitalName":"NEPHROPLUS DIALYSIS CENTER-PARMILA CHOWK, BEGUSARAI","Address":"C/o.Nephroplus dialysis center,Amar Jyoti Hospital, Parmila Chowk, Behind of Sadar Hospital, Dist- Begusarai, Bihar - 851101,,,851101","City":"ALWAR","State":"Bihar","Pincode":"851101"},{"InsuranceCompanyName":"ADITYA BIRLA HEALTH INSURANCE COMPANY LTD","HospitalName":"NEPHROPLUS DIALYSIS CENTER-PURNEA, BIHAR","Address":"C/o. Nephroplus Dialysis center, MAX 7 Hospital 201, Rambagh Road, Line Bazar, Purnea Purnea Bihar-854301,,,854301","City":"ALWAR","State":"Bihar","Pincode":"854301"},{"InsuranceCompanyName":"ADITYA BIRLA HEALTH INSURANCE COMPANY LTD","HospitalName":"NEPHROPLUS DIALYSIS CENTERLUDHIANA-MOTIHARI, BIHAR","Address":"C/o. Nephroplus Dialysis center, Rahmania Medical Centre NH 28A, Bariyarpur, Motihari, East Champaran, Motihari, Bihar Motihari Bihar - 845401,,,845401","City":"ALWAR","State":"Bihar","Pincode":"845401"},{"InsuranceCompanyName":"ADITYA BIRLA HEALTH INSURANCE COMPANY LTD","HospitalName":"NETAJI SUBHAS MEDICAL COLLEGE AND HOSPITAL","Address":"Amhara Binta,,,801103","City":"ALWAR","State":"Bihar","Pincode":"801103"},{"InsuranceCompanyName":"ADITYA BIRLA HEALTH INSURANCE COMPANY LTD","HospitalName":"NETRA NIDAN EYE HOSPITAL & RESEARCH CENTRE","Address":"A/37,Gate No.2 Sachivalya Colony,In Front of Kendriya Vidyalaya,,,,800020","City":"PATNA","State":"Bihar","Pincode":"800020"},{"InsuranceCompanyName":"ADITYA BIRLA HEALTH INSURANCE COMPANY LTD","HospitalName":"NEW B.K. HOSPITAL","Address":"Jauhari Bazar Hajipur ,Vaishali,,,844101","City":"VAISHALI","State":"Bihar","Pincode":"844101"},{"InsuranceCompanyName":"ADITYA BIRLA HEALTH INSURANCE COMPANY LTD","HospitalName":"NEW LILAWATI HOSPITAL","Address":"Dadar Tole, Near Zeromile,,,,842002","City":"ALWAR","State":"Bihar","Pincode":"842002"},{"InsuranceCompanyName":"ADITYA BIRLA HEALTH INSURANCE COMPANY LTD","HospitalName":"NIDAN HOSPITAL ( A UNIT OF UMERA HEALTH CARE PVT. LTD.)","Address":"Harnichak More, Bypass road, Anisabad Patna,,,800002","City":"PATNA","State":"Bihar","Pincode":"800002"},{"InsuranceCompanyName":"ADITYA BIRLA HEALTH INSURANCE COMPANY LTD","HospitalName":"NIRANJAN AAROGYA NIKETAN & RESEARCH CENTRE PVT. LTD.","Address":"Mishra Vihar, Bihind Devarun,Bhikhna Pahari,,800004","City":"PATNA","State":"Bihar","Pincode":"800004"},{"InsuranceCompanyName":"ADITYA BIRLA HEALTH INSURANCE COMPANY LTD","HospitalName":"NIROG HOSPITAL","Address":"Pillar No. 77 Sheikhpura, Bailey Road-14 Patna,,,800014","City":"PATNA","State":"Bihar","Pincode":"800014"},{"InsuranceCompanyName":"ADITYA BIRLA HEALTH INSURANCE COMPANY LTD","HospitalName":"NOBEL HOSPITAL","Address":"KANTI FACTORY ROAD, KANKARBAGH, PATNA , CHITRAGUPTA NAGAR , SAMPATCHAK,,,800020","City":"PATNA","State":"Bihar","Pincode":"800020"},{"InsuranceCompanyName":"ADITYA BIRLA HEALTH INSURANCE COMPANY LTD","HospitalName":"NSKK AND CITY CRITICAL HOSPITAL PRIVATE LIMITED","Address":"NEAR TOWER KAURA MAIDAN,,,811201","City":"MUNGER","State":"Bihar","Pincode":"811201"},{"InsuranceCompanyName":"ADITYA BIRLA HEALTH INSURANCE COMPANY LTD","HospitalName":"OM SAI NURSING HOME PRIVATE LIMITED","Address":"Near A N MMCH Thana Gaya 8 Veer Kumar Singh Colonh,,,823001","City":"GAYA","State":"Bihar","Pincode":"823001"},{"InsuranceCompanyName":"ADITYA BIRLA HEALTH INSURANCE COMPANY LTD","HospitalName":"PALIKA VINAYAK HOSPITAL PVT LTD","Address":"Bahadurpur Flxover ,Main Road Bus Stop Nagaram Keesara Mandal,Kankarbamh,Sampatchak, K.Sector,,800020","City":"PATNA","State":"Bihar","Pincode":"800020"},{"InsuranceCompanyName":"ADITYA BIRLA HEALTH INSURANCE COMPANY LTD","HospitalName":"PANCARDIA HEART AND MULTI SUPER SPECIALITY HOSPITAL PRIVATE LIMITED","Address":"G/124 PC Colony Main Road,Kankarbagh,,800020","City":"PATNA","State":"Bihar","Pincode":"800020"},{"InsuranceCompanyName":"ADITYA BIRLA HEALTH INSURANCE COMPANY LTD","HospitalName":"PANCHSHILA HOSPITAL","Address":"E-137 Doctors Colony  Near Malahi Dakri Chowk, Kankarbagh,,,800020","City":"PATNA","State":"Bihar","Pincode":"800020"},{"InsuranceCompanyName":"ADITYA BIRLA HEALTH INSURANCE COMPANY LTD","HospitalName":"PARAS GLOBAL HOSPITAL","Address":"Vip Road,Allalpatti,Darbhanga,,,846003","City":"PATNA","State":"Bihar","Pincode":"846003"},{"InsuranceCompanyName":"ADITYA BIRLA HEALTH INSURANCE COMPANY LTD","HospitalName":"PARAS HMRI HOSPITAL","Address":"BAILEY ROAD,RAJA BAZAR,,,800014","City":"PATNA","State":"Bihar","Pincode":"800014"},{"InsuranceCompanyName":"ADITYA BIRLA HEALTH INSURANCE COMPANY LTD","HospitalName":"PARASHAR HOSPITAL( A UNIT OF VIJAYESH KUMAR & SONS PVT LTD)","Address":"Murli Manohar Complex , Kadi Bhandar Chawk ,,,842003","City":"ALWAR","State":"Bihar","Pincode":"842003"},{"InsuranceCompanyName":"ADITYA BIRLA HEALTH INSURANCE COMPANY LTD","HospitalName":"PATLIPUTRA EYE CARE","Address":"A/43 Sachiwalay Colony, Doctors colony, Kankarbagh,,,800020","City":"ALWAR","State":"Bihar","Pincode":"800020"},{"InsuranceCompanyName":"ADITYA BIRLA HEALTH INSURANCE COMPANY LTD","HospitalName":"PATNA MEDICARE EMERGENCY HOSPITAL","Address":"JAGANPURA, NEAR PATNA CENTRAL SCHOOL, NEW JAGANPURA, RAMKRISHNA NAGAR,,,800027","City":"PATNA","State":"Bihar","Pincode":"800027"},{"InsuranceCompanyName":"ADITYA BIRLA HEALTH INSURANCE COMPANY LTD","HospitalName":"POPULAR NURSING HOME (A UNIT OF POPULAR HOSPITAL LLP)","Address":"Patna,,,800004","City":"ALWAR","State":"Bihar","Pincode":"800004"},{"InsuranceCompanyName":"ADITYA BIRLA HEALTH INSURANCE COMPANY LTD","HospitalName":"PRAKASH MULTISPECIALITY HOSPITAL","Address":"Opp DM Residence, Mohan Nagar,,,823001","City":"GAYA","State":"Bihar","Pincode":"823001"},{"InsuranceCompanyName":"ADITYA BIRLA HEALTH INSURANCE COMPANY LTD","HospitalName":"PRASAD HOPITAL","Address":"Brahmpura,0,,842003","City":"MUZAFFARPUR","State":"Bihar","Pincode":"842003"},{"InsuranceCompanyName":"ADITYA BIRLA HEALTH INSURANCE COMPANY LTD","HospitalName":"PRASAD POLY CLINIC","Address":"BANGLAGARH WARD 07-POST LALBAGH DARBHANGA BIHAR,,,846004","City":"DARBHANGA","State":"Bihar","Pincode":"846004"},{"InsuranceCompanyName":"ADITYA BIRLA HEALTH INSURANCE COMPANY LTD","HospitalName":"PRASHANT MEMORIAL CHARITABLE HOSPITAL","Address":"ROAD NO.4,JURANCHAPRA,,842003","City":"MUZAFFARPUR","State":"Bihar","Pincode":"842003"},{"InsuranceCompanyName":"ADITYA BIRLA HEALTH INSURANCE COMPANY LTD","HospitalName":"PULSE EMERGENCY HOSPITAL PVT. LTD.","Address":"Opp. Patna Central School,New Bye Pass Road,,,800020","City":"PATNA","State":"Bihar","Pincode":"800020"},{"InsuranceCompanyName":"ADITYA BIRLA HEALTH INSURANCE COMPANY LTD","HospitalName":"PULSE HOSPITAL","Address":"Barari Road, Anandgarh Campus,,,812001","City":"BHAGALPUR","State":"Bihar","Pincode":"812001"},{"InsuranceCompanyName":"ADITYA BIRLA HEALTH INSURANCE COMPANY LTD","HospitalName":"R N SUPERSPECILITY HOSP AND RESEARCH CENTRE","Address":"Behind Shiv Mandir Bailery Road Patna,LANE OF RUKUNPURA MASJID,,800014","City":"PATNA","State":"Bihar","Pincode":"800014"},{"InsuranceCompanyName":"ADITYA BIRLA HEALTH INSURANCE COMPANY LTD","HospitalName":"RADIANT MULTI SPECIALITY HOSPITAL","Address":"Paschimpali Chowk,,,855108","City":"ALWAR","State":"Bihar","Pincode":"855108"},{"InsuranceCompanyName":"ADITYA BIRLA HEALTH INSURANCE COMPANY LTD","HospitalName":"RAHMANIA MEDICAL CENTRE - MOTIHARI","Address":"Nh-28A, Bariyarpur,,MOTIHARI,,845401","City":"EAST CHAMPARAN","State":"Bihar","Pincode":"845401"},{"InsuranceCompanyName":"ADITYA BIRLA HEALTH INSURANCE COMPANY LTD","HospitalName":"RAHUL NURSING HOME","Address":"Tinpulwa Chowk , Hajipur Road, Vaishali,,,844121","City":"ALWAR","State":"Bihar","Pincode":"844121"},{"InsuranceCompanyName":"ADITYA BIRLA HEALTH INSURANCE COMPANY LTD","HospitalName":"RAHUL URO GYNAEC AND RESEARCH CENTRE","Address":"21, Lal Bahadur Shastri Marg, Boring Road,,,800001","City":"PATNA","State":"Bihar","Pincode":"800001"},{"InsuranceCompanyName":"ADITYA BIRLA HEALTH INSURANCE COMPANY LTD","HospitalName":"RAINBOW EMERGENCY AND TRAUMA HOSPITAL PVT LTD.","Address":"Near Sonali Petrol Pump, Mahatma Gandhi Setu Path (Dhanuki More), Kumharar,,,800026","City":"PATNA","State":"Bihar","Pincode":"800026"},{"InsuranceCompanyName":"ADITYA BIRLA HEALTH INSURANCE COMPANY LTD","HospitalName":"RAJ RETINA AND EYE CARE CENTRE-PATNA-BIHAR","Address":"Road No , 8 H No-25,Patel Nagar,GANDHI MURTI, PATNA,,800023","City":"PATNA","State":"Bihar","Pincode":"800023"},{"InsuranceCompanyName":"ADITYA BIRLA HEALTH INSURANCE COMPANY LTD","HospitalName":"RAJ TRAUMA HOSPITAL","Address":"LANE NO 1, BANK COLONY GOLA ROAD PATNA,,,801503","City":"PATNA","State":"Bihar","Pincode":"801503"},{"InsuranceCompanyName":"ADITYA BIRLA HEALTH INSURANCE COMPANY LTD","HospitalName":"RAJENDRA HOSPITAL","Address":"Dulour NH-30, Jagdishpur,,,802158","City":"BHOJPUR","State":"Bihar","Pincode":"802158"},{"InsuranceCompanyName":"ADITYA BIRLA HEALTH INSURANCE COMPANY LTD","HospitalName":"RAJESHWAR HOSPITAL","Address":"Near Bahadurpur Fly Over Kankarbagh,Main Road Kankarbagh,,,800020","City":"PATNA","State":"Bihar","Pincode":"800020"},{"InsuranceCompanyName":"ADITYA BIRLA HEALTH INSURANCE COMPANY LTD","HospitalName":"RAKSHAK EMERGENCY HOSPITAL","Address":"G T Road Sadaram,,,821115","City":"SAHARSA","State":"Bihar","Pincode":"821115"},{"InsuranceCompanyName":"ADITYA BIRLA HEALTH INSURANCE COMPANY LTD","HospitalName":"RAM RATAN HOSPITAL","Address":"RAMPUR ROAD,NEAR BAZAR SAMITI,,800006","City":"PATNA","State":"Bihar","Pincode":"800006"},{"InsuranceCompanyName":"ADITYA BIRLA HEALTH INSURANCE COMPANY LTD","HospitalName":"RAMNAGRI NURSING HOME (OPC) PVT. LTD","Address":"A-17 Abhiyanat Nagar ,Aashiyana,,,800025","City":"PATNA","State":"Bihar","Pincode":"800025"},{"InsuranceCompanyName":"ADITYA BIRLA HEALTH INSURANCE COMPANY LTD","HospitalName":"RATAN HOSPITAL FOR WOMEN AND CHILDREN (A UNIT OF RUBAN PATLIPUTRA HOSPITAL PRIVATE LIMITED)","Address":"SOUTH GANDHI MAIDAN, PATNA , GARDANIBAGH , PHULWARI,,,800001","City":"PATNA","State":"Bihar","Pincode":"800001"},{"InsuranceCompanyName":"ADITYA BIRLA HEALTH INSURANCE COMPANY LTD","HospitalName":"REMEDY HOSPITAL","Address":"Madhuban Colony Thana Road,,,844101","City":"HAJIPUR","State":"Bihar","Pincode":"844101"},{"InsuranceCompanyName":"ADITYA BIRLA HEALTH INSURANCE COMPANY LTD","HospitalName":"RUBAN EMERGENCY HOSPITAL","Address":"Nawab Bahadur Road,,Paschim Darwaza,800020,,,800020","City":"PATNA","State":"Bihar","Pincode":"800020"},{"InsuranceCompanyName":"ADITYA BIRLA HEALTH INSURANCE COMPANY LTD","HospitalName":"RUBAN EMERGENCY HOSPITAL","Address":"S. P. Verma Road,,S. P. Verma Road,800001,,,800001","City":"PATNA","State":"Bihar","Pincode":"800001"},{"InsuranceCompanyName":"ADITYA BIRLA HEALTH INSURANCE COMPANY LTD","HospitalName":"RUBAN MEMORIAL HOSPITAL (A UNIT OF RUBAN PATLIPUTRA HOSPITAL PVT. LTD.)","Address":"19,PATLIPUTRA GOLAMBAR,PATNA,,,800013","City":"PATNA","State":"Bihar","Pincode":"800013"},{"InsuranceCompanyName":"ADITYA BIRLA HEALTH INSURANCE COMPANY LTD","HospitalName":"S. S. HOSPITAL","Address":"ANISABAD NEAR LAL MANDIR PATNA,,,800002","City":"PATNA","State":"Bihar","Pincode":"800002"},{"InsuranceCompanyName":"ADITYA BIRLA HEALTH INSURANCE COMPANY LTD","HospitalName":"SAHYOG HOSPITAL","Address":"40, PATLIPUTRA COLONY,,,800013","City":"PATNA","State":"Bihar","Pincode":"800013"},{"InsuranceCompanyName":"ADITYA BIRLA HEALTH INSURANCE COMPANY LTD","HospitalName":"SAMARPAN TRAUMA & RESEARCH CENTRE","Address":"Near Singh Petrol Pump Zero Mile,,,800007","City":"PATNA","State":"Bihar","Pincode":"800007"},{"InsuranceCompanyName":"ADITYA BIRLA HEALTH INSURANCE COMPANY LTD","HospitalName":"SAMRAT EMERGENCY & TRAUMA HOSPITAL","Address":"BHAGAWAT NAGAR NEAR NRL PETROL PUMP PATNA,Sampatchak  B.H.Colony,,800026","City":"PATNA","State":"Bihar","Pincode":"800026"},{"InsuranceCompanyName":"ADITYA BIRLA HEALTH INSURANCE COMPANY LTD","HospitalName":"SANJEEVANI HOSPITAL","Address":"Darji Bigha Opp' Bharat Petrol Pump,,,824208","City":"ALWAR","State":"Bihar","Pincode":"824208"},{"InsuranceCompanyName":"ADITYA BIRLA HEALTH INSURANCE COMPANY LTD","HospitalName":"SANJEEVANI LIFE CARE","Address":"Riding road Shekhpura Patna,,,800014","City":"PATNA","State":"Bihar","Pincode":"800014"},{"InsuranceCompanyName":"ADITYA BIRLA HEALTH INSURANCE COMPANY LTD","HospitalName":"SANJIVINI EYE HOSPITAL & RESEARCH INSTITUTE","Address":"18, IAS COLONY KIDWAIPURI,,,800001","City":"PATNA","State":"Bihar","Pincode":"800001"},{"InsuranceCompanyName":"ADITYA BIRLA HEALTH INSURANCE COMPANY LTD","HospitalName":"SAROJANI HEALTH AND RESEARCH HOSPITAL","Address":"Telia Pokhar Ratanpur,,,851101","City":"ALWAR","State":"Bihar","Pincode":"851101"},{"InsuranceCompanyName":"ADITYA BIRLA HEALTH INSURANCE COMPANY LTD","HospitalName":"SARRAF ORTHO SPINE & MATERNITY CENTRE","Address":"Infront of DMC Principal Office, Laheriasarai,  Narsara,,,,846003","City":"DARBHANGA","State":"Bihar","Pincode":"846003"},{"InsuranceCompanyName":"ADITYA BIRLA HEALTH INSURANCE COMPANY LTD","HospitalName":"SARVDRISHTI EYE HOSPITAL PVT.LTD.","Address":"DEEPAYAN, NEAR IC HONDA RUKANPURA, BAILY ROAD, PATNA , PATNA AERODROME , PHULWARI , BIHAR,,,800014","City":"PATNA","State":"Bihar","Pincode":"800014"},{"InsuranceCompanyName":"ADITYA BIRLA HEALTH INSURANCE COMPANY LTD","HospitalName":"SATYAM HOSPITAL","Address":"Sheikhpura (Braham Asthan) Bailey Road. East of I.G.M.S Main Road,,,800014","City":"PATNA","State":"Bihar","Pincode":"800014"},{"InsuranceCompanyName":"ADITYA BIRLA HEALTH INSURANCE COMPANY LTD","HospitalName":"SATYAM SUPER SPECIALITY HOSPITAL","Address":"Maripur- Opp Satyam Paramedical College and Research,,,","City":"ALWAR","State":"Bihar","Pincode":""},{"InsuranceCompanyName":"ADITYA BIRLA HEALTH INSURANCE COMPANY LTD","HospitalName":"SATYAVRAT HOSPITAL (A UNIT OF CHANDRALATA HEALTH FOUNDATION PRIVATE LIMITED.)","Address":"A/24, P.C. COLONY, KANKARBAGH, PATNA , LOHIA NAGAR , SAMPATCHAK,,,800020","City":"PATNA","State":"Bihar","Pincode":"800020"},{"InsuranceCompanyName":"ADITYA BIRLA HEALTH INSURANCE COMPANY LTD","HospitalName":"SAVERA CANCER AND MULTISPECIALITY HOSPITAL (A UNIT OF RADHA BALABH HEALTH CARE)","Address":"Dr R N Singh Road Kankarbagh, RBI Qurter,,,800020","City":"PATNA","State":"Bihar","Pincode":"800020"},{"InsuranceCompanyName":"ADITYA BIRLA HEALTH INSURANCE COMPANY LTD","HospitalName":"SHARP SIGHT EYE HOSPITALS","Address":"Aadya Heights Ashiyana Digha Road,,,800025","City":"PATNA","State":"Bihar","Pincode":"800025"},{"InsuranceCompanyName":"ADITYA BIRLA HEALTH INSURANCE COMPANY LTD","HospitalName":"SHEKHAR EYE CARE AND LASER CENTRE","Address":"ASHIYANA PATLI PUTRA MARG, KESHRI NAGAR ,NALAPAR,,,800024","City":"PATNA","State":"Bihar","Pincode":"800024"},{"InsuranceCompanyName":"ADITYA BIRLA HEALTH INSURANCE COMPANY LTD","HospitalName":"SHIVA HOSPITALS","Address":"GC 3/B,Opp. Rajprabha Commundity Hall,Behind RBI Colony, Kankarbagh,,,800020","City":"PATNA","State":"Bihar","Pincode":"800020"},{"InsuranceCompanyName":"ADITYA BIRLA HEALTH INSURANCE COMPANY LTD","HospitalName":"SHREE BALAJI NETRALAYA","Address":"Nala Road Opp Geepee Furniture,,,800004","City":"PATNA","State":"Bihar","Pincode":"800004"},{"InsuranceCompanyName":"ADITYA BIRLA HEALTH INSURANCE COMPANY LTD","HospitalName":"SHREE HOSPITAL & MATERNITY CENTRE","Address":"Opp. Chapman Girls School ,,,842002","City":"ALWAR","State":"Bihar","Pincode":"842002"},{"InsuranceCompanyName":"ADITYA BIRLA HEALTH INSURANCE COMPANY LTD","HospitalName":"SHREE KESHAV HERITAGE HOSPITAL","Address":"Rahika Road,,,847211","City":"ALWAR","State":"Bihar","Pincode":"847211"},{"InsuranceCompanyName":"ADITYA BIRLA HEALTH INSURANCE COMPANY LTD","HospitalName":"SHRI SAI HOSPITAL (A UNIT OF AKHILESH KR. SINGH HOSPITAL PVT LTD.)","Address":"PLOT NO. DS/2, KANKAR BAGH,PATNA,,800020","City":"PATNA","State":"Bihar","Pincode":"800020"},{"InsuranceCompanyName":"ADITYA BIRLA HEALTH INSURANCE COMPANY LTD","HospitalName":"SHRI SAI HOSPITAL [HEART UNIT] (A UNIT OF AKHILESH KUMAR SINGH HOSPITAL PVT. LTD)","Address":"E-143, DOCTOR`S COLONY, SOUTH OF MALAHI PAKRI CHOWK, KANKARBAGH, PATNA , K.SECTOR , SAMPATCHAK , BIHAR,K.Sector Sampatchak,,800020","City":"PATNA","State":"Bihar","Pincode":"800020"},{"InsuranceCompanyName":"ADITYA BIRLA HEALTH INSURANCE COMPANY LTD","HospitalName":"SHRINIVAS HOSPITAL","Address":"A/60, Near Lohiya Park, Kankarbagh Near Shalimar Sweets Patna,,,800020","City":"PATNA","State":"Bihar","Pincode":"800020"},{"InsuranceCompanyName":"ADITYA BIRLA HEALTH INSURANCE COMPANY LTD","HospitalName":"SHUBHKAMNA HEART HOSPITAL AND MATERNITY CENTRE","Address":"385, AP COLONY,,,823003","City":"GAYA","State":"Bihar","Pincode":"823003"},{"InsuranceCompanyName":"ADITYA BIRLA HEALTH INSURANCE COMPANY LTD","HospitalName":"SHYAM HOSPITAL (A UNIT OF SAM HEALTH CARE & NURSING HOME PVT. LTD.)","Address":"9O Feet Road Kailash Puri, Malhai Pakri( Opp. Ishan Intrnational School),KANKARBAGH,,800020","City":"PATNA","State":"Bihar","Pincode":"800020"},{"InsuranceCompanyName":"ADITYA BIRLA HEALTH INSURANCE COMPANY LTD","HospitalName":"SHYAMA SURGICAL SANSTHAN","Address":"GM Road,Radio Station Road,,846004","City":"DARBHANGA","State":"Bihar","Pincode":"846004"},{"InsuranceCompanyName":"ADITYA BIRLA HEALTH INSURANCE COMPANY LTD","HospitalName":"SHYAMAL HOSPITAL PVT LTD","Address":"MAURYA PATH,KHAJPURA,,800014","City":"PATNA","State":"Bihar","Pincode":"800014"},{"InsuranceCompanyName":"ADITYA BIRLA HEALTH INSURANCE COMPANY LTD","HospitalName":"SIDDHARTH MULTISPECIALITY HOSPITAL PRIVATE LIMITED","Address":"Road No 5A, Rajendra Nagar, Kolkata,,,800016","City":"PATNA","State":"Bihar","Pincode":"800016"},{"InsuranceCompanyName":"ADITYA BIRLA HEALTH INSURANCE COMPANY LTD","HospitalName":"SIDDHARTH NURSING HOME","Address":"GREEN HOUSE, ROAD NO 1,SIDDHARTH PURI COLONY, MANPUR,GAYA,,,823003","City":"GAYA","State":"Bihar","Pincode":"823003"},{"InsuranceCompanyName":"ADITYA BIRLA HEALTH INSURANCE COMPANY LTD","HospitalName":"SIDDHI HOSPITAL","Address":"K-88 P.C COLONY, HANUMAN NAGAR KANKARBAGH, PATNA,,,800020","City":"PATNA","State":"Bihar","Pincode":"800020"},{"InsuranceCompanyName":"ADITYA BIRLA HEALTH INSURANCE COMPANY LTD","HospitalName":"SIDDIQUI NURSING HOME","Address":"OPP. B.N.COLLEGE,BAKERGANJ,,800004","City":"PATNA","State":"Bihar","Pincode":"800004"},{"InsuranceCompanyName":"ADITYA BIRLA HEALTH INSURANCE COMPANY LTD","HospitalName":"SRI SAI HOSPITAL AND TRAUMA CENTRE","Address":"Surgeon Lane, Bengali Pakri, Gaushala Road,,,841226","City":"ALWAR","State":"Bihar","Pincode":"841226"},{"InsuranceCompanyName":"ADITYA BIRLA HEALTH INSURANCE COMPANY LTD","HospitalName":"SRI SAI LIONS NETRALAYA","Address":"B-144 P.C. Colony,near lohiya nagar, mount carmel high school,Kankarbagh,,,800020","City":"PATNA","State":"Bihar","Pincode":"800020"},{"InsuranceCompanyName":"ADITYA BIRLA HEALTH INSURANCE COMPANY LTD","HospitalName":"STAR HOSPITAL (A UNIT OF MAGADH NURSING HOME) - PATNA","Address":"Bypass Fore Lane,BYPASS FORE LANE, FATUA ROAD, BADI PAHADI,,800007","City":"PATNA","State":"Bihar","Pincode":"800007"},{"InsuranceCompanyName":"ADITYA BIRLA HEALTH INSURANCE COMPANY LTD","HospitalName":"SUFIYA MEMORIAL HOSPITAL PRIVATE LIMITED","Address":"Hospital Road,Naya Bazar,,841226","City":"SIWAN","State":"Bihar","Pincode":"841226"},{"InsuranceCompanyName":"ADITYA BIRLA HEALTH INSURANCE COMPANY LTD","HospitalName":"SUN HOSPITAL ( A UNIT OF ANAND LIFELINE HOSPITLAL PVT LTD)","Address":"Daud Bigha Kankarbagh Main Road,,,800026","City":"PATNA","State":"Bihar","Pincode":"800026"},{"InsuranceCompanyName":"ADITYA BIRLA HEALTH INSURANCE COMPANY LTD","HospitalName":"SUNETHRA EYE HOSPITAL","Address":"Ashiana Nagar Phase-II  Shaktipuran,,,800025","City":"PATNA","State":"Bihar","Pincode":"800025"},{"InsuranceCompanyName":"ADITYA BIRLA HEALTH INSURANCE COMPANY LTD","HospitalName":"SURGICAL AND PRASUTI GRIH","Address":"Station Road, Tilak Nagar,,,851101","City":"ALWAR","State":"Bihar","Pincode":"851101"},{"InsuranceCompanyName":"ADITYA BIRLA HEALTH INSURANCE COMPANY LTD","HospitalName":"SURIMS & HOSPITAL","Address":"Belah Bazar,Munger,,,811201","City":"MUNGER","State":"Bihar","Pincode":"811201"},{"InsuranceCompanyName":"ADITYA BIRLA HEALTH INSURANCE COMPANY LTD","HospitalName":"SUSRUTA HOSPITAL","Address":"Bhadraghat, Gulzarbagh,,,800007","City":"PATNA","State":"Bihar","Pincode":"800007"},{"InsuranceCompanyName":"ADITYA BIRLA HEALTH INSURANCE COMPANY LTD","HospitalName":"TAKSHSHILA KIDNEY CARE","Address":"IAS Colony, Near Rupaspur Over Bridge, Bailey Road, Danapur,,,801503","City":"ALWAR","State":"Bihar","Pincode":"801503"},{"InsuranceCompanyName":"ADITYA BIRLA HEALTH INSURANCE COMPANY LTD","HospitalName":"TARA HOSPITAL AND M R C PVT LTD","Address":"B. P. Koirala Marg, Bank Road  Patna,,,800001","City":"PATNA","State":"Bihar","Pincode":"800001"},{"InsuranceCompanyName":"ADITYA BIRLA HEALTH INSURANCE COMPANY LTD","HospitalName":"TARA NURSING HOME","Address":"MMAIN ROAD, GARHPURA, BEGUSARAI,,,851101","City":"BEGUSARAI","State":"Bihar","Pincode":"851101"},{"InsuranceCompanyName":"ADITYA BIRLA HEALTH INSURANCE COMPANY LTD","HospitalName":"UDAYAN HOSPITAL (A UNIT OF IGIMS PVT LTD)","Address":"West of Boring canal road,near Rajapurpul,,,800001","City":"PATNA","State":"Bihar","Pincode":"800001"},{"InsuranceCompanyName":"ADITYA BIRLA HEALTH INSURANCE COMPANY LTD","HospitalName":"UJJAWAL SEVA SADAN","Address":"Bengali Colony, Gali No. 05,Chhatavmi,,845401","City":"MOTIHARI","State":"Bihar","Pincode":"845401"},{"InsuranceCompanyName":"ADITYA BIRLA HEALTH INSURANCE COMPANY LTD","HospitalName":"USHA HOSPITAL","Address":"Juran Chapra,Road Road No 1,,842001","City":"MUZAFFARPUR","State":"Bihar","Pincode":"842001"},{"InsuranceCompanyName":"ADITYA BIRLA HEALTH INSURANCE COMPANY LTD","HospitalName":"VEDANTA CENTRE FOR OPHTHALMIC SCIENCES","Address":"legend plaza, opposite passport office,Ashiyana-digha road,B.V. College, Phulwari,800014","City":"PATNA","State":"Bihar","Pincode":"800014"},{"InsuranceCompanyName":"ADITYA BIRLA HEALTH INSURANCE COMPANY LTD","HospitalName":"VISTA HOSPITAL PRIVATE LIMITED","Address":"Plot No. 1/1103, Opp. Patna Central School,Main Gate Bypass road, Jaganpura,Sampatchak,,800027","City":"PATNA","State":"Bihar","Pincode":"800027"},{"InsuranceCompanyName":"ADITYA BIRLA HEALTH INSURANCE COMPANY LTD","HospitalName":"VIVEK NURSING HOME","Address":"POSTMORTOM ROAD,ADRESSSS 1,,805110","City":"NAWADA","State":"Bihar","Pincode":"805110"},{"InsuranceCompanyName":"ADITYA BIRLA HEALTH INSURANCE COMPANY LTD","HospitalName":"YOGAMAYA DEVI EYE HOSPITAL","Address":"Building No 5, Beside Raj Chikitsa, Boring Patliputra Road,,,800013","City":"ALWAR","State":"Bihar","Pincode":"800013"}]]